<?xml version="1.0" encoding="utf-8"?>
<gpx xmlns="http://www.topografix.com/GPX/1/1" version="1.1" creator="https://mapy.com/">
	<trk>
		<name>Route from Centrální parkoviště to 50.570753N, 14.652341E</name>
		<trkseg>
			<trkpt lat="50.570866" lon="14.652070">
				<ele>271.000000</ele>
			</trkpt>
			<trkpt lat="50.570980" lon="14.651712">
				<ele>271.000000</ele>
			</trkpt>
			<trkpt lat="50.571122" lon="14.651738">
				<ele>272.000000</ele>
			</trkpt>
			<trkpt lat="50.571196" lon="14.651540">
				<ele>272.000000</ele>
			</trkpt>
			<trkpt lat="50.570997" lon="14.651370">
				<ele>272.000000</ele>
			</trkpt>
			<trkpt lat="50.571088" lon="14.651289">
				<ele>272.000000</ele>
			</trkpt>
			<trkpt lat="50.571054" lon="14.651199">
				<ele>273.000000</ele>
			</trkpt>
			<trkpt lat="50.571157" lon="14.651100">
				<ele>274.000000</ele>
			</trkpt>
			<trkpt lat="50.571230" lon="14.651028">
				<ele>274.000000</ele>
			</trkpt>
			<trkpt lat="50.571293" lon="14.650947">
				<ele>274.000000</ele>
			</trkpt>
			<trkpt lat="50.571356" lon="14.650830">
				<ele>275.000000</ele>
			</trkpt>
			<trkpt lat="50.571419" lon="14.650704">
				<ele>275.000000</ele>
			</trkpt>
			<trkpt lat="50.571533" lon="14.650454">
				<ele>275.000000</ele>
			</trkpt>
			<trkpt lat="50.571659" lon="14.650238">
				<ele>275.000000</ele>
			</trkpt>
			<trkpt lat="50.571778" lon="14.650067">
				<ele>275.000000</ele>
			</trkpt>
			<trkpt lat="50.571841" lon="14.649941">
				<ele>275.000000</ele>
			</trkpt>
			<trkpt lat="50.572765" lon="14.647867">
				<ele>275.000000</ele>
			</trkpt>
			<trkpt lat="50.572902" lon="14.648054">
				<ele>275.000000</ele>
			</trkpt>
			<trkpt lat="50.573119" lon="14.648333">
				<ele>275.000000</ele>
			</trkpt>
			<trkpt lat="50.573330" lon="14.648603">
				<ele>274.000000</ele>
			</trkpt>
			<trkpt lat="50.573559" lon="14.648144">
				<ele>273.000000</ele>
			</trkpt>
			<trkpt lat="50.573889" lon="14.647399">
				<ele>270.000000</ele>
			</trkpt>
			<trkpt lat="50.574357" lon="14.646473">
				<ele>270.000000</ele>
			</trkpt>
			<trkpt lat="50.574460" lon="14.646232">
				<ele>270.000000</ele>
			</trkpt>
			<trkpt lat="50.574546" lon="14.645980">
				<ele>270.000000</ele>
			</trkpt>
			<trkpt lat="50.574597" lon="14.645783">
				<ele>270.000000</ele>
			</trkpt>
			<trkpt lat="50.574625" lon="14.645666">
				<ele>270.000000</ele>
			</trkpt>
			<trkpt lat="50.574648" lon="14.645584">
				<ele>270.000000</ele>
			</trkpt>
			<trkpt lat="50.574705" lon="14.645297">
				<ele>270.000000</ele>
			</trkpt>
			<trkpt lat="50.574728" lon="14.645225">
				<ele>270.000000</ele>
			</trkpt>
			<trkpt lat="50.574848" lon="14.644955">
				<ele>270.000000</ele>
			</trkpt>
			<trkpt lat="50.575070" lon="14.644506">
				<ele>270.000000</ele>
			</trkpt>
			<trkpt lat="50.575219" lon="14.644219">
				<ele>270.000000</ele>
			</trkpt>
			<trkpt lat="50.575321" lon="14.644039">
				<ele>270.000000</ele>
			</trkpt>
			<trkpt lat="50.575435" lon="14.643869">
				<ele>270.000000</ele>
			</trkpt>
			<trkpt lat="50.575578" lon="14.643707">
				<ele>270.000000</ele>
			</trkpt>
			<trkpt lat="50.575738" lon="14.643527">
				<ele>270.000000</ele>
			</trkpt>
			<trkpt lat="50.576000" lon="14.643257">
				<ele>270.000000</ele>
			</trkpt>
			<trkpt lat="50.576143" lon="14.643114">
				<ele>270.000000</ele>
			</trkpt>
			<trkpt lat="50.576251" lon="14.642988">
				<ele>270.000000</ele>
			</trkpt>
			<trkpt lat="50.576343" lon="14.642844">
				<ele>270.000000</ele>
			</trkpt>
			<trkpt lat="50.576423" lon="14.642674">
				<ele>270.000000</ele>
			</trkpt>
			<trkpt lat="50.576502" lon="14.642458">
				<ele>270.000000</ele>
			</trkpt>
			<trkpt lat="50.576553" lon="14.642251">
				<ele>270.000000</ele>
			</trkpt>
			<trkpt lat="50.576587" lon="14.642036">
				<ele>270.000000</ele>
			</trkpt>
			<trkpt lat="50.576644" lon="14.641588">
				<ele>270.000000</ele>
			</trkpt>
			<trkpt lat="50.576679" lon="14.641362">
				<ele>270.000000</ele>
			</trkpt>
			<trkpt lat="50.576702" lon="14.641219">
				<ele>270.000000</ele>
			</trkpt>
			<trkpt lat="50.576748" lon="14.641075">
				<ele>270.000000</ele>
			</trkpt>
			<trkpt lat="50.576805" lon="14.640922">
				<ele>270.000000</ele>
			</trkpt>
			<trkpt lat="50.577454" lon="14.639674">
				<ele>270.000000</ele>
			</trkpt>
			<trkpt lat="50.577700" lon="14.639512">
				<ele>270.000000</ele>
			</trkpt>
			<trkpt lat="50.578128" lon="14.638550">
				<ele>275.000000</ele>
			</trkpt>
			<trkpt lat="50.578208" lon="14.638372">
				<ele>275.000000</ele>
			</trkpt>
			<trkpt lat="50.578562" lon="14.637688">
				<ele>275.000000</ele>
			</trkpt>
			<trkpt lat="50.578635" lon="14.637563">
				<ele>275.000000</ele>
			</trkpt>
			<trkpt lat="50.578710" lon="14.637454">
				<ele>275.000000</ele>
			</trkpt>
			<trkpt lat="50.578778" lon="14.637374">
				<ele>275.000000</ele>
			</trkpt>
			<trkpt lat="50.578875" lon="14.637301">
				<ele>275.000000</ele>
			</trkpt>
			<trkpt lat="50.578932" lon="14.637248">
				<ele>275.000000</ele>
			</trkpt>
			<trkpt lat="50.578978" lon="14.637185">
				<ele>275.000000</ele>
			</trkpt>
			<trkpt lat="50.579012" lon="14.637114">
				<ele>274.000000</ele>
			</trkpt>
			<trkpt lat="50.579058" lon="14.636988">
				<ele>273.000000</ele>
			</trkpt>
			<trkpt lat="50.579172" lon="14.636691">
				<ele>271.000000</ele>
			</trkpt>
			<trkpt lat="50.579297" lon="14.636466">
				<ele>270.000000</ele>
			</trkpt>
			<trkpt lat="50.579434" lon="14.636269">
				<ele>270.000000</ele>
			</trkpt>
			<trkpt lat="50.579640" lon="14.635999">
				<ele>270.000000</ele>
			</trkpt>
			<trkpt lat="50.579874" lon="14.635712">
				<ele>270.000000</ele>
			</trkpt>
			<trkpt lat="50.580022" lon="14.635514">
				<ele>270.000000</ele>
			</trkpt>
			<trkpt lat="50.580159" lon="14.635362">
				<ele>270.000000</ele>
			</trkpt>
			<trkpt lat="50.580478" lon="14.634984">
				<ele>270.000000</ele>
			</trkpt>
			<trkpt lat="50.580666" lon="14.634787">
				<ele>270.000000</ele>
			</trkpt>
			<trkpt lat="50.580741" lon="14.634733">
				<ele>270.000000</ele>
			</trkpt>
			<trkpt lat="50.580832" lon="14.634688">
				<ele>270.000000</ele>
			</trkpt>
			<trkpt lat="50.580963" lon="14.634607">
				<ele>270.000000</ele>
			</trkpt>
			<trkpt lat="50.581191" lon="14.634427">
				<ele>270.000000</ele>
			</trkpt>
			<trkpt lat="50.581334" lon="14.634347">
				<ele>270.000000</ele>
			</trkpt>
			<trkpt lat="50.581476" lon="14.634301">
				<ele>270.000000</ele>
			</trkpt>
			<trkpt lat="50.581699" lon="14.634248">
				<ele>270.000000</ele>
			</trkpt>
			<trkpt lat="50.581887" lon="14.634202">
				<ele>270.000000</ele>
			</trkpt>
			<trkpt lat="50.582161" lon="14.634167">
				<ele>270.000000</ele>
			</trkpt>
			<trkpt lat="50.582486" lon="14.634148">
				<ele>270.000000</ele>
			</trkpt>
			<trkpt lat="50.582680" lon="14.634148">
				<ele>270.000000</ele>
			</trkpt>
			<trkpt lat="50.582926" lon="14.634194">
				<ele>270.000000</ele>
			</trkpt>
			<trkpt lat="50.583142" lon="14.634194">
				<ele>270.000000</ele>
			</trkpt>
			<trkpt lat="50.583302" lon="14.634185">
				<ele>270.000000</ele>
			</trkpt>
			<trkpt lat="50.583502" lon="14.634212">
				<ele>270.000000</ele>
			</trkpt>
			<trkpt lat="50.583741" lon="14.634275">
				<ele>270.000000</ele>
			</trkpt>
			<trkpt lat="50.583895" lon="14.634284">
				<ele>270.000000</ele>
			</trkpt>
			<trkpt lat="50.584220" lon="14.634311">
				<ele>270.000000</ele>
			</trkpt>
			<trkpt lat="50.584271" lon="14.634320">
				<ele>270.000000</ele>
			</trkpt>
			<trkpt lat="50.584328" lon="14.634338">
				<ele>270.000000</ele>
			</trkpt>
			<trkpt lat="50.584380" lon="14.634382">
				<ele>270.000000</ele>
			</trkpt>
			<trkpt lat="50.584437" lon="14.634437">
				<ele>270.000000</ele>
			</trkpt>
			<trkpt lat="50.584528" lon="14.634535">
				<ele>270.000000</ele>
			</trkpt>
			<trkpt lat="50.584579" lon="14.634571">
				<ele>270.000000</ele>
			</trkpt>
			<trkpt lat="50.584642" lon="14.634607">
				<ele>270.000000</ele>
			</trkpt>
			<trkpt lat="50.584722" lon="14.634598">
				<ele>270.000000</ele>
			</trkpt>
			<trkpt lat="50.585002" lon="14.634617">
				<ele>270.000000</ele>
			</trkpt>
			<trkpt lat="50.585270" lon="14.633934">
				<ele>270.000000</ele>
			</trkpt>
			<trkpt lat="50.585589" lon="14.632756">
				<ele>271.000000</ele>
			</trkpt>
			<trkpt lat="50.585646" lon="14.632550">
				<ele>271.000000</ele>
			</trkpt>
			<trkpt lat="50.585743" lon="14.632361">
				<ele>271.000000</ele>
			</trkpt>
			<trkpt lat="50.585920" lon="14.632164">
				<ele>272.000000</ele>
			</trkpt>
			<trkpt lat="50.586251" lon="14.631804">
				<ele>272.000000</ele>
			</trkpt>
			<trkpt lat="50.586752" lon="14.631256">
				<ele>272.000000</ele>
			</trkpt>
			<trkpt lat="50.586844" lon="14.631166">
				<ele>273.000000</ele>
			</trkpt>
			<trkpt lat="50.586907" lon="14.631139">
				<ele>273.000000</ele>
			</trkpt>
			<trkpt lat="50.586964" lon="14.631122">
				<ele>273.000000</ele>
			</trkpt>
			<trkpt lat="50.587026" lon="14.631139">
				<ele>273.000000</ele>
			</trkpt>
			<trkpt lat="50.587083" lon="14.630106">
				<ele>270.000000</ele>
			</trkpt>
			<trkpt lat="50.587094" lon="14.629882">
				<ele>270.000000</ele>
			</trkpt>
			<trkpt lat="50.587562" lon="14.630160">
				<ele>270.000000</ele>
			</trkpt>
			<trkpt lat="50.587825" lon="14.630286">
				<ele>270.000000</ele>
			</trkpt>
			<trkpt lat="50.588098" lon="14.630393">
				<ele>270.000000</ele>
			</trkpt>
			<trkpt lat="50.588309" lon="14.630448">
				<ele>270.000000</ele>
			</trkpt>
			<trkpt lat="50.588669" lon="14.630519">
				<ele>270.000000</ele>
			</trkpt>
			<trkpt lat="50.588903" lon="14.630573">
				<ele>270.000000</ele>
			</trkpt>
			<trkpt lat="50.589056" lon="14.630628">
				<ele>270.000000</ele>
			</trkpt>
			<trkpt lat="50.589119" lon="14.630672">
				<ele>270.000000</ele>
			</trkpt>
			<trkpt lat="50.589188" lon="14.630726">
				<ele>270.000000</ele>
			</trkpt>
			<trkpt lat="50.589325" lon="14.630879">
				<ele>270.000000</ele>
			</trkpt>
			<trkpt lat="50.589382" lon="14.630959">
				<ele>270.000000</ele>
			</trkpt>
			<trkpt lat="50.589427" lon="14.631076">
				<ele>270.000000</ele>
			</trkpt>
			<trkpt lat="50.589450" lon="14.631148">
				<ele>270.000000</ele>
			</trkpt>
			<trkpt lat="50.589518" lon="14.631355">
				<ele>269.000000</ele>
			</trkpt>
			<trkpt lat="50.589553" lon="14.631571">
				<ele>269.000000</ele>
			</trkpt>
			<trkpt lat="50.589598" lon="14.632064">
				<ele>268.000000</ele>
			</trkpt>
			<trkpt lat="50.589638" lon="14.632443">
				<ele>267.000000</ele>
			</trkpt>
			<trkpt lat="50.589655" lon="14.632586">
				<ele>267.000000</ele>
			</trkpt>
			<trkpt lat="50.589701" lon="14.632703">
				<ele>267.000000</ele>
			</trkpt>
			<trkpt lat="50.589752" lon="14.632783">
				<ele>267.000000</ele>
			</trkpt>
			<trkpt lat="50.589838" lon="14.632856">
				<ele>266.000000</ele>
			</trkpt>
			<trkpt lat="50.589907" lon="14.632909">
				<ele>266.000000</ele>
			</trkpt>
			<trkpt lat="50.590055" lon="14.633009">
				<ele>266.000000</ele>
			</trkpt>
			<trkpt lat="50.590197" lon="14.633116">
				<ele>265.000000</ele>
			</trkpt>
			<trkpt lat="50.590135" lon="14.633332">
				<ele>266.000000</ele>
			</trkpt>
			<trkpt lat="50.590135" lon="14.633385">
				<ele>267.000000</ele>
			</trkpt>
			<trkpt lat="50.590151" lon="14.633485">
				<ele>267.000000</ele>
			</trkpt>
			<trkpt lat="50.590243" lon="14.633529">
				<ele>268.000000</ele>
			</trkpt>
			<trkpt lat="50.590334" lon="14.633583">
				<ele>268.000000</ele>
			</trkpt>
			<trkpt lat="50.590414" lon="14.633664">
				<ele>269.000000</ele>
			</trkpt>
			<trkpt lat="50.590488" lon="14.633754">
				<ele>270.000000</ele>
			</trkpt>
			<trkpt lat="50.590613" lon="14.633961">
				<ele>270.000000</ele>
			</trkpt>
			<trkpt lat="50.590722" lon="14.634085">
				<ele>270.000000</ele>
			</trkpt>
			<trkpt lat="50.591053" lon="14.634301">
				<ele>270.000000</ele>
			</trkpt>
			<trkpt lat="50.591749" lon="14.634741">
				<ele>271.000000</ele>
			</trkpt>
			<trkpt lat="50.592011" lon="14.634894">
				<ele>271.000000</ele>
			</trkpt>
			<trkpt lat="50.592016" lon="14.635011">
				<ele>271.000000</ele>
			</trkpt>
			<trkpt lat="50.592016" lon="14.635110">
				<ele>272.000000</ele>
			</trkpt>
			<trkpt lat="50.592011" lon="14.635227">
				<ele>272.000000</ele>
			</trkpt>
			<trkpt lat="50.591993" lon="14.635326">
				<ele>272.000000</ele>
			</trkpt>
			<trkpt lat="50.591942" lon="14.635604">
				<ele>273.000000</ele>
			</trkpt>
			<trkpt lat="50.591897" lon="14.635865">
				<ele>274.000000</ele>
			</trkpt>
			<trkpt lat="50.591822" lon="14.636466">
				<ele>275.000000</ele>
			</trkpt>
			<trkpt lat="50.591806" lon="14.636691">
				<ele>275.000000</ele>
			</trkpt>
			<trkpt lat="50.591817" lon="14.636961">
				<ele>275.000000</ele>
			</trkpt>
			<trkpt lat="50.591863" lon="14.637328">
				<ele>279.000000</ele>
			</trkpt>
			<trkpt lat="50.591948" lon="14.637806">
				<ele>285.000000</ele>
			</trkpt>
			<trkpt lat="50.592068" lon="14.638416">
				<ele>290.000000</ele>
			</trkpt>
			<trkpt lat="50.592039" lon="14.638640">
				<ele>290.000000</ele>
			</trkpt>
			<trkpt lat="50.592034" lon="14.639035">
				<ele>290.000000</ele>
			</trkpt>
			<trkpt lat="50.592016" lon="14.639278">
				<ele>290.000000</ele>
			</trkpt>
			<trkpt lat="50.591959" lon="14.639674">
				<ele>290.000000</ele>
			</trkpt>
			<trkpt lat="50.591954" lon="14.639871">
				<ele>290.000000</ele>
			</trkpt>
			<trkpt lat="50.591942" lon="14.640141">
				<ele>290.000000</ele>
			</trkpt>
			<trkpt lat="50.591902" lon="14.640517">
				<ele>289.000000</ele>
			</trkpt>
			<trkpt lat="50.591885" lon="14.640733">
				<ele>289.000000</ele>
			</trkpt>
			<trkpt lat="50.591874" lon="14.640932">
				<ele>288.000000</ele>
			</trkpt>
			<trkpt lat="50.591902" lon="14.641596">
				<ele>287.000000</ele>
			</trkpt>
			<trkpt lat="50.591914" lon="14.642064">
				<ele>286.000000</ele>
			</trkpt>
			<trkpt lat="50.591925" lon="14.642431">
				<ele>285.000000</ele>
			</trkpt>
			<trkpt lat="50.591942" lon="14.642737">
				<ele>285.000000</ele>
			</trkpt>
			<trkpt lat="50.591948" lon="14.642791">
				<ele>284.000000</ele>
			</trkpt>
			<trkpt lat="50.591948" lon="14.642791">
				<ele>284.000000</ele>
			</trkpt>
			<trkpt lat="50.591959" lon="14.642854">
				<ele>284.000000</ele>
			</trkpt>
			<trkpt lat="50.591982" lon="14.642953">
				<ele>284.000000</ele>
			</trkpt>
			<trkpt lat="50.592034" lon="14.643133">
				<ele>283.000000</ele>
			</trkpt>
			<trkpt lat="50.592091" lon="14.643249">
				<ele>282.000000</ele>
			</trkpt>
			<trkpt lat="50.592119" lon="14.643293">
				<ele>282.000000</ele>
			</trkpt>
			<trkpt lat="50.592216" lon="14.643519">
				<ele>281.000000</ele>
			</trkpt>
			<trkpt lat="50.592290" lon="14.643626">
				<ele>281.000000</ele>
			</trkpt>
			<trkpt lat="50.592359" lon="14.643725">
				<ele>280.000000</ele>
			</trkpt>
			<trkpt lat="50.592849" lon="14.644299">
				<ele>270.000000</ele>
			</trkpt>
			<trkpt lat="50.592901" lon="14.644389">
				<ele>270.000000</ele>
			</trkpt>
			<trkpt lat="50.592958" lon="14.644488">
				<ele>270.000000</ele>
			</trkpt>
			<trkpt lat="50.593100" lon="14.644578">
				<ele>270.000000</ele>
			</trkpt>
			<trkpt lat="50.593208" lon="14.644605">
				<ele>270.000000</ele>
			</trkpt>
			<trkpt lat="50.593254" lon="14.644596">
				<ele>270.000000</ele>
			</trkpt>
			<trkpt lat="50.593288" lon="14.644578">
				<ele>270.000000</ele>
			</trkpt>
			<trkpt lat="50.593322" lon="14.644551">
				<ele>270.000000</ele>
			</trkpt>
			<trkpt lat="50.593351" lon="14.644498">
				<ele>270.000000</ele>
			</trkpt>
			<trkpt lat="50.593396" lon="14.644372">
				<ele>270.000000</ele>
			</trkpt>
			<trkpt lat="50.593425" lon="14.644299">
				<ele>270.000000</ele>
			</trkpt>
			<trkpt lat="50.593488" lon="14.644138">
				<ele>270.000000</ele>
			</trkpt>
			<trkpt lat="50.593534" lon="14.644058">
				<ele>270.000000</ele>
			</trkpt>
			<trkpt lat="50.593648" lon="14.643886">
				<ele>270.000000</ele>
			</trkpt>
			<trkpt lat="50.594149" lon="14.643060">
				<ele>270.000000</ele>
			</trkpt>
			<trkpt lat="50.594343" lon="14.642746">
				<ele>270.000000</ele>
			</trkpt>
			<trkpt lat="50.594634" lon="14.642377">
				<ele>270.000000</ele>
			</trkpt>
			<trkpt lat="50.595290" lon="14.643643">
				<ele>270.000000</ele>
			</trkpt>
			<trkpt lat="50.595375" lon="14.643788">
				<ele>270.000000</ele>
			</trkpt>
			<trkpt lat="50.595455" lon="14.643869">
				<ele>270.000000</ele>
			</trkpt>
			<trkpt lat="50.595552" lon="14.643940">
				<ele>270.000000</ele>
			</trkpt>
			<trkpt lat="50.595661" lon="14.643995">
				<ele>270.000000</ele>
			</trkpt>
			<trkpt lat="50.595780" lon="14.644012">
				<ele>270.000000</ele>
			</trkpt>
			<trkpt lat="50.595905" lon="14.644022">
				<ele>270.000000</ele>
			</trkpt>
			<trkpt lat="50.595985" lon="14.644012">
				<ele>270.000000</ele>
			</trkpt>
			<trkpt lat="50.596060" lon="14.643976">
				<ele>270.000000</ele>
			</trkpt>
			<trkpt lat="50.596139" lon="14.643913">
				<ele>270.000000</ele>
			</trkpt>
			<trkpt lat="50.596470" lon="14.643582">
				<ele>270.000000</ele>
			</trkpt>
			<trkpt lat="50.596584" lon="14.643437">
				<ele>270.000000</ele>
			</trkpt>
			<trkpt lat="50.596675" lon="14.643366">
				<ele>270.000000</ele>
			</trkpt>
			<trkpt lat="50.596721" lon="14.643339">
				<ele>270.000000</ele>
			</trkpt>
			<trkpt lat="50.596772" lon="14.643330">
				<ele>270.000000</ele>
			</trkpt>
			<trkpt lat="50.596818" lon="14.643320">
				<ele>270.000000</ele>
			</trkpt>
			<trkpt lat="50.596875" lon="14.643320">
				<ele>270.000000</ele>
			</trkpt>
			<trkpt lat="50.596984" lon="14.643383">
				<ele>270.000000</ele>
			</trkpt>
			<trkpt lat="50.597075" lon="14.643437">
				<ele>270.000000</ele>
			</trkpt>
			<trkpt lat="50.597155" lon="14.643464">
				<ele>270.000000</ele>
			</trkpt>
			<trkpt lat="50.597223" lon="14.643446">
				<ele>270.000000</ele>
			</trkpt>
			<trkpt lat="50.597308" lon="14.643420">
				<ele>270.000000</ele>
			</trkpt>
			<trkpt lat="50.597719" lon="14.643133">
				<ele>270.000000</ele>
			</trkpt>
			<trkpt lat="50.597941" lon="14.643006">
				<ele>270.000000</ele>
			</trkpt>
			<trkpt lat="50.598061" lon="14.642961">
				<ele>270.000000</ele>
			</trkpt>
			<trkpt lat="50.598158" lon="14.642961">
				<ele>270.000000</ele>
			</trkpt>
			<trkpt lat="50.598266" lon="14.643016">
				<ele>270.000000</ele>
			</trkpt>
			<trkpt lat="50.598392" lon="14.643114">
				<ele>270.000000</ele>
			</trkpt>
			<trkpt lat="50.598540" lon="14.643257">
				<ele>270.000000</ele>
			</trkpt>
			<trkpt lat="50.598688" lon="14.643383">
				<ele>270.000000</ele>
			</trkpt>
			<trkpt lat="50.598825" lon="14.643464">
				<ele>270.000000</ele>
			</trkpt>
			<trkpt lat="50.599139" lon="14.643643">
				<ele>270.000000</ele>
			</trkpt>
			<trkpt lat="50.599150" lon="14.643940">
				<ele>270.000000</ele>
			</trkpt>
			<trkpt lat="50.599150" lon="14.644264">
				<ele>270.000000</ele>
			</trkpt>
			<trkpt lat="50.599127" lon="14.645809">
				<ele>270.000000</ele>
			</trkpt>
			<trkpt lat="50.599116" lon="14.646357">
				<ele>270.000000</ele>
			</trkpt>
			<trkpt lat="50.599082" lon="14.646995">
				<ele>270.000000</ele>
			</trkpt>
			<trkpt lat="50.599036" lon="14.647641">
				<ele>270.000000</ele>
			</trkpt>
			<trkpt lat="50.598643" lon="14.648127">
				<ele>270.000000</ele>
			</trkpt>
			<trkpt lat="50.598535" lon="14.648261">
				<ele>270.000000</ele>
			</trkpt>
			<trkpt lat="50.598346" lon="14.648513">
				<ele>270.000000</ele>
			</trkpt>
			<trkpt lat="50.597964" lon="14.649096">
				<ele>270.000000</ele>
			</trkpt>
			<trkpt lat="50.597753" lon="14.649393">
				<ele>270.000000</ele>
			</trkpt>
			<trkpt lat="50.597440" lon="14.649779">
				<ele>270.000000</ele>
			</trkpt>
			<trkpt lat="50.597217" lon="14.650049">
				<ele>270.000000</ele>
			</trkpt>
			<trkpt lat="50.597046" lon="14.650228">
				<ele>270.000000</ele>
			</trkpt>
			<trkpt lat="50.596858" lon="14.650400">
				<ele>270.000000</ele>
			</trkpt>
			<trkpt lat="50.596652" lon="14.650570">
				<ele>270.000000</ele>
			</trkpt>
			<trkpt lat="50.596430" lon="14.650731">
				<ele>270.000000</ele>
			</trkpt>
			<trkpt lat="50.596305" lon="14.650830">
				<ele>270.000000</ele>
			</trkpt>
			<trkpt lat="50.596076" lon="14.650804">
				<ele>270.000000</ele>
			</trkpt>
			<trkpt lat="50.595985" lon="14.650804">
				<ele>270.000000</ele>
			</trkpt>
			<trkpt lat="50.595900" lon="14.650830">
				<ele>270.000000</ele>
			</trkpt>
			<trkpt lat="50.595797" lon="14.650867">
				<ele>270.000000</ele>
			</trkpt>
			<trkpt lat="50.595638" lon="14.650947">
				<ele>270.000000</ele>
			</trkpt>
			<trkpt lat="50.595529" lon="14.650993">
				<ele>270.000000</ele>
			</trkpt>
			<trkpt lat="50.594885" lon="14.651056">
				<ele>270.000000</ele>
			</trkpt>
			<trkpt lat="50.594514" lon="14.651109">
				<ele>270.000000</ele>
			</trkpt>
			<trkpt lat="50.594201" lon="14.651190">
				<ele>270.000000</ele>
			</trkpt>
			<trkpt lat="50.594121" lon="14.651217">
				<ele>270.000000</ele>
			</trkpt>
			<trkpt lat="50.593876" lon="14.651297">
				<ele>270.000000</ele>
			</trkpt>
			<trkpt lat="50.593892" lon="14.651532">
				<ele>270.000000</ele>
			</trkpt>
			<trkpt lat="50.593807" lon="14.651559">
				<ele>270.000000</ele>
			</trkpt>
			<trkpt lat="50.593733" lon="14.651612">
				<ele>270.000000</ele>
			</trkpt>
			<trkpt lat="50.593659" lon="14.651683">
				<ele>270.000000</ele>
			</trkpt>
			<trkpt lat="50.593591" lon="14.651800">
				<ele>270.000000</ele>
			</trkpt>
			<trkpt lat="50.593556" lon="14.651882">
				<ele>270.000000</ele>
			</trkpt>
			<trkpt lat="50.593436" lon="14.652178">
				<ele>270.000000</ele>
			</trkpt>
			<trkpt lat="50.593339" lon="14.652465">
				<ele>270.000000</ele>
			</trkpt>
			<trkpt lat="50.593288" lon="14.652636">
				<ele>270.000000</ele>
			</trkpt>
			<trkpt lat="50.593151" lon="14.653184">
				<ele>270.000000</ele>
			</trkpt>
			<trkpt lat="50.593072" lon="14.653471">
				<ele>270.000000</ele>
			</trkpt>
			<trkpt lat="50.593009" lon="14.653741">
				<ele>271.000000</ele>
			</trkpt>
			<trkpt lat="50.592958" lon="14.653939">
				<ele>271.000000</ele>
			</trkpt>
			<trkpt lat="50.592912" lon="14.654037">
				<ele>271.000000</ele>
			</trkpt>
			<trkpt lat="50.592860" lon="14.654136">
				<ele>271.000000</ele>
			</trkpt>
			<trkpt lat="50.592781" lon="14.654209">
				<ele>271.000000</ele>
			</trkpt>
			<trkpt lat="50.592501" lon="14.654423">
				<ele>272.000000</ele>
			</trkpt>
			<trkpt lat="50.592427" lon="14.654451">
				<ele>272.000000</ele>
			</trkpt>
			<trkpt lat="50.592359" lon="14.654460">
				<ele>272.000000</ele>
			</trkpt>
			<trkpt lat="50.592268" lon="14.654603">
				<ele>274.000000</ele>
			</trkpt>
			<trkpt lat="50.591332" lon="14.655574">
				<ele>281.000000</ele>
			</trkpt>
			<trkpt lat="50.590750" lon="14.656184">
				<ele>284.000000</ele>
			</trkpt>
			<trkpt lat="50.590072" lon="14.656894">
				<ele>289.000000</ele>
			</trkpt>
			<trkpt lat="50.589382" lon="14.657622">
				<ele>293.000000</ele>
			</trkpt>
			<trkpt lat="50.588207" lon="14.658834">
				<ele>295.000000</ele>
			</trkpt>
			<trkpt lat="50.588098" lon="14.658897">
				<ele>295.000000</ele>
			</trkpt>
			<trkpt lat="50.587853" lon="14.659077">
				<ele>295.000000</ele>
			</trkpt>
			<trkpt lat="50.587694" lon="14.659203">
				<ele>295.000000</ele>
			</trkpt>
			<trkpt lat="50.587585" lon="14.659302">
				<ele>295.000000</ele>
			</trkpt>
			<trkpt lat="50.587477" lon="14.659419">
				<ele>295.000000</ele>
			</trkpt>
			<trkpt lat="50.587380" lon="14.659553">
				<ele>295.000000</ele>
			</trkpt>
			<trkpt lat="50.587271" lon="14.659715">
				<ele>295.000000</ele>
			</trkpt>
			<trkpt lat="50.587129" lon="14.659958">
				<ele>297.000000</ele>
			</trkpt>
			<trkpt lat="50.587021" lon="14.660083">
				<ele>297.000000</ele>
			</trkpt>
			<trkpt lat="50.586764" lon="14.660631">
				<ele>294.000000</ele>
			</trkpt>
			<trkpt lat="50.586541" lon="14.661161">
				<ele>290.000000</ele>
			</trkpt>
			<trkpt lat="50.586416" lon="14.661431">
				<ele>289.000000</ele>
			</trkpt>
			<trkpt lat="50.586256" lon="14.661781">
				<ele>289.000000</ele>
			</trkpt>
			<trkpt lat="50.586154" lon="14.662023">
				<ele>288.000000</ele>
			</trkpt>
			<trkpt lat="50.586091" lon="14.662275">
				<ele>288.000000</ele>
			</trkpt>
			<trkpt lat="50.586051" lon="14.662545">
				<ele>287.000000</ele>
			</trkpt>
			<trkpt lat="50.585988" lon="14.663029">
				<ele>286.000000</ele>
			</trkpt>
			<trkpt lat="50.585942" lon="14.663524">
				<ele>286.000000</ele>
			</trkpt>
			<trkpt lat="50.585908" lon="14.663874">
				<ele>285.000000</ele>
			</trkpt>
			<trkpt lat="50.585863" lon="14.664197">
				<ele>284.000000</ele>
			</trkpt>
			<trkpt lat="50.585823" lon="14.664530">
				<ele>284.000000</ele>
			</trkpt>
			<trkpt lat="50.585732" lon="14.665006">
				<ele>283.000000</ele>
			</trkpt>
			<trkpt lat="50.585629" lon="14.665563">
				<ele>282.000000</ele>
			</trkpt>
			<trkpt lat="50.585361" lon="14.667000">
				<ele>280.000000</ele>
			</trkpt>
			<trkpt lat="50.585213" lon="14.667818">
				<ele>279.000000</ele>
			</trkpt>
			<trkpt lat="50.585070" lon="14.668715">
				<ele>278.000000</ele>
			</trkpt>
			<trkpt lat="50.584927" lon="14.669757">
				<ele>276.000000</ele>
			</trkpt>
			<trkpt lat="50.584847" lon="14.670243">
				<ele>276.000000</ele>
			</trkpt>
			<trkpt lat="50.584722" lon="14.670809">
				<ele>275.000000</ele>
			</trkpt>
			<trkpt lat="50.584654" lon="14.671105">
				<ele>275.000000</ele>
			</trkpt>
			<trkpt lat="50.584579" lon="14.671312">
				<ele>275.000000</ele>
			</trkpt>
			<trkpt lat="50.584528" lon="14.671402">
				<ele>275.000000</ele>
			</trkpt>
			<trkpt lat="50.584454" lon="14.671483">
				<ele>275.000000</ele>
			</trkpt>
			<trkpt lat="50.584403" lon="14.671581">
				<ele>275.000000</ele>
			</trkpt>
			<trkpt lat="50.584328" lon="14.671797">
				<ele>274.000000</ele>
			</trkpt>
			<trkpt lat="50.584169" lon="14.672210">
				<ele>274.000000</ele>
			</trkpt>
			<trkpt lat="50.583975" lon="14.672686">
				<ele>274.000000</ele>
			</trkpt>
			<trkpt lat="50.583895" lon="14.672876">
				<ele>274.000000</ele>
			</trkpt>
			<trkpt lat="50.583815" lon="14.673019">
				<ele>274.000000</ele>
			</trkpt>
			<trkpt lat="50.583735" lon="14.673153">
				<ele>274.000000</ele>
			</trkpt>
			<trkpt lat="50.583609" lon="14.673315">
				<ele>274.000000</ele>
			</trkpt>
			<trkpt lat="50.583552" lon="14.673388">
				<ele>274.000000</ele>
			</trkpt>
			<trkpt lat="50.583484" lon="14.673522">
				<ele>274.000000</ele>
			</trkpt>
			<trkpt lat="50.583399" lon="14.673657">
				<ele>273.000000</ele>
			</trkpt>
			<trkpt lat="50.583302" lon="14.673782">
				<ele>273.000000</ele>
			</trkpt>
			<trkpt lat="50.583125" lon="14.674007">
				<ele>273.000000</ele>
			</trkpt>
			<trkpt lat="50.582834" lon="14.674394">
				<ele>273.000000</ele>
			</trkpt>
			<trkpt lat="50.582817" lon="14.674402">
				<ele>273.000000</ele>
			</trkpt>
			<trkpt lat="50.582737" lon="14.674537">
				<ele>273.000000</ele>
			</trkpt>
			<trkpt lat="50.582646" lon="14.674671">
				<ele>273.000000</ele>
			</trkpt>
			<trkpt lat="50.582480" lon="14.674977">
				<ele>273.000000</ele>
			</trkpt>
			<trkpt lat="50.582292" lon="14.675273">
				<ele>272.000000</ele>
			</trkpt>
			<trkpt lat="50.582218" lon="14.675382">
				<ele>272.000000</ele>
			</trkpt>
			<trkpt lat="50.582150" lon="14.675472">
				<ele>272.000000</ele>
			</trkpt>
			<trkpt lat="50.582075" lon="14.675543">
				<ele>272.000000</ele>
			</trkpt>
			<trkpt lat="50.581984" lon="14.675615">
				<ele>272.000000</ele>
			</trkpt>
			<trkpt lat="50.581824" lon="14.675723">
				<ele>272.000000</ele>
			</trkpt>
			<trkpt lat="50.581688" lon="14.675866">
				<ele>272.000000</ele>
			</trkpt>
			<trkpt lat="50.581619" lon="14.675965">
				<ele>272.000000</ele>
			</trkpt>
			<trkpt lat="50.581556" lon="14.676065">
				<ele>272.000000</ele>
			</trkpt>
			<trkpt lat="50.581385" lon="14.676451">
				<ele>272.000000</ele>
			</trkpt>
			<trkpt lat="50.581288" lon="14.676621">
				<ele>272.000000</ele>
			</trkpt>
			<trkpt lat="50.581197" lon="14.676747">
				<ele>271.000000</ele>
			</trkpt>
			<trkpt lat="50.581100" lon="14.676864">
				<ele>271.000000</ele>
			</trkpt>
			<trkpt lat="50.580963" lon="14.676990">
				<ele>271.000000</ele>
			</trkpt>
			<trkpt lat="50.580758" lon="14.677178">
				<ele>271.000000</ele>
			</trkpt>
			<trkpt lat="50.580603" lon="14.677277">
				<ele>271.000000</ele>
			</trkpt>
			<trkpt lat="50.580541" lon="14.677321">
				<ele>271.000000</ele>
			</trkpt>
			<trkpt lat="50.580489" lon="14.677376">
				<ele>271.000000</ele>
			</trkpt>
			<trkpt lat="50.580364" lon="14.677573">
				<ele>271.000000</ele>
			</trkpt>
			<trkpt lat="50.580307" lon="14.677673">
				<ele>271.000000</ele>
			</trkpt>
			<trkpt lat="50.579908" lon="14.678409">
				<ele>270.000000</ele>
			</trkpt>
			<trkpt lat="50.579606" lon="14.679002">
				<ele>270.000000</ele>
			</trkpt>
			<trkpt lat="50.579309" lon="14.679631">
				<ele>270.000000</ele>
			</trkpt>
			<trkpt lat="50.579172" lon="14.679910">
				<ele>270.000000</ele>
			</trkpt>
			<trkpt lat="50.579046" lon="14.680143">
				<ele>270.000000</ele>
			</trkpt>
			<trkpt lat="50.578733" lon="14.680646">
				<ele>270.000000</ele>
			</trkpt>
			<trkpt lat="50.578647" lon="14.680807">
				<ele>270.000000</ele>
			</trkpt>
			<trkpt lat="50.578567" lon="14.680952">
				<ele>270.000000</ele>
			</trkpt>
			<trkpt lat="50.578505" lon="14.681086">
				<ele>270.000000</ele>
			</trkpt>
			<trkpt lat="50.578448" lon="14.681248">
				<ele>270.000000</ele>
			</trkpt>
			<trkpt lat="50.578379" lon="14.681499">
				<ele>270.000000</ele>
			</trkpt>
			<trkpt lat="50.578299" lon="14.681742">
				<ele>270.000000</ele>
			</trkpt>
			<trkpt lat="50.578219" lon="14.681966">
				<ele>270.000000</ele>
			</trkpt>
			<trkpt lat="50.577991" lon="14.682532">
				<ele>272.000000</ele>
			</trkpt>
			<trkpt lat="50.577809" lon="14.682973">
				<ele>270.000000</ele>
			</trkpt>
			<trkpt lat="50.577746" lon="14.683126">
				<ele>270.000000</ele>
			</trkpt>
			<trkpt lat="50.577689" lon="14.683296">
				<ele>270.000000</ele>
			</trkpt>
			<trkpt lat="50.577654" lon="14.683457">
				<ele>270.000000</ele>
			</trkpt>
			<trkpt lat="50.577586" lon="14.683852">
				<ele>270.000000</ele>
			</trkpt>
			<trkpt lat="50.577558" lon="14.684050">
				<ele>270.000000</ele>
			</trkpt>
			<trkpt lat="50.577540" lon="14.684258">
				<ele>270.000000</ele>
			</trkpt>
			<trkpt lat="50.577529" lon="14.684481">
				<ele>270.000000</ele>
			</trkpt>
			<trkpt lat="50.577535" lon="14.684823">
				<ele>270.000000</ele>
			</trkpt>
			<trkpt lat="50.577524" lon="14.685021">
				<ele>270.000000</ele>
			</trkpt>
			<trkpt lat="50.577495" lon="14.685218">
				<ele>270.000000</ele>
			</trkpt>
			<trkpt lat="50.577454" lon="14.685434">
				<ele>270.000000</ele>
			</trkpt>
			<trkpt lat="50.577295" lon="14.686134">
				<ele>270.000000</ele>
			</trkpt>
			<trkpt lat="50.576987" lon="14.685919">
				<ele>270.000000</ele>
			</trkpt>
			<trkpt lat="50.576416" lon="14.685443">
				<ele>270.000000</ele>
			</trkpt>
			<trkpt lat="50.576137" lon="14.685218">
				<ele>270.000000</ele>
			</trkpt>
			<trkpt lat="50.575966" lon="14.685074">
				<ele>270.000000</ele>
			</trkpt>
			<trkpt lat="50.575869" lon="14.685101">
				<ele>270.000000</ele>
			</trkpt>
			<trkpt lat="50.575818" lon="14.685173">
				<ele>270.000000</ele>
			</trkpt>
			<trkpt lat="50.575891" lon="14.685865">
				<ele>270.000000</ele>
			</trkpt>
			<trkpt lat="50.576057" lon="14.687275">
				<ele>270.000000</ele>
			</trkpt>
			<trkpt lat="50.576074" lon="14.687428">
				<ele>270.000000</ele>
			</trkpt>
			<trkpt lat="50.576120" lon="14.687742">
				<ele>270.000000</ele>
			</trkpt>
			<trkpt lat="50.576166" lon="14.688137">
				<ele>270.000000</ele>
			</trkpt>
			<trkpt lat="50.576194" lon="14.688577">
				<ele>270.000000</ele>
			</trkpt>
			<trkpt lat="50.576211" lon="14.688856">
				<ele>270.000000</ele>
			</trkpt>
			<trkpt lat="50.576257" lon="14.689153">
				<ele>270.000000</ele>
			</trkpt>
			<trkpt lat="50.576268" lon="14.689252">
				<ele>270.000000</ele>
			</trkpt>
			<trkpt lat="50.576268" lon="14.689368">
				<ele>270.000000</ele>
			</trkpt>
			<trkpt lat="50.576257" lon="14.689495">
				<ele>270.000000</ele>
			</trkpt>
			<trkpt lat="50.576239" lon="14.689592">
				<ele>270.000000</ele>
			</trkpt>
			<trkpt lat="50.576217" lon="14.689692">
				<ele>270.000000</ele>
			</trkpt>
			<trkpt lat="50.576143" lon="14.689916">
				<ele>270.000000</ele>
			</trkpt>
			<trkpt lat="50.576080" lon="14.690069">
				<ele>270.000000</ele>
			</trkpt>
			<trkpt lat="50.576017" lon="14.690177">
				<ele>270.000000</ele>
			</trkpt>
			<trkpt lat="50.575926" lon="14.690258">
				<ele>270.000000</ele>
			</trkpt>
			<trkpt lat="50.575829" lon="14.690311">
				<ele>270.000000</ele>
			</trkpt>
			<trkpt lat="50.575624" lon="14.690420">
				<ele>270.000000</ele>
			</trkpt>
			<trkpt lat="50.575567" lon="14.690447">
				<ele>270.000000</ele>
			</trkpt>
			<trkpt lat="50.575527" lon="14.690482">
				<ele>270.000000</ele>
			</trkpt>
			<trkpt lat="50.575486" lon="14.690545">
				<ele>270.000000</ele>
			</trkpt>
			<trkpt lat="50.575441" lon="14.690626">
				<ele>270.000000</ele>
			</trkpt>
			<trkpt lat="50.575378" lon="14.690770">
				<ele>270.000000</ele>
			</trkpt>
			<trkpt lat="50.575293" lon="14.691013">
				<ele>270.000000</ele>
			</trkpt>
			<trkpt lat="50.575276" lon="14.691084">
				<ele>270.000000</ele>
			</trkpt>
			<trkpt lat="50.575276" lon="14.691166">
				<ele>270.000000</ele>
			</trkpt>
			<trkpt lat="50.575293" lon="14.691237">
				<ele>270.000000</ele>
			</trkpt>
			<trkpt lat="50.575338" lon="14.691309">
				<ele>270.000000</ele>
			</trkpt>
			<trkpt lat="50.575407" lon="14.691390">
				<ele>271.000000</ele>
			</trkpt>
			<trkpt lat="50.575475" lon="14.691479">
				<ele>271.000000</ele>
			</trkpt>
			<trkpt lat="50.575515" lon="14.691579">
				<ele>271.000000</ele>
			</trkpt>
			<trkpt lat="50.575555" lon="14.691686">
				<ele>272.000000</ele>
			</trkpt>
			<trkpt lat="50.575601" lon="14.691829">
				<ele>272.000000</ele>
			</trkpt>
			<trkpt lat="50.575635" lon="14.691929">
				<ele>272.000000</ele>
			</trkpt>
			<trkpt lat="50.575663" lon="14.691965">
				<ele>272.000000</ele>
			</trkpt>
			<trkpt lat="50.575681" lon="14.692036">
				<ele>273.000000</ele>
			</trkpt>
			<trkpt lat="50.575681" lon="14.692208">
				<ele>273.000000</ele>
			</trkpt>
			<trkpt lat="50.575681" lon="14.692324">
				<ele>273.000000</ele>
			</trkpt>
			<trkpt lat="50.575675" lon="14.692422">
				<ele>274.000000</ele>
			</trkpt>
			<trkpt lat="50.575618" lon="14.692629">
				<ele>274.000000</ele>
			</trkpt>
			<trkpt lat="50.575914" lon="14.692944">
				<ele>274.000000</ele>
			</trkpt>
			<trkpt lat="50.575891" lon="14.693070">
				<ele>275.000000</ele>
			</trkpt>
			<trkpt lat="50.575863" lon="14.693150">
				<ele>275.000000</ele>
			</trkpt>
			<trkpt lat="50.575834" lon="14.693195">
				<ele>275.000000</ele>
			</trkpt>
			<trkpt lat="50.575795" lon="14.693213">
				<ele>275.000000</ele>
			</trkpt>
			<trkpt lat="50.575663" lon="14.693213">
				<ele>275.000000</ele>
			</trkpt>
			<trkpt lat="50.575521" lon="14.693240">
				<ele>275.000000</ele>
			</trkpt>
			<trkpt lat="50.575413" lon="14.693284">
				<ele>275.000000</ele>
			</trkpt>
			<trkpt lat="50.575367" lon="14.693284">
				<ele>275.000000</ele>
			</trkpt>
			<trkpt lat="50.575333" lon="14.693258">
				<ele>275.000000</ele>
			</trkpt>
			<trkpt lat="50.575304" lon="14.693213">
				<ele>275.000000</ele>
			</trkpt>
			<trkpt lat="50.575144" lon="14.692845">
				<ele>275.000000</ele>
			</trkpt>
			<trkpt lat="50.575019" lon="14.692521">
				<ele>274.000000</ele>
			</trkpt>
			<trkpt lat="50.574945" lon="14.692468">
				<ele>274.000000</ele>
			</trkpt>
			<trkpt lat="50.574808" lon="14.692269">
				<ele>274.000000</ele>
			</trkpt>
			<trkpt lat="50.574574" lon="14.691902">
				<ele>274.000000</ele>
			</trkpt>
			<trkpt lat="50.574540" lon="14.691839">
				<ele>274.000000</ele>
			</trkpt>
			<trkpt lat="50.574511" lon="14.691776">
				<ele>274.000000</ele>
			</trkpt>
			<trkpt lat="50.574420" lon="14.691676">
				<ele>274.000000</ele>
			</trkpt>
			<trkpt lat="50.574328" lon="14.691552">
				<ele>274.000000</ele>
			</trkpt>
			<trkpt lat="50.574306" lon="14.691524">
				<ele>274.000000</ele>
			</trkpt>
			<trkpt lat="50.574089" lon="14.691227">
				<ele>273.000000</ele>
			</trkpt>
			<trkpt lat="50.573787" lon="14.690779">
				<ele>273.000000</ele>
			</trkpt>
			<trkpt lat="50.573678" lon="14.690600">
				<ele>273.000000</ele>
			</trkpt>
			<trkpt lat="50.573644" lon="14.690527">
				<ele>273.000000</ele>
			</trkpt>
			<trkpt lat="50.573627" lon="14.690447">
				<ele>273.000000</ele>
			</trkpt>
			<trkpt lat="50.573176" lon="14.689898">
				<ele>273.000000</ele>
			</trkpt>
			<trkpt lat="50.573097" lon="14.689862">
				<ele>273.000000</ele>
			</trkpt>
			<trkpt lat="50.572993" lon="14.689808">
				<ele>273.000000</ele>
			</trkpt>
			<trkpt lat="50.572822" lon="14.689709">
				<ele>273.000000</ele>
			</trkpt>
			<trkpt lat="50.572537" lon="14.689558">
				<ele>274.000000</ele>
			</trkpt>
			<trkpt lat="50.572435" lon="14.689529">
				<ele>274.000000</ele>
			</trkpt>
			<trkpt lat="50.572349" lon="14.689521">
				<ele>274.000000</ele>
			</trkpt>
			<trkpt lat="50.572246" lon="14.689503">
				<ele>274.000000</ele>
			</trkpt>
			<trkpt lat="50.572167" lon="14.689521">
				<ele>274.000000</ele>
			</trkpt>
			<trkpt lat="50.572069" lon="14.689566">
				<ele>274.000000</ele>
			</trkpt>
			<trkpt lat="50.571978" lon="14.689602">
				<ele>274.000000</ele>
			</trkpt>
			<trkpt lat="50.571790" lon="14.689772">
				<ele>275.000000</ele>
			</trkpt>
			<trkpt lat="50.571664" lon="14.689889">
				<ele>275.000000</ele>
			</trkpt>
			<trkpt lat="50.571573" lon="14.689961">
				<ele>275.000000</ele>
			</trkpt>
			<trkpt lat="50.571476" lon="14.689988">
				<ele>275.000000</ele>
			</trkpt>
			<trkpt lat="50.571396" lon="14.689988">
				<ele>275.000000</ele>
			</trkpt>
			<trkpt lat="50.571305" lon="14.689979">
				<ele>275.000000</ele>
			</trkpt>
			<trkpt lat="50.571225" lon="14.689988">
				<ele>275.000000</ele>
			</trkpt>
			<trkpt lat="50.571145" lon="14.690005">
				<ele>275.000000</ele>
			</trkpt>
			<trkpt lat="50.571082" lon="14.690034">
				<ele>275.000000</ele>
			</trkpt>
			<trkpt lat="50.571025" lon="14.690078">
				<ele>275.000000</ele>
			</trkpt>
			<trkpt lat="50.570974" lon="14.690132">
				<ele>275.000000</ele>
			</trkpt>
			<trkpt lat="50.570917" lon="14.690204">
				<ele>275.000000</ele>
			</trkpt>
			<trkpt lat="50.570871" lon="14.690303">
				<ele>275.000000</ele>
			</trkpt>
			<trkpt lat="50.570438" lon="14.691200">
				<ele>275.000000</ele>
			</trkpt>
			<trkpt lat="50.570061" lon="14.691946">
				<ele>275.000000</ele>
			</trkpt>
			<trkpt lat="50.569781" lon="14.692332">
				<ele>275.000000</ele>
			</trkpt>
			<trkpt lat="50.569604" lon="14.692558">
				<ele>275.000000</ele>
			</trkpt>
			<trkpt lat="50.569462" lon="14.692719">
				<ele>275.000000</ele>
			</trkpt>
			<trkpt lat="50.569313" lon="14.692845">
				<ele>275.000000</ele>
			</trkpt>
			<trkpt lat="50.569171" lon="14.692953">
				<ele>275.000000</ele>
			</trkpt>
			<trkpt lat="50.568999" lon="14.693061">
				<ele>275.000000</ele>
			</trkpt>
			<trkpt lat="50.568121" lon="14.693483">
				<ele>276.000000</ele>
			</trkpt>
			<trkpt lat="50.567996" lon="14.693546">
				<ele>276.000000</ele>
			</trkpt>
			<trkpt lat="50.567944" lon="14.693573">
				<ele>276.000000</ele>
			</trkpt>
			<trkpt lat="50.567898" lon="14.693626">
				<ele>276.000000</ele>
			</trkpt>
			<trkpt lat="50.567853" lon="14.693726">
				<ele>276.000000</ele>
			</trkpt>
			<trkpt lat="50.567745" lon="14.694040">
				<ele>277.000000</ele>
			</trkpt>
			<trkpt lat="50.567716" lon="14.694156">
				<ele>277.000000</ele>
			</trkpt>
			<trkpt lat="50.567693" lon="14.694255">
				<ele>277.000000</ele>
			</trkpt>
			<trkpt lat="50.567664" lon="14.694506">
				<ele>277.000000</ele>
			</trkpt>
			<trkpt lat="50.567613" lon="14.695378">
				<ele>277.000000</ele>
			</trkpt>
			<trkpt lat="50.567579" lon="14.695845">
				<ele>278.000000</ele>
			</trkpt>
			<trkpt lat="50.567545" lon="14.696169">
				<ele>278.000000</ele>
			</trkpt>
			<trkpt lat="50.567528" lon="14.696267">
				<ele>278.000000</ele>
			</trkpt>
			<trkpt lat="50.567482" lon="14.696357">
				<ele>278.000000</ele>
			</trkpt>
			<trkpt lat="50.567311" lon="14.696680">
				<ele>278.000000</ele>
			</trkpt>
			<trkpt lat="50.567265" lon="14.696806">
				<ele>278.000000</ele>
			</trkpt>
			<trkpt lat="50.567214" lon="14.696968">
				<ele>279.000000</ele>
			</trkpt>
			<trkpt lat="50.566917" lon="14.697974">
				<ele>279.000000</ele>
			</trkpt>
			<trkpt lat="50.566917" lon="14.697974">
				<ele>279.000000</ele>
			</trkpt>
			<trkpt lat="50.566900" lon="14.698028">
				<ele>279.000000</ele>
			</trkpt>
			<trkpt lat="50.566689" lon="14.698764">
				<ele>280.000000</ele>
			</trkpt>
			<trkpt lat="50.566484" lon="14.699529">
				<ele>280.000000</ele>
			</trkpt>
			<trkpt lat="50.566250" lon="14.700399">
				<ele>281.000000</ele>
			</trkpt>
			<trkpt lat="50.566215" lon="14.700544">
				<ele>281.000000</ele>
			</trkpt>
			<trkpt lat="50.566056" lon="14.701011">
				<ele>282.000000</ele>
			</trkpt>
			<trkpt lat="50.565896" lon="14.701531">
				<ele>283.000000</ele>
			</trkpt>
			<trkpt lat="50.565788" lon="14.701864">
				<ele>283.000000</ele>
			</trkpt>
			<trkpt lat="50.565725" lon="14.702026">
				<ele>283.000000</ele>
			</trkpt>
			<trkpt lat="50.565628" lon="14.702412">
				<ele>284.000000</ele>
			</trkpt>
			<trkpt lat="50.565508" lon="14.702808">
				<ele>284.000000</ele>
			</trkpt>
			<trkpt lat="50.565411" lon="14.703049">
				<ele>284.000000</ele>
			</trkpt>
			<trkpt lat="50.565137" lon="14.703714">
				<ele>285.000000</ele>
			</trkpt>
			<trkpt lat="50.564572" lon="14.705116">
				<ele>286.000000</ele>
			</trkpt>
			<trkpt lat="50.564349" lon="14.705664">
				<ele>286.000000</ele>
			</trkpt>
			<trkpt lat="50.564190" lon="14.706068">
				<ele>286.000000</ele>
			</trkpt>
			<trkpt lat="50.563026" lon="14.709150">
				<ele>288.000000</ele>
			</trkpt>
			<trkpt lat="50.562427" lon="14.710703">
				<ele>289.000000</ele>
			</trkpt>
			<trkpt lat="50.561998" lon="14.711827">
				<ele>289.000000</ele>
			</trkpt>
			<trkpt lat="50.561947" lon="14.711934">
				<ele>290.000000</ele>
			</trkpt>
			<trkpt lat="50.561902" lon="14.712033">
				<ele>290.000000</ele>
			</trkpt>
			<trkpt lat="50.561856" lon="14.712104">
				<ele>290.000000</ele>
			</trkpt>
			<trkpt lat="50.561782" lon="14.712194">
				<ele>290.000000</ele>
			</trkpt>
			<trkpt lat="50.561639" lon="14.712339">
				<ele>290.000000</ele>
			</trkpt>
			<trkpt lat="50.561576" lon="14.712437">
				<ele>290.000000</ele>
			</trkpt>
			<trkpt lat="50.561554" lon="14.712517">
				<ele>290.000000</ele>
			</trkpt>
			<trkpt lat="50.561531" lon="14.712617">
				<ele>290.000000</ele>
			</trkpt>
			<trkpt lat="50.561120" lon="14.715823">
				<ele>290.000000</ele>
			</trkpt>
			<trkpt lat="50.560600" lon="14.720117">
				<ele>291.000000</ele>
			</trkpt>
			<trkpt lat="50.560281" lon="14.722624">
				<ele>294.000000</ele>
			</trkpt>
			<trkpt lat="50.559813" lon="14.726298">
				<ele>298.000000</ele>
			</trkpt>
			<trkpt lat="50.559602" lon="14.727906">
				<ele>300.000000</ele>
			</trkpt>
			<trkpt lat="50.559156" lon="14.731455">
				<ele>296.000000</ele>
			</trkpt>
			<trkpt lat="50.558940" lon="14.733233">
				<ele>294.000000</ele>
			</trkpt>
			<trkpt lat="50.558677" lon="14.733117">
				<ele>295.000000</ele>
			</trkpt>
			<trkpt lat="50.558495" lon="14.733017">
				<ele>296.000000</ele>
			</trkpt>
			<trkpt lat="50.558324" lon="14.732891">
				<ele>296.000000</ele>
			</trkpt>
			<trkpt lat="50.558135" lon="14.732712">
				<ele>297.000000</ele>
			</trkpt>
			<trkpt lat="50.557992" lon="14.732587">
				<ele>297.000000</ele>
			</trkpt>
			<trkpt lat="50.557878" lon="14.732505">
				<ele>297.000000</ele>
			</trkpt>
			<trkpt lat="50.557730" lon="14.732442">
				<ele>298.000000</ele>
			</trkpt>
			<trkpt lat="50.557570" lon="14.732407">
				<ele>298.000000</ele>
			</trkpt>
			<trkpt lat="50.557045" lon="14.732325">
				<ele>300.000000</ele>
			</trkpt>
			<trkpt lat="50.556726" lon="14.732254">
				<ele>301.000000</ele>
			</trkpt>
			<trkpt lat="50.556606" lon="14.732182">
				<ele>301.000000</ele>
			</trkpt>
			<trkpt lat="50.556372" lon="14.732048">
				<ele>302.000000</ele>
			</trkpt>
			<trkpt lat="50.556280" lon="14.732002">
				<ele>303.000000</ele>
			</trkpt>
			<trkpt lat="50.556166" lon="14.731975">
				<ele>303.000000</ele>
			</trkpt>
			<trkpt lat="50.556046" lon="14.731975">
				<ele>304.000000</ele>
			</trkpt>
			<trkpt lat="50.555755" lon="14.732038">
				<ele>305.000000</ele>
			</trkpt>
			<trkpt lat="50.555755" lon="14.732038">
				<ele>305.000000</ele>
			</trkpt>
			<trkpt lat="50.555556" lon="14.732075">
				<ele>307.000000</ele>
			</trkpt>
			<trkpt lat="50.555304" lon="14.732092">
				<ele>308.000000</ele>
			</trkpt>
			<trkpt lat="50.555122" lon="14.732083">
				<ele>309.000000</ele>
			</trkpt>
			<trkpt lat="50.554945" lon="14.732056">
				<ele>310.000000</ele>
			</trkpt>
			<trkpt lat="50.554522" lon="14.731958">
				<ele>313.000000</ele>
			</trkpt>
			<trkpt lat="50.554328" lon="14.731885">
				<ele>315.000000</ele>
			</trkpt>
			<trkpt lat="50.554060" lon="14.731733">
				<ele>317.000000</ele>
			</trkpt>
			<trkpt lat="50.553963" lon="14.731688">
				<ele>317.000000</ele>
			</trkpt>
			<trkpt lat="50.553854" lon="14.731652">
				<ele>318.000000</ele>
			</trkpt>
			<trkpt lat="50.553729" lon="14.731635">
				<ele>319.000000</ele>
			</trkpt>
			<trkpt lat="50.553438" lon="14.731607">
				<ele>321.000000</ele>
			</trkpt>
			<trkpt lat="50.553352" lon="14.731643">
				<ele>321.000000</ele>
			</trkpt>
			<trkpt lat="50.553250" lon="14.731670">
				<ele>321.000000</ele>
			</trkpt>
			<trkpt lat="50.553152" lon="14.731715">
				<ele>322.000000</ele>
			</trkpt>
			<trkpt lat="50.553061" lon="14.731723">
				<ele>322.000000</ele>
			</trkpt>
			<trkpt lat="50.552981" lon="14.731723">
				<ele>322.000000</ele>
			</trkpt>
			<trkpt lat="50.552873" lon="14.731696">
				<ele>323.000000</ele>
			</trkpt>
			<trkpt lat="50.552793" lon="14.731670">
				<ele>323.000000</ele>
			</trkpt>
			<trkpt lat="50.552268" lon="14.731490">
				<ele>325.000000</ele>
			</trkpt>
			<trkpt lat="50.552079" lon="14.731419">
				<ele>325.000000</ele>
			</trkpt>
			<trkpt lat="50.551703" lon="14.731266">
				<ele>326.000000</ele>
			</trkpt>
			<trkpt lat="50.551309" lon="14.731140">
				<ele>327.000000</ele>
			</trkpt>
			<trkpt lat="50.551121" lon="14.731086">
				<ele>327.000000</ele>
			</trkpt>
			<trkpt lat="50.550955" lon="14.731077">
				<ele>328.000000</ele>
			</trkpt>
			<trkpt lat="50.550830" lon="14.731059">
				<ele>328.000000</ele>
			</trkpt>
			<trkpt lat="50.550721" lon="14.731050">
				<ele>328.000000</ele>
			</trkpt>
			<trkpt lat="50.550453" lon="14.730960">
				<ele>329.000000</ele>
			</trkpt>
			<trkpt lat="50.550333" lon="14.730924">
				<ele>329.000000</ele>
			</trkpt>
			<trkpt lat="50.550230" lon="14.730906">
				<ele>329.000000</ele>
			</trkpt>
			<trkpt lat="50.550111" lon="14.730924">
				<ele>329.000000</ele>
			</trkpt>
			<trkpt lat="50.549934" lon="14.730970">
				<ele>330.000000</ele>
			</trkpt>
			<trkpt lat="50.549739" lon="14.731014">
				<ele>330.000000</ele>
			</trkpt>
			<trkpt lat="50.549671" lon="14.731014">
				<ele>331.000000</ele>
			</trkpt>
			<trkpt lat="50.549608" lon="14.730996">
				<ele>331.000000</ele>
			</trkpt>
			<trkpt lat="50.549311" lon="14.730870">
				<ele>334.000000</ele>
			</trkpt>
			<trkpt lat="50.549083" lon="14.730763">
				<ele>335.000000</ele>
			</trkpt>
			<trkpt lat="50.548849" lon="14.730610">
				<ele>337.000000</ele>
			</trkpt>
			<trkpt lat="50.548569" lon="14.730413">
				<ele>340.000000</ele>
			</trkpt>
			<trkpt lat="50.548084" lon="14.730017">
				<ele>345.000000</ele>
			</trkpt>
			<trkpt lat="50.547119" lon="14.729163">
				<ele>350.000000</ele>
			</trkpt>
			<trkpt lat="50.546834" lon="14.728939">
				<ele>351.000000</ele>
			</trkpt>
			<trkpt lat="50.546497" lon="14.728696">
				<ele>352.000000</ele>
			</trkpt>
			<trkpt lat="50.546338" lon="14.728930">
				<ele>352.000000</ele>
			</trkpt>
			<trkpt lat="50.546240" lon="14.729083">
				<ele>353.000000</ele>
			</trkpt>
			<trkpt lat="50.546149" lon="14.729226">
				<ele>353.000000</ele>
			</trkpt>
			<trkpt lat="50.546058" lon="14.729425">
				<ele>354.000000</ele>
			</trkpt>
			<trkpt lat="50.545915" lon="14.729729">
				<ele>354.000000</ele>
			</trkpt>
			<trkpt lat="50.545818" lon="14.729631">
				<ele>355.000000</ele>
			</trkpt>
			<trkpt lat="50.545613" lon="14.729451">
				<ele>357.000000</ele>
			</trkpt>
			<trkpt lat="50.545504" lon="14.729343">
				<ele>360.000000</ele>
			</trkpt>
			<trkpt lat="50.545230" lon="14.729046">
				<ele>373.000000</ele>
			</trkpt>
			<trkpt lat="50.545121" lon="14.728948">
				<ele>378.000000</ele>
			</trkpt>
			<trkpt lat="50.544996" lon="14.728867">
				<ele>382.000000</ele>
			</trkpt>
			<trkpt lat="50.544807" lon="14.728742">
				<ele>385.000000</ele>
			</trkpt>
			<trkpt lat="50.544653" lon="14.728652">
				<ele>386.000000</ele>
			</trkpt>
			<trkpt lat="50.544522" lon="14.728597">
				<ele>387.000000</ele>
			</trkpt>
			<trkpt lat="50.544071" lon="14.728499">
				<ele>390.000000</ele>
			</trkpt>
			<trkpt lat="50.543883" lon="14.728463">
				<ele>391.000000</ele>
			</trkpt>
			<trkpt lat="50.543826" lon="14.728472">
				<ele>391.000000</ele>
			</trkpt>
			<trkpt lat="50.543763" lon="14.728490">
				<ele>391.000000</ele>
			</trkpt>
			<trkpt lat="50.543677" lon="14.728543">
				<ele>391.000000</ele>
			</trkpt>
			<trkpt lat="50.543586" lon="14.728606">
				<ele>392.000000</ele>
			</trkpt>
			<trkpt lat="50.543523" lon="14.728616">
				<ele>392.000000</ele>
			</trkpt>
			<trkpt lat="50.542963" lon="14.728507">
				<ele>394.000000</ele>
			</trkpt>
			<trkpt lat="50.542633" lon="14.728427">
				<ele>395.000000</ele>
			</trkpt>
			<trkpt lat="50.542598" lon="14.728409">
				<ele>395.000000</ele>
			</trkpt>
			<trkpt lat="50.542404" lon="14.728356">
				<ele>396.000000</ele>
			</trkpt>
			<trkpt lat="50.542273" lon="14.728329">
				<ele>396.000000</ele>
			</trkpt>
			<trkpt lat="50.542130" lon="14.728301">
				<ele>397.000000</ele>
			</trkpt>
			<trkpt lat="50.542004" lon="14.728256">
				<ele>398.000000</ele>
			</trkpt>
			<trkpt lat="50.541856" lon="14.728203">
				<ele>399.000000</ele>
			</trkpt>
			<trkpt lat="50.541696" lon="14.728193">
				<ele>400.000000</ele>
			</trkpt>
			<trkpt lat="50.541508" lon="14.728167">
				<ele>401.000000</ele>
			</trkpt>
			<trkpt lat="50.541148" lon="14.728094">
				<ele>403.000000</ele>
			</trkpt>
			<trkpt lat="50.540966" lon="14.728067">
				<ele>404.000000</ele>
			</trkpt>
			<trkpt lat="50.540885" lon="14.728041">
				<ele>404.000000</ele>
			</trkpt>
			<trkpt lat="50.540805" lon="14.727996">
				<ele>405.000000</ele>
			</trkpt>
			<trkpt lat="50.540726" lon="14.727924">
				<ele>406.000000</ele>
			</trkpt>
			<trkpt lat="50.540343" lon="14.727538">
				<ele>410.000000</ele>
			</trkpt>
			<trkpt lat="50.539847" lon="14.726945">
				<ele>414.000000</ele>
			</trkpt>
			<trkpt lat="50.539744" lon="14.726846">
				<ele>415.000000</ele>
			</trkpt>
			<trkpt lat="50.539670" lon="14.726775">
				<ele>415.000000</ele>
			</trkpt>
			<trkpt lat="50.539578" lon="14.726748">
				<ele>415.000000</ele>
			</trkpt>
			<trkpt lat="50.539481" lon="14.726738">
				<ele>415.000000</ele>
			</trkpt>
			<trkpt lat="50.539247" lon="14.726442">
				<ele>417.000000</ele>
			</trkpt>
			<trkpt lat="50.539093" lon="14.726262">
				<ele>418.000000</ele>
			</trkpt>
			<trkpt lat="50.538887" lon="14.726092">
				<ele>420.000000</ele>
			</trkpt>
			<trkpt lat="50.538756" lon="14.725975">
				<ele>421.000000</ele>
			</trkpt>
			<trkpt lat="50.538630" lon="14.725849">
				<ele>422.000000</ele>
			</trkpt>
			<trkpt lat="50.538505" lon="14.725714">
				<ele>423.000000</ele>
			</trkpt>
			<trkpt lat="50.538408" lon="14.725570">
				<ele>424.000000</ele>
			</trkpt>
			<trkpt lat="50.538305" lon="14.725427">
				<ele>425.000000</ele>
			</trkpt>
			<trkpt lat="50.538237" lon="14.725291">
				<ele>425.000000</ele>
			</trkpt>
			<trkpt lat="50.538180" lon="14.725148">
				<ele>426.000000</ele>
			</trkpt>
			<trkpt lat="50.538145" lon="14.725023">
				<ele>427.000000</ele>
			</trkpt>
			<trkpt lat="50.538037" lon="14.724825">
				<ele>428.000000</ele>
			</trkpt>
			<trkpt lat="50.537928" lon="14.724672">
				<ele>429.000000</ele>
			</trkpt>
			<trkpt lat="50.537803" lon="14.724528">
				<ele>430.000000</ele>
			</trkpt>
			<trkpt lat="50.537637" lon="14.724375">
				<ele>431.000000</ele>
			</trkpt>
			<trkpt lat="50.537460" lon="14.724205">
				<ele>432.000000</ele>
			</trkpt>
			<trkpt lat="50.537306" lon="14.724052">
				<ele>434.000000</ele>
			</trkpt>
			<trkpt lat="50.537163" lon="14.723899">
				<ele>435.000000</ele>
			</trkpt>
			<trkpt lat="50.537089" lon="14.723801">
				<ele>435.000000</ele>
			</trkpt>
			<trkpt lat="50.536866" lon="14.723423">
				<ele>437.000000</ele>
			</trkpt>
			<trkpt lat="50.536735" lon="14.723172">
				<ele>438.000000</ele>
			</trkpt>
			<trkpt lat="50.536627" lon="14.722911">
				<ele>440.000000</ele>
			</trkpt>
			<trkpt lat="50.536541" lon="14.722606">
				<ele>441.000000</ele>
			</trkpt>
			<trkpt lat="50.536484" lon="14.722354">
				<ele>442.000000</ele>
			</trkpt>
			<trkpt lat="50.536466" lon="14.722255">
				<ele>443.000000</ele>
			</trkpt>
			<trkpt lat="50.536466" lon="14.722138">
				<ele>444.000000</ele>
			</trkpt>
			<trkpt lat="50.536466" lon="14.722022">
				<ele>444.000000</ele>
			</trkpt>
			<trkpt lat="50.536484" lon="14.721924">
				<ele>445.000000</ele>
			</trkpt>
			<trkpt lat="50.536512" lon="14.721888">
				<ele>445.000000</ele>
			</trkpt>
			<trkpt lat="50.536535" lon="14.721861">
				<ele>445.000000</ele>
			</trkpt>
			<trkpt lat="50.536575" lon="14.721815">
				<ele>446.000000</ele>
			</trkpt>
			<trkpt lat="50.536609" lon="14.721761">
				<ele>447.000000</ele>
			</trkpt>
			<trkpt lat="50.536638" lon="14.721689">
				<ele>447.000000</ele>
			</trkpt>
			<trkpt lat="50.536643" lon="14.721599">
				<ele>448.000000</ele>
			</trkpt>
			<trkpt lat="50.536643" lon="14.721178">
				<ele>449.000000</ele>
			</trkpt>
			<trkpt lat="50.536678" lon="14.721295">
				<ele>450.000000</ele>
			</trkpt>
			<trkpt lat="50.536723" lon="14.721393">
				<ele>451.000000</ele>
			</trkpt>
			<trkpt lat="50.536786" lon="14.721492">
				<ele>451.000000</ele>
			</trkpt>
			<trkpt lat="50.536866" lon="14.721582">
				<ele>452.000000</ele>
			</trkpt>
			<trkpt lat="50.537174" lon="14.721941">
				<ele>456.000000</ele>
			</trkpt>
			<trkpt lat="50.537511" lon="14.722148">
				<ele>460.000000</ele>
			</trkpt>
			<trkpt lat="50.538282" lon="14.722597">
				<ele>470.000000</ele>
			</trkpt>
			<trkpt lat="50.538591" lon="14.722777">
				<ele>472.000000</ele>
			</trkpt>
			<trkpt lat="50.538796" lon="14.722930">
				<ele>473.000000</ele>
			</trkpt>
			<trkpt lat="50.538893" lon="14.723001">
				<ele>474.000000</ele>
			</trkpt>
			<trkpt lat="50.539041" lon="14.723073">
				<ele>475.000000</ele>
			</trkpt>
			<trkpt lat="50.539138" lon="14.723100">
				<ele>475.000000</ele>
			</trkpt>
			<trkpt lat="50.539167" lon="14.723100">
				<ele>476.000000</ele>
			</trkpt>
			<trkpt lat="50.539184" lon="14.723082">
				<ele>477.000000</ele>
			</trkpt>
			<trkpt lat="50.539190" lon="14.723056">
				<ele>478.000000</ele>
			</trkpt>
			<trkpt lat="50.539201" lon="14.723010">
				<ele>479.000000</ele>
			</trkpt>
			<trkpt lat="50.539190" lon="14.722939">
				<ele>480.000000</ele>
			</trkpt>
			<trkpt lat="50.539173" lon="14.722911">
				<ele>480.000000</ele>
			</trkpt>
			<trkpt lat="50.539150" lon="14.722903">
				<ele>480.000000</ele>
			</trkpt>
			<trkpt lat="50.538967" lon="14.722731">
				<ele>482.000000</ele>
			</trkpt>
			<trkpt lat="50.538813" lon="14.722614">
				<ele>483.000000</ele>
			</trkpt>
			<trkpt lat="50.538721" lon="14.722525">
				<ele>484.000000</ele>
			</trkpt>
			<trkpt lat="50.538636" lon="14.722408">
				<ele>485.000000</ele>
			</trkpt>
			<trkpt lat="50.538562" lon="14.722264">
				<ele>487.000000</ele>
			</trkpt>
			<trkpt lat="50.538442" lon="14.722014">
				<ele>492.000000</ele>
			</trkpt>
			<trkpt lat="50.538351" lon="14.721779">
				<ele>497.000000</ele>
			</trkpt>
			<trkpt lat="50.538271" lon="14.721519">
				<ele>502.000000</ele>
			</trkpt>
			<trkpt lat="50.538145" lon="14.721096">
				<ele>509.000000</ele>
			</trkpt>
			<trkpt lat="50.538088" lon="14.720899">
				<ele>512.000000</ele>
			</trkpt>
			<trkpt lat="50.538071" lon="14.720792">
				<ele>513.000000</ele>
			</trkpt>
			<trkpt lat="50.538065" lon="14.720675">
				<ele>515.000000</ele>
			</trkpt>
			<trkpt lat="50.538060" lon="14.720530">
				<ele>518.000000</ele>
			</trkpt>
			<trkpt lat="50.538082" lon="14.720199">
				<ele>526.000000</ele>
			</trkpt>
			<trkpt lat="50.538105" lon="14.719938">
				<ele>531.000000</ele>
			</trkpt>
			<trkpt lat="50.538122" lon="14.719687">
				<ele>536.000000</ele>
			</trkpt>
			<trkpt lat="50.538139" lon="14.719408">
				<ele>540.000000</ele>
			</trkpt>
			<trkpt lat="50.538157" lon="14.719238">
				<ele>542.000000</ele>
			</trkpt>
			<trkpt lat="50.538185" lon="14.719048">
				<ele>544.000000</ele>
			</trkpt>
			<trkpt lat="50.538310" lon="14.718528">
				<ele>552.000000</ele>
			</trkpt>
			<trkpt lat="50.538362" lon="14.718446">
				<ele>555.000000</ele>
			</trkpt>
			<trkpt lat="50.538419" lon="14.718419">
				<ele>556.000000</ele>
			</trkpt>
			<trkpt lat="50.538471" lon="14.718419">
				<ele>557.000000</ele>
			</trkpt>
			<trkpt lat="50.538528" lon="14.718456">
				<ele>558.000000</ele>
			</trkpt>
			<trkpt lat="50.538716" lon="14.718626">
				<ele>563.000000</ele>
			</trkpt>
			<trkpt lat="50.538825" lon="14.718735">
				<ele>566.000000</ele>
			</trkpt>
			<trkpt lat="50.538910" lon="14.718869">
				<ele>570.000000</ele>
			</trkpt>
			<trkpt lat="50.539018" lon="14.719022">
				<ele>574.000000</ele>
			</trkpt>
			<trkpt lat="50.539075" lon="14.719129">
				<ele>576.000000</ele>
			</trkpt>
			<trkpt lat="50.539110" lon="14.719219">
				<ele>578.000000</ele>
			</trkpt>
			<trkpt lat="50.539184" lon="14.719444">
				<ele>582.000000</ele>
			</trkpt>
			<trkpt lat="50.539390" lon="14.720217">
				<ele>592.000000</ele>
			</trkpt>
			<trkpt lat="50.539401" lon="14.720270">
				<ele>592.000000</ele>
			</trkpt>
			<trkpt lat="50.539401" lon="14.720270">
				<ele>592.000000</ele>
			</trkpt>
			<trkpt lat="50.539390" lon="14.720217">
				<ele>592.000000</ele>
			</trkpt>
			<trkpt lat="50.539184" lon="14.719444">
				<ele>582.000000</ele>
			</trkpt>
			<trkpt lat="50.539110" lon="14.719219">
				<ele>578.000000</ele>
			</trkpt>
			<trkpt lat="50.539075" lon="14.719129">
				<ele>576.000000</ele>
			</trkpt>
			<trkpt lat="50.539018" lon="14.719022">
				<ele>574.000000</ele>
			</trkpt>
			<trkpt lat="50.538910" lon="14.718869">
				<ele>570.000000</ele>
			</trkpt>
			<trkpt lat="50.538825" lon="14.718735">
				<ele>566.000000</ele>
			</trkpt>
			<trkpt lat="50.538716" lon="14.718626">
				<ele>563.000000</ele>
			</trkpt>
			<trkpt lat="50.538528" lon="14.718456">
				<ele>558.000000</ele>
			</trkpt>
			<trkpt lat="50.538471" lon="14.718419">
				<ele>557.000000</ele>
			</trkpt>
			<trkpt lat="50.538419" lon="14.718419">
				<ele>556.000000</ele>
			</trkpt>
			<trkpt lat="50.538362" lon="14.718446">
				<ele>555.000000</ele>
			</trkpt>
			<trkpt lat="50.538310" lon="14.718528">
				<ele>552.000000</ele>
			</trkpt>
			<trkpt lat="50.538185" lon="14.719048">
				<ele>544.000000</ele>
			</trkpt>
			<trkpt lat="50.538157" lon="14.719238">
				<ele>542.000000</ele>
			</trkpt>
			<trkpt lat="50.538139" lon="14.719408">
				<ele>540.000000</ele>
			</trkpt>
			<trkpt lat="50.538122" lon="14.719687">
				<ele>536.000000</ele>
			</trkpt>
			<trkpt lat="50.538105" lon="14.719938">
				<ele>531.000000</ele>
			</trkpt>
			<trkpt lat="50.538082" lon="14.720199">
				<ele>526.000000</ele>
			</trkpt>
			<trkpt lat="50.538060" lon="14.720530">
				<ele>518.000000</ele>
			</trkpt>
			<trkpt lat="50.538065" lon="14.720675">
				<ele>515.000000</ele>
			</trkpt>
			<trkpt lat="50.538071" lon="14.720792">
				<ele>513.000000</ele>
			</trkpt>
			<trkpt lat="50.538088" lon="14.720899">
				<ele>512.000000</ele>
			</trkpt>
			<trkpt lat="50.538145" lon="14.721096">
				<ele>509.000000</ele>
			</trkpt>
			<trkpt lat="50.538271" lon="14.721519">
				<ele>502.000000</ele>
			</trkpt>
			<trkpt lat="50.538351" lon="14.721779">
				<ele>497.000000</ele>
			</trkpt>
			<trkpt lat="50.538442" lon="14.722014">
				<ele>492.000000</ele>
			</trkpt>
			<trkpt lat="50.538562" lon="14.722264">
				<ele>487.000000</ele>
			</trkpt>
			<trkpt lat="50.538636" lon="14.722408">
				<ele>485.000000</ele>
			</trkpt>
			<trkpt lat="50.538721" lon="14.722525">
				<ele>484.000000</ele>
			</trkpt>
			<trkpt lat="50.538813" lon="14.722614">
				<ele>483.000000</ele>
			</trkpt>
			<trkpt lat="50.538967" lon="14.722731">
				<ele>482.000000</ele>
			</trkpt>
			<trkpt lat="50.539150" lon="14.722903">
				<ele>480.000000</ele>
			</trkpt>
			<trkpt lat="50.539173" lon="14.722911">
				<ele>480.000000</ele>
			</trkpt>
			<trkpt lat="50.539190" lon="14.722939">
				<ele>480.000000</ele>
			</trkpt>
			<trkpt lat="50.539201" lon="14.723010">
				<ele>479.000000</ele>
			</trkpt>
			<trkpt lat="50.539190" lon="14.723056">
				<ele>478.000000</ele>
			</trkpt>
			<trkpt lat="50.539184" lon="14.723082">
				<ele>477.000000</ele>
			</trkpt>
			<trkpt lat="50.539167" lon="14.723100">
				<ele>476.000000</ele>
			</trkpt>
			<trkpt lat="50.539138" lon="14.723100">
				<ele>475.000000</ele>
			</trkpt>
			<trkpt lat="50.539041" lon="14.723073">
				<ele>475.000000</ele>
			</trkpt>
			<trkpt lat="50.538893" lon="14.723001">
				<ele>474.000000</ele>
			</trkpt>
			<trkpt lat="50.538796" lon="14.722930">
				<ele>473.000000</ele>
			</trkpt>
			<trkpt lat="50.538591" lon="14.722777">
				<ele>472.000000</ele>
			</trkpt>
			<trkpt lat="50.538282" lon="14.722597">
				<ele>470.000000</ele>
			</trkpt>
			<trkpt lat="50.537511" lon="14.722148">
				<ele>460.000000</ele>
			</trkpt>
			<trkpt lat="50.537174" lon="14.721941">
				<ele>456.000000</ele>
			</trkpt>
			<trkpt lat="50.536866" lon="14.721582">
				<ele>452.000000</ele>
			</trkpt>
			<trkpt lat="50.536786" lon="14.721492">
				<ele>451.000000</ele>
			</trkpt>
			<trkpt lat="50.536723" lon="14.721393">
				<ele>451.000000</ele>
			</trkpt>
			<trkpt lat="50.536678" lon="14.721295">
				<ele>450.000000</ele>
			</trkpt>
			<trkpt lat="50.536643" lon="14.721178">
				<ele>449.000000</ele>
			</trkpt>
			<trkpt lat="50.536461" lon="14.720729">
				<ele>447.000000</ele>
			</trkpt>
			<trkpt lat="50.536181" lon="14.720207">
				<ele>442.000000</ele>
			</trkpt>
			<trkpt lat="50.536118" lon="14.720064">
				<ele>440.000000</ele>
			</trkpt>
			<trkpt lat="50.536084" lon="14.719938">
				<ele>438.000000</ele>
			</trkpt>
			<trkpt lat="50.536044" lon="14.719758">
				<ele>438.000000</ele>
			</trkpt>
			<trkpt lat="50.536027" lon="14.719534">
				<ele>437.000000</ele>
			</trkpt>
			<trkpt lat="50.536016" lon="14.719192">
				<ele>436.000000</ele>
			</trkpt>
			<trkpt lat="50.536010" lon="14.719022">
				<ele>436.000000</ele>
			</trkpt>
			<trkpt lat="50.535981" lon="14.718851">
				<ele>435.000000</ele>
			</trkpt>
			<trkpt lat="50.535935" lon="14.718698">
				<ele>435.000000</ele>
			</trkpt>
			<trkpt lat="50.535901" lon="14.718591">
				<ele>435.000000</ele>
			</trkpt>
			<trkpt lat="50.535878" lon="14.718473">
				<ele>434.000000</ele>
			</trkpt>
			<trkpt lat="50.535873" lon="14.718356">
				<ele>434.000000</ele>
			</trkpt>
			<trkpt lat="50.535873" lon="14.718150">
				<ele>433.000000</ele>
			</trkpt>
			<trkpt lat="50.535975" lon="14.717756">
				<ele>432.000000</ele>
			</trkpt>
			<trkpt lat="50.536039" lon="14.717611">
				<ele>431.000000</ele>
			</trkpt>
			<trkpt lat="50.536175" lon="14.716901">
				<ele>429.000000</ele>
			</trkpt>
			<trkpt lat="50.536193" lon="14.716704">
				<ele>428.000000</ele>
			</trkpt>
			<trkpt lat="50.536209" lon="14.716551">
				<ele>427.000000</ele>
			</trkpt>
			<trkpt lat="50.536209" lon="14.716408">
				<ele>426.000000</ele>
			</trkpt>
			<trkpt lat="50.536198" lon="14.716272">
				<ele>426.000000</ele>
			</trkpt>
			<trkpt lat="50.536169" lon="14.716031">
				<ele>424.000000</ele>
			</trkpt>
			<trkpt lat="50.536152" lon="14.715788">
				<ele>423.000000</ele>
			</trkpt>
			<trkpt lat="50.536152" lon="14.715509">
				<ele>421.000000</ele>
			</trkpt>
			<trkpt lat="50.536227" lon="14.715339">
				<ele>420.000000</ele>
			</trkpt>
			<trkpt lat="50.536295" lon="14.715195">
				<ele>420.000000</ele>
			</trkpt>
			<trkpt lat="50.536369" lon="14.715087">
				<ele>419.000000</ele>
			</trkpt>
			<trkpt lat="50.536450" lon="14.714997">
				<ele>419.000000</ele>
			</trkpt>
			<trkpt lat="50.536495" lon="14.714953">
				<ele>419.000000</ele>
			</trkpt>
			<trkpt lat="50.536575" lon="14.714853">
				<ele>418.000000</ele>
			</trkpt>
			<trkpt lat="50.536638" lon="14.714746">
				<ele>418.000000</ele>
			</trkpt>
			<trkpt lat="50.536684" lon="14.714601">
				<ele>418.000000</ele>
			</trkpt>
			<trkpt lat="50.536700" lon="14.714450">
				<ele>417.000000</ele>
			</trkpt>
			<trkpt lat="50.536700" lon="14.714324">
				<ele>417.000000</ele>
			</trkpt>
			<trkpt lat="50.536706" lon="14.714180">
				<ele>417.000000</ele>
			</trkpt>
			<trkpt lat="50.536735" lon="14.714064">
				<ele>416.000000</ele>
			</trkpt>
			<trkpt lat="50.536781" lon="14.713955">
				<ele>416.000000</ele>
			</trkpt>
			<trkpt lat="50.536906" lon="14.713731">
				<ele>416.000000</ele>
			</trkpt>
			<trkpt lat="50.536940" lon="14.713614">
				<ele>415.000000</ele>
			</trkpt>
			<trkpt lat="50.536958" lon="14.713498">
				<ele>415.000000</ele>
			</trkpt>
			<trkpt lat="50.536946" lon="14.713372">
				<ele>415.000000</ele>
			</trkpt>
			<trkpt lat="50.536929" lon="14.713165">
				<ele>415.000000</ele>
			</trkpt>
			<trkpt lat="50.536912" lon="14.712949">
				<ele>415.000000</ele>
			</trkpt>
			<trkpt lat="50.536918" lon="14.712743">
				<ele>415.000000</ele>
			</trkpt>
			<trkpt lat="50.536963" lon="14.712527">
				<ele>415.000000</ele>
			</trkpt>
			<trkpt lat="50.537038" lon="14.712257">
				<ele>415.000000</ele>
			</trkpt>
			<trkpt lat="50.537311" lon="14.711351">
				<ele>414.000000</ele>
			</trkpt>
			<trkpt lat="50.537408" lon="14.711054">
				<ele>413.000000</ele>
			</trkpt>
			<trkpt lat="50.537528" lon="14.710785">
				<ele>413.000000</ele>
			</trkpt>
			<trkpt lat="50.537711" lon="14.710416">
				<ele>413.000000</ele>
			</trkpt>
			<trkpt lat="50.537803" lon="14.710263">
				<ele>412.000000</ele>
			</trkpt>
			<trkpt lat="50.537911" lon="14.710093">
				<ele>412.000000</ele>
			</trkpt>
			<trkpt lat="50.538019" lon="14.709949">
				<ele>412.000000</ele>
			</trkpt>
			<trkpt lat="50.538128" lon="14.709823">
				<ele>412.000000</ele>
			</trkpt>
			<trkpt lat="50.538276" lon="14.709697">
				<ele>411.000000</ele>
			</trkpt>
			<trkpt lat="50.538442" lon="14.709553">
				<ele>411.000000</ele>
			</trkpt>
			<trkpt lat="50.538556" lon="14.709473">
				<ele>411.000000</ele>
			</trkpt>
			<trkpt lat="50.538676" lon="14.709383">
				<ele>411.000000</ele>
			</trkpt>
			<trkpt lat="50.539030" lon="14.708987">
				<ele>410.000000</ele>
			</trkpt>
			<trkpt lat="50.539133" lon="14.708861">
				<ele>409.000000</ele>
			</trkpt>
			<trkpt lat="50.539213" lon="14.708745">
				<ele>408.000000</ele>
			</trkpt>
			<trkpt lat="50.539338" lon="14.708502">
				<ele>407.000000</ele>
			</trkpt>
			<trkpt lat="50.539372" lon="14.708404">
				<ele>406.000000</ele>
			</trkpt>
			<trkpt lat="50.539390" lon="14.708305">
				<ele>406.000000</ele>
			</trkpt>
			<trkpt lat="50.539424" lon="14.708108">
				<ele>405.000000</ele>
			</trkpt>
			<trkpt lat="50.539481" lon="14.707936">
				<ele>404.000000</ele>
			</trkpt>
			<trkpt lat="50.539515" lon="14.707838">
				<ele>404.000000</ele>
			</trkpt>
			<trkpt lat="50.539578" lon="14.707766">
				<ele>403.000000</ele>
			</trkpt>
			<trkpt lat="50.539652" lon="14.707739">
				<ele>403.000000</ele>
			</trkpt>
			<trkpt lat="50.539733" lon="14.707730">
				<ele>402.000000</ele>
			</trkpt>
			<trkpt lat="50.539881" lon="14.707712">
				<ele>401.000000</ele>
			</trkpt>
			<trkpt lat="50.540001" lon="14.707666">
				<ele>400.000000</ele>
			</trkpt>
			<trkpt lat="50.540126" lon="14.707595">
				<ele>398.000000</ele>
			</trkpt>
			<trkpt lat="50.540252" lon="14.707479">
				<ele>397.000000</ele>
			</trkpt>
			<trkpt lat="50.540423" lon="14.707307">
				<ele>393.000000</ele>
			</trkpt>
			<trkpt lat="50.540674" lon="14.706976">
				<ele>389.000000</ele>
			</trkpt>
			<trkpt lat="50.541057" lon="14.706445">
				<ele>385.000000</ele>
			</trkpt>
			<trkpt lat="50.541182" lon="14.706301">
				<ele>383.000000</ele>
			</trkpt>
			<trkpt lat="50.541325" lon="14.706175">
				<ele>380.000000</ele>
			</trkpt>
			<trkpt lat="50.541508" lon="14.706032">
				<ele>376.000000</ele>
			</trkpt>
			<trkpt lat="50.541639" lon="14.705961">
				<ele>374.000000</ele>
			</trkpt>
			<trkpt lat="50.541805" lon="14.705888">
				<ele>370.000000</ele>
			</trkpt>
			<trkpt lat="50.541930" lon="14.705808">
				<ele>368.000000</ele>
			</trkpt>
			<trkpt lat="50.542307" lon="14.705538">
				<ele>364.000000</ele>
			</trkpt>
			<trkpt lat="50.542592" lon="14.705305">
				<ele>361.000000</ele>
			</trkpt>
			<trkpt lat="50.542986" lon="14.704963">
				<ele>358.000000</ele>
			</trkpt>
			<trkpt lat="50.543186" lon="14.704802">
				<ele>357.000000</ele>
			</trkpt>
			<trkpt lat="50.543283" lon="14.704712">
				<ele>356.000000</ele>
			</trkpt>
			<trkpt lat="50.543363" lon="14.704630">
				<ele>356.000000</ele>
			</trkpt>
			<trkpt lat="50.543443" lon="14.704523">
				<ele>355.000000</ele>
			</trkpt>
			<trkpt lat="50.543529" lon="14.704397">
				<ele>354.000000</ele>
			</trkpt>
			<trkpt lat="50.543689" lon="14.704146">
				<ele>353.000000</ele>
			</trkpt>
			<trkpt lat="50.543848" lon="14.703903">
				<ele>352.000000</ele>
			</trkpt>
			<trkpt lat="50.544025" lon="14.703678">
				<ele>351.000000</ele>
			</trkpt>
			<trkpt lat="50.544305" lon="14.703337">
				<ele>348.000000</ele>
			</trkpt>
			<trkpt lat="50.544465" lon="14.703148">
				<ele>347.000000</ele>
			</trkpt>
			<trkpt lat="50.544602" lon="14.702969">
				<ele>346.000000</ele>
			</trkpt>
			<trkpt lat="50.544693" lon="14.702816">
				<ele>345.000000</ele>
			</trkpt>
			<trkpt lat="50.544773" lon="14.702628">
				<ele>343.000000</ele>
			</trkpt>
			<trkpt lat="50.544899" lon="14.702286">
				<ele>340.000000</ele>
			</trkpt>
			<trkpt lat="50.544968" lon="14.702116">
				<ele>339.000000</ele>
			</trkpt>
			<trkpt lat="50.545093" lon="14.701792">
				<ele>338.000000</ele>
			</trkpt>
			<trkpt lat="50.545355" lon="14.701227">
				<ele>335.000000</ele>
			</trkpt>
			<trkpt lat="50.545407" lon="14.701074">
				<ele>335.000000</ele>
			</trkpt>
			<trkpt lat="50.545458" lon="14.700911">
				<ele>334.000000</ele>
			</trkpt>
			<trkpt lat="50.545504" lon="14.700750">
				<ele>334.000000</ele>
			</trkpt>
			<trkpt lat="50.545550" lon="14.700561">
				<ele>333.000000</ele>
			</trkpt>
			<trkpt lat="50.545635" lon="14.700139">
				<ele>332.000000</ele>
			</trkpt>
			<trkpt lat="50.545698" lon="14.699869">
				<ele>331.000000</ele>
			</trkpt>
			<trkpt lat="50.545806" lon="14.699456">
				<ele>330.000000</ele>
			</trkpt>
			<trkpt lat="50.545920" lon="14.699087">
				<ele>329.000000</ele>
			</trkpt>
			<trkpt lat="50.546058" lon="14.698720">
				<ele>328.000000</ele>
			</trkpt>
			<trkpt lat="50.546234" lon="14.698298">
				<ele>327.000000</ele>
			</trkpt>
			<trkpt lat="50.546452" lon="14.697831">
				<ele>325.000000</ele>
			</trkpt>
			<trkpt lat="50.547034" lon="14.696555">
				<ele>317.000000</ele>
			</trkpt>
			<trkpt lat="50.547176" lon="14.696204">
				<ele>315.000000</ele>
			</trkpt>
			<trkpt lat="50.547308" lon="14.695908">
				<ele>313.000000</ele>
			</trkpt>
			<trkpt lat="50.547467" lon="14.695621">
				<ele>311.000000</ele>
			</trkpt>
			<trkpt lat="50.547736" lon="14.695154">
				<ele>309.000000</ele>
			</trkpt>
			<trkpt lat="50.548090" lon="14.694561">
				<ele>305.000000</ele>
			</trkpt>
			<trkpt lat="50.548278" lon="14.694192">
				<ele>304.000000</ele>
			</trkpt>
			<trkpt lat="50.548426" lon="14.693877">
				<ele>303.000000</ele>
			</trkpt>
			<trkpt lat="50.548587" lon="14.693600">
				<ele>301.000000</ele>
			</trkpt>
			<trkpt lat="50.548712" lon="14.693374">
				<ele>300.000000</ele>
			</trkpt>
			<trkpt lat="50.548849" lon="14.693177">
				<ele>299.000000</ele>
			</trkpt>
			<trkpt lat="50.549083" lon="14.692863">
				<ele>298.000000</ele>
			</trkpt>
			<trkpt lat="50.549163" lon="14.692745">
				<ele>297.000000</ele>
			</trkpt>
			<trkpt lat="50.549232" lon="14.692638">
				<ele>296.000000</ele>
			</trkpt>
			<trkpt lat="50.549289" lon="14.692539">
				<ele>296.000000</ele>
			</trkpt>
			<trkpt lat="50.549334" lon="14.692441">
				<ele>295.000000</ele>
			</trkpt>
			<trkpt lat="50.549368" lon="14.692297">
				<ele>295.000000</ele>
			</trkpt>
			<trkpt lat="50.549431" lon="14.692055">
				<ele>294.000000</ele>
			</trkpt>
			<trkpt lat="50.549511" lon="14.691542">
				<ele>293.000000</ele>
			</trkpt>
			<trkpt lat="50.549608" lon="14.690994">
				<ele>292.000000</ele>
			</trkpt>
			<trkpt lat="50.549659" lon="14.690770">
				<ele>292.000000</ele>
			</trkpt>
			<trkpt lat="50.549722" lon="14.690545">
				<ele>291.000000</ele>
			</trkpt>
			<trkpt lat="50.549882" lon="14.689979">
				<ele>290.000000</ele>
			</trkpt>
			<trkpt lat="50.549962" lon="14.689737">
				<ele>290.000000</ele>
			</trkpt>
			<trkpt lat="50.550122" lon="14.689288">
				<ele>290.000000</ele>
			</trkpt>
			<trkpt lat="50.550305" lon="14.688847">
				<ele>290.000000</ele>
			</trkpt>
			<trkpt lat="50.550470" lon="14.688461">
				<ele>290.000000</ele>
			</trkpt>
			<trkpt lat="50.550653" lon="14.688093">
				<ele>290.000000</ele>
			</trkpt>
			<trkpt lat="50.550858" lon="14.687697">
				<ele>290.000000</ele>
			</trkpt>
			<trkpt lat="50.551098" lon="14.687302">
				<ele>289.000000</ele>
			</trkpt>
			<trkpt lat="50.551772" lon="14.686179">
				<ele>288.000000</ele>
			</trkpt>
			<trkpt lat="50.551840" lon="14.686009">
				<ele>288.000000</ele>
			</trkpt>
			<trkpt lat="50.551948" lon="14.685676">
				<ele>287.000000</ele>
			</trkpt>
			<trkpt lat="50.552040" lon="14.685371">
				<ele>287.000000</ele>
			</trkpt>
			<trkpt lat="50.552108" lon="14.685120">
				<ele>287.000000</ele>
			</trkpt>
			<trkpt lat="50.552302" lon="14.684248">
				<ele>286.000000</ele>
			</trkpt>
			<trkpt lat="50.552359" lon="14.684015">
				<ele>285.000000</ele>
			</trkpt>
			<trkpt lat="50.552422" lon="14.683816">
				<ele>285.000000</ele>
			</trkpt>
			<trkpt lat="50.552485" lon="14.683610">
				<ele>285.000000</ele>
			</trkpt>
			<trkpt lat="50.552554" lon="14.683422">
				<ele>284.000000</ele>
			</trkpt>
			<trkpt lat="50.552633" lon="14.683242">
				<ele>283.000000</ele>
			</trkpt>
			<trkpt lat="50.552725" lon="14.683053">
				<ele>282.000000</ele>
			</trkpt>
			<trkpt lat="50.552959" lon="14.682532">
				<ele>280.000000</ele>
			</trkpt>
			<trkpt lat="50.553392" lon="14.681481">
				<ele>279.000000</ele>
			</trkpt>
			<trkpt lat="50.554009" lon="14.679881">
				<ele>278.000000</ele>
			</trkpt>
			<trkpt lat="50.554088" lon="14.679675">
				<ele>278.000000</ele>
			</trkpt>
			<trkpt lat="50.554151" lon="14.679487">
				<ele>278.000000</ele>
			</trkpt>
			<trkpt lat="50.554197" lon="14.679281">
				<ele>278.000000</ele>
			</trkpt>
			<trkpt lat="50.554243" lon="14.679038">
				<ele>278.000000</ele>
			</trkpt>
			<trkpt lat="50.554288" lon="14.678723">
				<ele>278.000000</ele>
			</trkpt>
			<trkpt lat="50.554306" lon="14.678400">
				<ele>277.000000</ele>
			</trkpt>
			<trkpt lat="50.554311" lon="14.678202">
				<ele>277.000000</ele>
			</trkpt>
			<trkpt lat="50.554340" lon="14.678032">
				<ele>277.000000</ele>
			</trkpt>
			<trkpt lat="50.554363" lon="14.677879">
				<ele>277.000000</ele>
			</trkpt>
			<trkpt lat="50.554420" lon="14.677708">
				<ele>277.000000</ele>
			</trkpt>
			<trkpt lat="50.554465" lon="14.677564">
				<ele>277.000000</ele>
			</trkpt>
			<trkpt lat="50.554483" lon="14.677411">
				<ele>277.000000</ele>
			</trkpt>
			<trkpt lat="50.554488" lon="14.677286">
				<ele>277.000000</ele>
			</trkpt>
			<trkpt lat="50.554506" lon="14.676918">
				<ele>277.000000</ele>
			</trkpt>
			<trkpt lat="50.554522" lon="14.676648">
				<ele>277.000000</ele>
			</trkpt>
			<trkpt lat="50.554556" lon="14.676397">
				<ele>276.000000</ele>
			</trkpt>
			<trkpt lat="50.554670" lon="14.675669">
				<ele>276.000000</ele>
			</trkpt>
			<trkpt lat="50.554711" lon="14.675507">
				<ele>276.000000</ele>
			</trkpt>
			<trkpt lat="50.554745" lon="14.675373">
				<ele>276.000000</ele>
			</trkpt>
			<trkpt lat="50.554904" lon="14.675004">
				<ele>276.000000</ele>
			</trkpt>
			<trkpt lat="50.554939" lon="14.674897">
				<ele>276.000000</ele>
			</trkpt>
			<trkpt lat="50.554968" lon="14.674780">
				<ele>276.000000</ele>
			</trkpt>
			<trkpt lat="50.554985" lon="14.674654">
				<ele>275.000000</ele>
			</trkpt>
			<trkpt lat="50.554996" lon="14.674528">
				<ele>275.000000</ele>
			</trkpt>
			<trkpt lat="50.555002" lon="14.674411">
				<ele>275.000000</ele>
			</trkpt>
			<trkpt lat="50.555019" lon="14.674312">
				<ele>275.000000</ele>
			</trkpt>
			<trkpt lat="50.555036" lon="14.674231">
				<ele>275.000000</ele>
			</trkpt>
			<trkpt lat="50.555082" lon="14.674105">
				<ele>275.000000</ele>
			</trkpt>
			<trkpt lat="50.555259" lon="14.673594">
				<ele>275.000000</ele>
			</trkpt>
			<trkpt lat="50.555333" lon="14.673415">
				<ele>275.000000</ele>
			</trkpt>
			<trkpt lat="50.555424" lon="14.673252">
				<ele>275.000000</ele>
			</trkpt>
			<trkpt lat="50.555521" lon="14.673109">
				<ele>275.000000</ele>
			</trkpt>
			<trkpt lat="50.555675" lon="14.672939">
				<ele>275.000000</ele>
			</trkpt>
			<trkpt lat="50.555790" lon="14.672839">
				<ele>275.000000</ele>
			</trkpt>
			<trkpt lat="50.556012" lon="14.672669">
				<ele>275.000000</ele>
			</trkpt>
			<trkpt lat="50.556263" lon="14.672462">
				<ele>276.000000</ele>
			</trkpt>
			<trkpt lat="50.556354" lon="14.672373">
				<ele>276.000000</ele>
			</trkpt>
			<trkpt lat="50.556451" lon="14.672256">
				<ele>276.000000</ele>
			</trkpt>
			<trkpt lat="50.556874" lon="14.671734">
				<ele>276.000000</ele>
			</trkpt>
			<trkpt lat="50.557747" lon="14.670755">
				<ele>277.000000</ele>
			</trkpt>
			<trkpt lat="50.557804" lon="14.670639">
				<ele>278.000000</ele>
			</trkpt>
			<trkpt lat="50.557844" lon="14.670558">
				<ele>278.000000</ele>
			</trkpt>
			<trkpt lat="50.557890" lon="14.670413">
				<ele>278.000000</ele>
			</trkpt>
			<trkpt lat="50.558010" lon="14.669920">
				<ele>278.000000</ele>
			</trkpt>
			<trkpt lat="50.558278" lon="14.668968">
				<ele>279.000000</ele>
			</trkpt>
			<trkpt lat="50.558392" lon="14.668446">
				<ele>279.000000</ele>
			</trkpt>
			<trkpt lat="50.558500" lon="14.668025">
				<ele>279.000000</ele>
			</trkpt>
			<trkpt lat="50.558797" lon="14.667063">
				<ele>280.000000</ele>
			</trkpt>
			<trkpt lat="50.559099" lon="14.666174">
				<ele>282.000000</ele>
			</trkpt>
			<trkpt lat="50.559356" lon="14.665509">
				<ele>283.000000</ele>
			</trkpt>
			<trkpt lat="50.559454" lon="14.665168">
				<ele>284.000000</ele>
			</trkpt>
			<trkpt lat="50.559556" lon="14.665096">
				<ele>284.000000</ele>
			</trkpt>
			<trkpt lat="50.559625" lon="14.664997">
				<ele>285.000000</ele>
			</trkpt>
			<trkpt lat="50.559716" lon="14.664862">
				<ele>285.000000</ele>
			</trkpt>
			<trkpt lat="50.559824" lon="14.664727">
				<ele>287.000000</ele>
			</trkpt>
			<trkpt lat="50.560235" lon="14.664260">
				<ele>287.000000</ele>
			</trkpt>
			<trkpt lat="50.560389" lon="14.664071">
				<ele>285.000000</ele>
			</trkpt>
			<trkpt lat="50.560504" lon="14.663901">
				<ele>284.000000</ele>
			</trkpt>
			<trkpt lat="50.560555" lon="14.663820">
				<ele>283.000000</ele>
			</trkpt>
			<trkpt lat="50.560595" lon="14.663731">
				<ele>283.000000</ele>
			</trkpt>
			<trkpt lat="50.560618" lon="14.663614">
				<ele>283.000000</ele>
			</trkpt>
			<trkpt lat="50.560646" lon="14.663461">
				<ele>282.000000</ele>
			</trkpt>
			<trkpt lat="50.560720" lon="14.663478">
				<ele>282.000000</ele>
			</trkpt>
			<trkpt lat="50.560783" lon="14.663461">
				<ele>282.000000</ele>
			</trkpt>
			<trkpt lat="50.560880" lon="14.663434">
				<ele>281.000000</ele>
			</trkpt>
			<trkpt lat="50.560863" lon="14.663138">
				<ele>280.000000</ele>
			</trkpt>
			<trkpt lat="50.563260" lon="14.662545">
				<ele>280.000000</ele>
			</trkpt>
			<trkpt lat="50.563528" lon="14.662599">
				<ele>280.000000</ele>
			</trkpt>
			<trkpt lat="50.563648" lon="14.662608">
				<ele>280.000000</ele>
			</trkpt>
			<trkpt lat="50.563699" lon="14.662463">
				<ele>278.000000</ele>
			</trkpt>
			<trkpt lat="50.563836" lon="14.662392">
				<ele>276.000000</ele>
			</trkpt>
			<trkpt lat="50.563465" lon="14.661520">
				<ele>275.000000</ele>
			</trkpt>
			<trkpt lat="50.563294" lon="14.660828">
				<ele>275.000000</ele>
			</trkpt>
			<trkpt lat="50.563294" lon="14.659463">
				<ele>275.000000</ele>
			</trkpt>
			<trkpt lat="50.563271" lon="14.659149">
				<ele>275.000000</ele>
			</trkpt>
			<trkpt lat="50.563105" lon="14.658494">
				<ele>275.000000</ele>
			</trkpt>
			<trkpt lat="50.563168" lon="14.658431">
				<ele>275.000000</ele>
			</trkpt>
			<trkpt lat="50.563300" lon="14.658377">
				<ele>275.000000</ele>
			</trkpt>
			<trkpt lat="50.563448" lon="14.658054">
				<ele>275.000000</ele>
			</trkpt>
			<trkpt lat="50.563499" lon="14.657918">
				<ele>275.000000</ele>
			</trkpt>
			<trkpt lat="50.563545" lon="14.657792">
				<ele>276.000000</ele>
			</trkpt>
			<trkpt lat="50.563608" lon="14.657712">
				<ele>277.000000</ele>
			</trkpt>
			<trkpt lat="50.563676" lon="14.657639">
				<ele>277.000000</ele>
			</trkpt>
			<trkpt lat="50.563767" lon="14.657595">
				<ele>278.000000</ele>
			</trkpt>
			<trkpt lat="50.563864" lon="14.657568">
				<ele>279.000000</ele>
			</trkpt>
			<trkpt lat="50.563950" lon="14.657505">
				<ele>280.000000</ele>
			</trkpt>
			<trkpt lat="50.564013" lon="14.657452">
				<ele>280.000000</ele>
			</trkpt>
			<trkpt lat="50.564064" lon="14.657379">
				<ele>281.000000</ele>
			</trkpt>
			<trkpt lat="50.564098" lon="14.657299">
				<ele>282.000000</ele>
			</trkpt>
			<trkpt lat="50.564116" lon="14.657182">
				<ele>282.000000</ele>
			</trkpt>
			<trkpt lat="50.564110" lon="14.657083">
				<ele>282.000000</ele>
			</trkpt>
			<trkpt lat="50.564024" lon="14.656786">
				<ele>282.000000</ele>
			</trkpt>
			<trkpt lat="50.563899" lon="14.656418">
				<ele>282.000000</ele>
			</trkpt>
			<trkpt lat="50.563990" lon="14.656184">
				<ele>285.000000</ele>
			</trkpt>
			<trkpt lat="50.564258" lon="14.655915">
				<ele>284.000000</ele>
			</trkpt>
			<trkpt lat="50.564464" lon="14.655708">
				<ele>283.000000</ele>
			</trkpt>
			<trkpt lat="50.564601" lon="14.655574">
				<ele>282.000000</ele>
			</trkpt>
			<trkpt lat="50.564424" lon="14.655251">
				<ele>282.000000</ele>
			</trkpt>
			<trkpt lat="50.564326" lon="14.655062">
				<ele>282.000000</ele>
			</trkpt>
			<trkpt lat="50.564612" lon="14.654316">
				<ele>279.000000</ele>
			</trkpt>
			<trkpt lat="50.564629" lon="14.654056">
				<ele>278.000000</ele>
			</trkpt>
			<trkpt lat="50.564721" lon="14.654002">
				<ele>278.000000</ele>
			</trkpt>
			<trkpt lat="50.564789" lon="14.653957">
				<ele>278.000000</ele>
			</trkpt>
			<trkpt lat="50.564908" lon="14.653876">
				<ele>277.000000</ele>
			</trkpt>
			<trkpt lat="50.565000" lon="14.653831">
				<ele>277.000000</ele>
			</trkpt>
			<trkpt lat="50.565085" lon="14.653831">
				<ele>277.000000</ele>
			</trkpt>
			<trkpt lat="50.565211" lon="14.653857">
				<ele>277.000000</ele>
			</trkpt>
			<trkpt lat="50.565377" lon="14.653894">
				<ele>276.000000</ele>
			</trkpt>
			<trkpt lat="50.565502" lon="14.653957">
				<ele>276.000000</ele>
			</trkpt>
			<trkpt lat="50.565594" lon="14.654020">
				<ele>276.000000</ele>
			</trkpt>
			<trkpt lat="50.565674" lon="14.654092">
				<ele>275.000000</ele>
			</trkpt>
			<trkpt lat="50.565833" lon="14.654217">
				<ele>275.000000</ele>
			</trkpt>
			<trkpt lat="50.566033" lon="14.654343">
				<ele>274.000000</ele>
			</trkpt>
			<trkpt lat="50.566158" lon="14.654136">
				<ele>274.000000</ele>
			</trkpt>
			<trkpt lat="50.566256" lon="14.654002">
				<ele>274.000000</ele>
			</trkpt>
			<trkpt lat="50.566358" lon="14.653903">
				<ele>274.000000</ele>
			</trkpt>
			<trkpt lat="50.566461" lon="14.653831">
				<ele>274.000000</ele>
			</trkpt>
			<trkpt lat="50.566598" lon="14.653759">
				<ele>274.000000</ele>
			</trkpt>
			<trkpt lat="50.566752" lon="14.653714">
				<ele>275.000000</ele>
			</trkpt>
			<trkpt lat="50.567014" lon="14.653633">
				<ele>275.000000</ele>
			</trkpt>
			<trkpt lat="50.567271" lon="14.653570">
				<ele>275.000000</ele>
			</trkpt>
			<trkpt lat="50.567585" lon="14.653490">
				<ele>275.000000</ele>
			</trkpt>
			<trkpt lat="50.567847" lon="14.653417">
				<ele>275.000000</ele>
			</trkpt>
			<trkpt lat="50.567984" lon="14.653373">
				<ele>275.000000</ele>
			</trkpt>
			<trkpt lat="50.568258" lon="14.653238">
				<ele>275.000000</ele>
			</trkpt>
			<trkpt lat="50.568412" lon="14.653167">
				<ele>275.000000</ele>
			</trkpt>
			<trkpt lat="50.568612" lon="14.653041">
				<ele>275.000000</ele>
			</trkpt>
			<trkpt lat="50.568926" lon="14.652798">
				<ele>275.000000</ele>
			</trkpt>
			<trkpt lat="50.568994" lon="14.652754">
				<ele>275.000000</ele>
			</trkpt>
			<trkpt lat="50.569708" lon="14.652259">
				<ele>275.000000</ele>
			</trkpt>
			<trkpt lat="50.569822" lon="14.652223">
				<ele>275.000000</ele>
			</trkpt>
			<trkpt lat="50.569913" lon="14.652196">
				<ele>275.000000</ele>
			</trkpt>
			<trkpt lat="50.569993" lon="14.652151">
				<ele>274.000000</ele>
			</trkpt>
			<trkpt lat="50.570084" lon="14.652088">
				<ele>274.000000</ele>
			</trkpt>
			<trkpt lat="50.570557" lon="14.651639">
				<ele>273.000000</ele>
			</trkpt>
			<trkpt lat="50.570711" lon="14.651469">
				<ele>272.000000</ele>
			</trkpt>
			<trkpt lat="50.571054" lon="14.651199">
				<ele>273.000000</ele>
			</trkpt>
			<trkpt lat="50.571088" lon="14.651289">
				<ele>272.000000</ele>
			</trkpt>
			<trkpt lat="50.570997" lon="14.651370">
				<ele>272.000000</ele>
			</trkpt>
			<trkpt lat="50.571196" lon="14.651540">
				<ele>272.000000</ele>
			</trkpt>
			<trkpt lat="50.571122" lon="14.651738">
				<ele>272.000000</ele>
			</trkpt>
			<trkpt lat="50.570980" lon="14.651712">
				<ele>271.000000</ele>
			</trkpt>
			<trkpt lat="50.570774" lon="14.652358">
				<ele>270.000000</ele>
			</trkpt>
		</trkseg>
	</trk>
</gpx>

