<?xml version="1.0" encoding="utf-8"?>
<gpx xmlns="http://www.topografix.com/GPX/1/1" version="1.1" creator="https://mapy.com/">
	<trk>
		<name>Route from Hraniční rybník to Hraniční rybník</name>
		<trkseg>
			<trkpt lat="50.829180" lon="14.565778">
				<ele>501.000000</ele>
			</trkpt>
			<trkpt lat="50.829213" lon="14.565661">
				<ele>502.000000</ele>
			</trkpt>
			<trkpt lat="50.829264" lon="14.565491">
				<ele>503.000000</ele>
			</trkpt>
			<trkpt lat="50.829327" lon="14.565338">
				<ele>505.000000</ele>
			</trkpt>
			<trkpt lat="50.829401" lon="14.565221">
				<ele>506.000000</ele>
			</trkpt>
			<trkpt lat="50.829475" lon="14.565131">
				<ele>507.000000</ele>
			</trkpt>
			<trkpt lat="50.829543" lon="14.565104">
				<ele>508.000000</ele>
			</trkpt>
			<trkpt lat="50.829634" lon="14.565104">
				<ele>510.000000</ele>
			</trkpt>
			<trkpt lat="50.829724" lon="14.565158">
				<ele>511.000000</ele>
			</trkpt>
			<trkpt lat="50.829815" lon="14.565212">
				<ele>512.000000</ele>
			</trkpt>
			<trkpt lat="50.829968" lon="14.565383">
				<ele>513.000000</ele>
			</trkpt>
			<trkpt lat="50.830042" lon="14.565446">
				<ele>514.000000</ele>
			</trkpt>
			<trkpt lat="50.830093" lon="14.565473">
				<ele>515.000000</ele>
			</trkpt>
			<trkpt lat="50.830150" lon="14.565481">
				<ele>515.000000</ele>
			</trkpt>
			<trkpt lat="50.830201" lon="14.565481">
				<ele>516.000000</ele>
			</trkpt>
			<trkpt lat="50.830257" lon="14.565464">
				<ele>517.000000</ele>
			</trkpt>
			<trkpt lat="50.830308" lon="14.565428">
				<ele>517.000000</ele>
			</trkpt>
			<trkpt lat="50.830354" lon="14.565365">
				<ele>518.000000</ele>
			</trkpt>
			<trkpt lat="50.830411" lon="14.565293">
				<ele>519.000000</ele>
			</trkpt>
			<trkpt lat="50.830451" lon="14.565212">
				<ele>520.000000</ele>
			</trkpt>
			<trkpt lat="50.830558" lon="14.564978">
				<ele>521.000000</ele>
			</trkpt>
			<trkpt lat="50.830615" lon="14.564898">
				<ele>522.000000</ele>
			</trkpt>
			<trkpt lat="50.830666" lon="14.564835">
				<ele>523.000000</ele>
			</trkpt>
			<trkpt lat="50.830729" lon="14.564781">
				<ele>523.000000</ele>
			</trkpt>
			<trkpt lat="50.830791" lon="14.564736">
				<ele>524.000000</ele>
			</trkpt>
			<trkpt lat="50.830961" lon="14.564665">
				<ele>526.000000</ele>
			</trkpt>
			<trkpt lat="50.831126" lon="14.564611">
				<ele>528.000000</ele>
			</trkpt>
			<trkpt lat="50.831250" lon="14.564592">
				<ele>529.000000</ele>
			</trkpt>
			<trkpt lat="50.831370" lon="14.564601">
				<ele>530.000000</ele>
			</trkpt>
			<trkpt lat="50.831529" lon="14.564665">
				<ele>531.000000</ele>
			</trkpt>
			<trkpt lat="50.831665" lon="14.564745">
				<ele>531.000000</ele>
			</trkpt>
			<trkpt lat="50.831857" lon="14.564915">
				<ele>532.000000</ele>
			</trkpt>
			<trkpt lat="50.832011" lon="14.565095">
				<ele>533.000000</ele>
			</trkpt>
			<trkpt lat="50.832073" lon="14.565185">
				<ele>533.000000</ele>
			</trkpt>
			<trkpt lat="50.832124" lon="14.565221">
				<ele>534.000000</ele>
			</trkpt>
			<trkpt lat="50.832198" lon="14.565267">
				<ele>534.000000</ele>
			</trkpt>
			<trkpt lat="50.832260" lon="14.565275">
				<ele>534.000000</ele>
			</trkpt>
			<trkpt lat="50.832352" lon="14.565275">
				<ele>535.000000</ele>
			</trkpt>
			<trkpt lat="50.832504" lon="14.565267">
				<ele>535.000000</ele>
			</trkpt>
			<trkpt lat="50.832584" lon="14.565248">
				<ele>536.000000</ele>
			</trkpt>
			<trkpt lat="50.832675" lon="14.565248">
				<ele>536.000000</ele>
			</trkpt>
			<trkpt lat="50.832907" lon="14.565302">
				<ele>537.000000</ele>
			</trkpt>
			<trkpt lat="50.833055" lon="14.565347">
				<ele>538.000000</ele>
			</trkpt>
			<trkpt lat="50.833231" lon="14.565365">
				<ele>538.000000</ele>
			</trkpt>
			<trkpt lat="50.833486" lon="14.565410">
				<ele>540.000000</ele>
			</trkpt>
			<trkpt lat="50.833685" lon="14.565418">
				<ele>540.000000</ele>
			</trkpt>
			<trkpt lat="50.834133" lon="14.565446">
				<ele>540.000000</ele>
			</trkpt>
			<trkpt lat="50.834275" lon="14.565454">
				<ele>540.000000</ele>
			</trkpt>
			<trkpt lat="50.834411" lon="14.565491">
				<ele>540.000000</ele>
			</trkpt>
			<trkpt lat="50.834888" lon="14.565670">
				<ele>536.000000</ele>
			</trkpt>
			<trkpt lat="50.835188" lon="14.565778">
				<ele>535.000000</ele>
			</trkpt>
			<trkpt lat="50.835381" lon="14.565833">
				<ele>535.000000</ele>
			</trkpt>
			<trkpt lat="50.835545" lon="14.565841">
				<ele>535.000000</ele>
			</trkpt>
			<trkpt lat="50.835681" lon="14.565833">
				<ele>535.000000</ele>
			</trkpt>
			<trkpt lat="50.835806" lon="14.565796">
				<ele>535.000000</ele>
			</trkpt>
			<trkpt lat="50.835993" lon="14.565697">
				<ele>535.000000</ele>
			</trkpt>
			<trkpt lat="50.836329" lon="14.565535">
				<ele>535.000000</ele>
			</trkpt>
			<trkpt lat="50.836714" lon="14.565347">
				<ele>535.000000</ele>
			</trkpt>
			<trkpt lat="50.836873" lon="14.565267">
				<ele>535.000000</ele>
			</trkpt>
			<trkpt lat="50.837072" lon="14.565131">
				<ele>536.000000</ele>
			</trkpt>
			<trkpt lat="50.837072" lon="14.565401">
				<ele>535.000000</ele>
			</trkpt>
			<trkpt lat="50.837094" lon="14.565617">
				<ele>535.000000</ele>
			</trkpt>
			<trkpt lat="50.837129" lon="14.565770">
				<ele>535.000000</ele>
			</trkpt>
			<trkpt lat="50.837157" lon="14.565841">
				<ele>535.000000</ele>
			</trkpt>
			<trkpt lat="50.837191" lon="14.565904">
				<ele>535.000000</ele>
			</trkpt>
			<trkpt lat="50.837327" lon="14.566110">
				<ele>535.000000</ele>
			</trkpt>
			<trkpt lat="50.837475" lon="14.566281">
				<ele>536.000000</ele>
			</trkpt>
			<trkpt lat="50.837605" lon="14.566425">
				<ele>537.000000</ele>
			</trkpt>
			<trkpt lat="50.837996" lon="14.566775">
				<ele>539.000000</ele>
			</trkpt>
			<trkpt lat="50.838138" lon="14.566928">
				<ele>540.000000</ele>
			</trkpt>
			<trkpt lat="50.838223" lon="14.567045">
				<ele>541.000000</ele>
			</trkpt>
			<trkpt lat="50.838246" lon="14.567116">
				<ele>541.000000</ele>
			</trkpt>
			<trkpt lat="50.838274" lon="14.567179">
				<ele>542.000000</ele>
			</trkpt>
			<trkpt lat="50.838314" lon="14.567368">
				<ele>543.000000</ele>
			</trkpt>
			<trkpt lat="50.838342" lon="14.567611">
				<ele>544.000000</ele>
			</trkpt>
			<trkpt lat="50.838365" lon="14.567691">
				<ele>545.000000</ele>
			</trkpt>
			<trkpt lat="50.838411" lon="14.567764">
				<ele>545.000000</ele>
			</trkpt>
			<trkpt lat="50.838478" lon="14.567835">
				<ele>546.000000</ele>
			</trkpt>
			<trkpt lat="50.838564" lon="14.567880">
				<ele>547.000000</ele>
			</trkpt>
			<trkpt lat="50.838665" lon="14.567917">
				<ele>547.000000</ele>
			</trkpt>
			<trkpt lat="50.838898" lon="14.567970">
				<ele>548.000000</ele>
			</trkpt>
			<trkpt lat="50.839114" lon="14.568041">
				<ele>549.000000</ele>
			</trkpt>
			<trkpt lat="50.839221" lon="14.568087">
				<ele>549.000000</ele>
			</trkpt>
			<trkpt lat="50.839295" lon="14.568150">
				<ele>549.000000</ele>
			</trkpt>
			<trkpt lat="50.839352" lon="14.568221">
				<ele>549.000000</ele>
			</trkpt>
			<trkpt lat="50.839386" lon="14.568338">
				<ele>550.000000</ele>
			</trkpt>
			<trkpt lat="50.839414" lon="14.568536">
				<ele>550.000000</ele>
			</trkpt>
			<trkpt lat="50.839449" lon="14.568707">
				<ele>551.000000</ele>
			</trkpt>
			<trkpt lat="50.839477" lon="14.568850">
				<ele>552.000000</ele>
			</trkpt>
			<trkpt lat="50.839608" lon="14.569227">
				<ele>554.000000</ele>
			</trkpt>
			<trkpt lat="50.839687" lon="14.569452">
				<ele>555.000000</ele>
			</trkpt>
			<trkpt lat="50.839766" lon="14.569659">
				<ele>556.000000</ele>
			</trkpt>
			<trkpt lat="50.839868" lon="14.569812">
				<ele>556.000000</ele>
			</trkpt>
			<trkpt lat="50.839976" lon="14.569955">
				<ele>556.000000</ele>
			</trkpt>
			<trkpt lat="50.840146" lon="14.570135">
				<ele>557.000000</ele>
			</trkpt>
			<trkpt lat="50.840231" lon="14.570234">
				<ele>557.000000</ele>
			</trkpt>
			<trkpt lat="50.840282" lon="14.570332">
				<ele>557.000000</ele>
			</trkpt>
			<trkpt lat="50.840345" lon="14.570431">
				<ele>557.000000</ele>
			</trkpt>
			<trkpt lat="50.840418" lon="14.570602">
				<ele>558.000000</ele>
			</trkpt>
			<trkpt lat="50.840492" lon="14.570754">
				<ele>558.000000</ele>
			</trkpt>
			<trkpt lat="50.840566" lon="14.570881">
				<ele>558.000000</ele>
			</trkpt>
			<trkpt lat="50.840634" lon="14.570980">
				<ele>559.000000</ele>
			</trkpt>
			<trkpt lat="50.840708" lon="14.571051">
				<ele>559.000000</ele>
			</trkpt>
			<trkpt lat="50.840844" lon="14.571194">
				<ele>559.000000</ele>
			</trkpt>
			<trkpt lat="50.840963" lon="14.571393">
				<ele>560.000000</ele>
			</trkpt>
			<trkpt lat="50.841071" lon="14.571563">
				<ele>560.000000</ele>
			</trkpt>
			<trkpt lat="50.841179" lon="14.571716">
				<ele>561.000000</ele>
			</trkpt>
			<trkpt lat="50.841303" lon="14.571842">
				<ele>563.000000</ele>
			</trkpt>
			<trkpt lat="50.841451" lon="14.571959">
				<ele>564.000000</ele>
			</trkpt>
			<trkpt lat="50.841621" lon="14.572085">
				<ele>566.000000</ele>
			</trkpt>
			<trkpt lat="50.841712" lon="14.572120">
				<ele>566.000000</ele>
			</trkpt>
			<trkpt lat="50.841836" lon="14.572138">
				<ele>567.000000</ele>
			</trkpt>
			<trkpt lat="50.841973" lon="14.572138">
				<ele>568.000000</ele>
			</trkpt>
			<trkpt lat="50.842018" lon="14.572120">
				<ele>569.000000</ele>
			</trkpt>
			<trkpt lat="50.842177" lon="14.572093">
				<ele>567.000000</ele>
			</trkpt>
			<trkpt lat="50.842285" lon="14.572030">
				<ele>566.000000</ele>
			</trkpt>
			<trkpt lat="50.842364" lon="14.571986">
				<ele>565.000000</ele>
			</trkpt>
			<trkpt lat="50.842449" lon="14.571976">
				<ele>564.000000</ele>
			</trkpt>
			<trkpt lat="50.842540" lon="14.571986">
				<ele>562.000000</ele>
			</trkpt>
			<trkpt lat="50.842636" lon="14.572030">
				<ele>561.000000</ele>
			</trkpt>
			<trkpt lat="50.842779" lon="14.571886">
				<ele>557.000000</ele>
			</trkpt>
			<trkpt lat="50.842903" lon="14.571716">
				<ele>554.000000</ele>
			</trkpt>
			<trkpt lat="50.842943" lon="14.571626">
				<ele>553.000000</ele>
			</trkpt>
			<trkpt lat="50.842966" lon="14.571483">
				<ele>552.000000</ele>
			</trkpt>
			<trkpt lat="50.842966" lon="14.571330">
				<ele>551.000000</ele>
			</trkpt>
			<trkpt lat="50.842948" lon="14.571141">
				<ele>550.000000</ele>
			</trkpt>
			<trkpt lat="50.843113" lon="14.571401">
				<ele>548.000000</ele>
			</trkpt>
			<trkpt lat="50.843255" lon="14.571609">
				<ele>546.000000</ele>
			</trkpt>
			<trkpt lat="50.843374" lon="14.571770">
				<ele>545.000000</ele>
			</trkpt>
			<trkpt lat="50.843471" lon="14.571869">
				<ele>546.000000</ele>
			</trkpt>
			<trkpt lat="50.843561" lon="14.571967">
				<ele>547.000000</ele>
			</trkpt>
			<trkpt lat="50.843669" lon="14.572049">
				<ele>548.000000</ele>
			</trkpt>
			<trkpt lat="50.844214" lon="14.572425">
				<ele>552.000000</ele>
			</trkpt>
			<trkpt lat="50.844645" lon="14.572767">
				<ele>555.000000</ele>
			</trkpt>
			<trkpt lat="50.844826" lon="14.572892">
				<ele>555.000000</ele>
			</trkpt>
			<trkpt lat="50.844985" lon="14.573001">
				<ele>555.000000</ele>
			</trkpt>
			<trkpt lat="50.845160" lon="14.573072">
				<ele>555.000000</ele>
			</trkpt>
			<trkpt lat="50.845347" lon="14.573127">
				<ele>555.000000</ele>
			</trkpt>
			<trkpt lat="50.845547" lon="14.573127">
				<ele>555.000000</ele>
			</trkpt>
			<trkpt lat="50.845716" lon="14.573135">
				<ele>555.000000</ele>
			</trkpt>
			<trkpt lat="50.846102" lon="14.573162">
				<ele>555.000000</ele>
			</trkpt>
			<trkpt lat="50.846204" lon="14.573189">
				<ele>555.000000</ele>
			</trkpt>
			<trkpt lat="50.846312" lon="14.573234">
				<ele>555.000000</ele>
			</trkpt>
			<trkpt lat="50.846511" lon="14.573341">
				<ele>555.000000</ele>
			</trkpt>
			<trkpt lat="50.846823" lon="14.573548">
				<ele>555.000000</ele>
			</trkpt>
			<trkpt lat="50.847015" lon="14.573647">
				<ele>555.000000</ele>
			</trkpt>
			<trkpt lat="50.847123" lon="14.573710">
				<ele>555.000000</ele>
			</trkpt>
			<trkpt lat="50.847832" lon="14.573944">
				<ele>555.000000</ele>
			</trkpt>
			<trkpt lat="50.847912" lon="14.573944">
				<ele>555.000000</ele>
			</trkpt>
			<trkpt lat="50.848019" lon="14.573926">
				<ele>555.000000</ele>
			</trkpt>
			<trkpt lat="50.848150" lon="14.573863">
				<ele>555.000000</ele>
			</trkpt>
			<trkpt lat="50.848263" lon="14.573791">
				<ele>555.000000</ele>
			</trkpt>
			<trkpt lat="50.848620" lon="14.573540">
				<ele>555.000000</ele>
			</trkpt>
			<trkpt lat="50.848745" lon="14.573431">
				<ele>555.000000</ele>
			</trkpt>
			<trkpt lat="50.848921" lon="14.573351">
				<ele>555.000000</ele>
			</trkpt>
			<trkpt lat="50.849137" lon="14.573261">
				<ele>555.000000</ele>
			</trkpt>
			<trkpt lat="50.849222" lon="14.573217">
				<ele>556.000000</ele>
			</trkpt>
			<trkpt lat="50.849284" lon="14.573189">
				<ele>558.000000</ele>
			</trkpt>
			<trkpt lat="50.849432" lon="14.573135">
				<ele>560.000000</ele>
			</trkpt>
			<trkpt lat="50.849557" lon="14.573117">
				<ele>561.000000</ele>
			</trkpt>
			<trkpt lat="50.849698" lon="14.573099">
				<ele>563.000000</ele>
			</trkpt>
			<trkpt lat="50.849862" lon="14.573127">
				<ele>565.000000</ele>
			</trkpt>
			<trkpt lat="50.850061" lon="14.573154">
				<ele>567.000000</ele>
			</trkpt>
			<trkpt lat="50.850084" lon="14.572928">
				<ele>570.000000</ele>
			</trkpt>
			<trkpt lat="50.850095" lon="14.572731">
				<ele>573.000000</ele>
			</trkpt>
			<trkpt lat="50.850101" lon="14.572632">
				<ele>574.000000</ele>
			</trkpt>
			<trkpt lat="50.850118" lon="14.572525">
				<ele>575.000000</ele>
			</trkpt>
			<trkpt lat="50.850157" lon="14.572443">
				<ele>577.000000</ele>
			</trkpt>
			<trkpt lat="50.850203" lon="14.572389">
				<ele>578.000000</ele>
			</trkpt>
			<trkpt lat="50.850282" lon="14.572345">
				<ele>579.000000</ele>
			</trkpt>
			<trkpt lat="50.850390" lon="14.572299">
				<ele>581.000000</ele>
			</trkpt>
			<trkpt lat="50.850594" lon="14.572210">
				<ele>583.000000</ele>
			</trkpt>
			<trkpt lat="50.850821" lon="14.572085">
				<ele>587.000000</ele>
			</trkpt>
			<trkpt lat="50.850980" lon="14.571967">
				<ele>591.000000</ele>
			</trkpt>
			<trkpt lat="50.852414" lon="14.570827">
				<ele>630.000000</ele>
			</trkpt>
			<trkpt lat="50.852488" lon="14.570718">
				<ele>631.000000</ele>
			</trkpt>
			<trkpt lat="50.852568" lon="14.570628">
				<ele>632.000000</ele>
			</trkpt>
			<trkpt lat="50.852675" lon="14.570504">
				<ele>633.000000</ele>
			</trkpt>
			<trkpt lat="50.852772" lon="14.570387">
				<ele>633.000000</ele>
			</trkpt>
			<trkpt lat="50.853090" lon="14.569875">
				<ele>637.000000</ele>
			</trkpt>
			<trkpt lat="50.853135" lon="14.569829">
				<ele>638.000000</ele>
			</trkpt>
			<trkpt lat="50.853198" lon="14.569802">
				<ele>639.000000</ele>
			</trkpt>
			<trkpt lat="50.853282" lon="14.569785">
				<ele>639.000000</ele>
			</trkpt>
			<trkpt lat="50.853322" lon="14.569785">
				<ele>640.000000</ele>
			</trkpt>
			<trkpt lat="50.853356" lon="14.569802">
				<ele>640.000000</ele>
			</trkpt>
			<trkpt lat="50.853464" lon="14.569865">
				<ele>642.000000</ele>
			</trkpt>
			<trkpt lat="50.853764" lon="14.570108">
				<ele>645.000000</ele>
			</trkpt>
			<trkpt lat="50.853889" lon="14.570189">
				<ele>646.000000</ele>
			</trkpt>
			<trkpt lat="50.853951" lon="14.570207">
				<ele>647.000000</ele>
			</trkpt>
			<trkpt lat="50.854008" lon="14.570215">
				<ele>647.000000</ele>
			</trkpt>
			<trkpt lat="50.854116" lon="14.570207">
				<ele>648.000000</ele>
			</trkpt>
			<trkpt lat="50.854241" lon="14.570135">
				<ele>649.000000</ele>
			</trkpt>
			<trkpt lat="50.854309" lon="14.570072">
				<ele>650.000000</ele>
			</trkpt>
			<trkpt lat="50.854105" lon="14.570718">
				<ele>650.000000</ele>
			</trkpt>
			<trkpt lat="50.854065" lon="14.570863">
				<ele>650.000000</ele>
			</trkpt>
			<trkpt lat="50.854037" lon="14.571060">
				<ele>650.000000</ele>
			</trkpt>
			<trkpt lat="50.854002" lon="14.571240">
				<ele>650.000000</ele>
			</trkpt>
			<trkpt lat="50.854002" lon="14.571303">
				<ele>650.000000</ele>
			</trkpt>
			<trkpt lat="50.854002" lon="14.571374">
				<ele>650.000000</ele>
			</trkpt>
			<trkpt lat="50.854020" lon="14.571429">
				<ele>650.000000</ele>
			</trkpt>
			<trkpt lat="50.854037" lon="14.571483">
				<ele>650.000000</ele>
			</trkpt>
			<trkpt lat="50.854099" lon="14.571626">
				<ele>650.000000</ele>
			</trkpt>
			<trkpt lat="50.854138" lon="14.571699">
				<ele>650.000000</ele>
			</trkpt>
			<trkpt lat="50.854167" lon="14.571770">
				<ele>650.000000</ele>
			</trkpt>
			<trkpt lat="50.854218" lon="14.571896">
				<ele>650.000000</ele>
			</trkpt>
			<trkpt lat="50.854292" lon="14.572075">
				<ele>649.000000</ele>
			</trkpt>
			<trkpt lat="50.854354" lon="14.572273">
				<ele>648.000000</ele>
			</trkpt>
			<trkpt lat="50.854462" lon="14.572704">
				<ele>646.000000</ele>
			</trkpt>
			<trkpt lat="50.854558" lon="14.573144">
				<ele>642.000000</ele>
			</trkpt>
			<trkpt lat="50.854638" lon="14.573638">
				<ele>636.000000</ele>
			</trkpt>
			<trkpt lat="50.854655" lon="14.573791">
				<ele>635.000000</ele>
			</trkpt>
			<trkpt lat="50.854683" lon="14.573926">
				<ele>635.000000</ele>
			</trkpt>
			<trkpt lat="50.854723" lon="14.574033">
				<ele>634.000000</ele>
			</trkpt>
			<trkpt lat="50.854757" lon="14.574133">
				<ele>634.000000</ele>
			</trkpt>
			<trkpt lat="50.854910" lon="14.574519">
				<ele>633.000000</ele>
			</trkpt>
			<trkpt lat="50.855086" lon="14.574915">
				<ele>632.000000</ele>
			</trkpt>
			<trkpt lat="50.855182" lon="14.575192">
				<ele>631.000000</ele>
			</trkpt>
			<trkpt lat="50.855273" lon="14.575489">
				<ele>630.000000</ele>
			</trkpt>
			<trkpt lat="50.855358" lon="14.575857">
				<ele>630.000000</ele>
			</trkpt>
			<trkpt lat="50.855414" lon="14.576046">
				<ele>630.000000</ele>
			</trkpt>
			<trkpt lat="50.855477" lon="14.576190">
				<ele>630.000000</ele>
			</trkpt>
			<trkpt lat="50.855568" lon="14.576315">
				<ele>630.000000</ele>
			</trkpt>
			<trkpt lat="50.855681" lon="14.576423">
				<ele>630.000000</ele>
			</trkpt>
			<trkpt lat="50.855767" lon="14.576494">
				<ele>630.000000</ele>
			</trkpt>
			<trkpt lat="50.856164" lon="14.576819">
				<ele>628.000000</ele>
			</trkpt>
			<trkpt lat="50.856316" lon="14.576962">
				<ele>627.000000</ele>
			</trkpt>
			<trkpt lat="50.856469" lon="14.577133">
				<ele>627.000000</ele>
			</trkpt>
			<trkpt lat="50.856549" lon="14.577268">
				<ele>626.000000</ele>
			</trkpt>
			<trkpt lat="50.856605" lon="14.577402">
				<ele>626.000000</ele>
			</trkpt>
			<trkpt lat="50.856656" lon="14.577536">
				<ele>625.000000</ele>
			</trkpt>
			<trkpt lat="50.856697" lon="14.577708">
				<ele>625.000000</ele>
			</trkpt>
			<trkpt lat="50.856821" lon="14.578489">
				<ele>617.000000</ele>
			</trkpt>
			<trkpt lat="50.856861" lon="14.579118">
				<ele>614.000000</ele>
			</trkpt>
			<trkpt lat="50.856889" lon="14.579316">
				<ele>613.000000</ele>
			</trkpt>
			<trkpt lat="50.856935" lon="14.579486">
				<ele>613.000000</ele>
			</trkpt>
			<trkpt lat="50.856951" lon="14.579567">
				<ele>612.000000</ele>
			</trkpt>
			<trkpt lat="50.856951" lon="14.579666">
				<ele>612.000000</ele>
			</trkpt>
			<trkpt lat="50.856935" lon="14.579765">
				<ele>612.000000</ele>
			</trkpt>
			<trkpt lat="50.856900" lon="14.579855">
				<ele>612.000000</ele>
			</trkpt>
			<trkpt lat="50.856804" lon="14.580026">
				<ele>611.000000</ele>
			</trkpt>
			<trkpt lat="50.856759" lon="14.580125">
				<ele>610.000000</ele>
			</trkpt>
			<trkpt lat="50.856713" lon="14.580215">
				<ele>611.000000</ele>
			</trkpt>
			<trkpt lat="50.856685" lon="14.580322">
				<ele>612.000000</ele>
			</trkpt>
			<trkpt lat="50.856662" lon="14.580439">
				<ele>613.000000</ele>
			</trkpt>
			<trkpt lat="50.856617" lon="14.580538">
				<ele>613.000000</ele>
			</trkpt>
			<trkpt lat="50.856554" lon="14.580609">
				<ele>614.000000</ele>
			</trkpt>
			<trkpt lat="50.856436" lon="14.580771">
				<ele>615.000000</ele>
			</trkpt>
			<trkpt lat="50.856339" lon="14.580941">
				<ele>617.000000</ele>
			</trkpt>
			<trkpt lat="50.856305" lon="14.581022">
				<ele>618.000000</ele>
			</trkpt>
			<trkpt lat="50.856277" lon="14.581094">
				<ele>618.000000</ele>
			</trkpt>
			<trkpt lat="50.856265" lon="14.581184">
				<ele>619.000000</ele>
			</trkpt>
			<trkpt lat="50.856265" lon="14.581238">
				<ele>619.000000</ele>
			</trkpt>
			<trkpt lat="50.856294" lon="14.581292">
				<ele>620.000000</ele>
			</trkpt>
			<trkpt lat="50.856333" lon="14.581355">
				<ele>620.000000</ele>
			</trkpt>
			<trkpt lat="50.856356" lon="14.581391">
				<ele>621.000000</ele>
			</trkpt>
			<trkpt lat="50.856379" lon="14.581454">
				<ele>621.000000</ele>
			</trkpt>
			<trkpt lat="50.856402" lon="14.581733">
				<ele>623.000000</ele>
			</trkpt>
			<trkpt lat="50.856441" lon="14.581930">
				<ele>624.000000</ele>
			</trkpt>
			<trkpt lat="50.856458" lon="14.582029">
				<ele>625.000000</ele>
			</trkpt>
			<trkpt lat="50.856498" lon="14.582100">
				<ele>625.000000</ele>
			</trkpt>
			<trkpt lat="50.856543" lon="14.582199">
				<ele>626.000000</ele>
			</trkpt>
			<trkpt lat="50.856583" lon="14.582271">
				<ele>627.000000</ele>
			</trkpt>
			<trkpt lat="50.856792" lon="14.582513">
				<ele>630.000000</ele>
			</trkpt>
			<trkpt lat="50.856821" lon="14.582523">
				<ele>631.000000</ele>
			</trkpt>
			<trkpt lat="50.856838" lon="14.582540">
				<ele>631.000000</ele>
			</trkpt>
			<trkpt lat="50.856912" lon="14.582523">
				<ele>633.000000</ele>
			</trkpt>
			<trkpt lat="50.856980" lon="14.582496">
				<ele>634.000000</ele>
			</trkpt>
			<trkpt lat="50.857053" lon="14.582450">
				<ele>636.000000</ele>
			</trkpt>
			<trkpt lat="50.857133" lon="14.582379">
				<ele>638.000000</ele>
			</trkpt>
			<trkpt lat="50.857173" lon="14.582326">
				<ele>638.000000</ele>
			</trkpt>
			<trkpt lat="50.857207" lon="14.582253">
				<ele>640.000000</ele>
			</trkpt>
			<trkpt lat="50.857252" lon="14.582110">
				<ele>641.000000</ele>
			</trkpt>
			<trkpt lat="50.857258" lon="14.582029">
				<ele>642.000000</ele>
			</trkpt>
			<trkpt lat="50.857258" lon="14.581966">
				<ele>643.000000</ele>
			</trkpt>
			<trkpt lat="50.857252" lon="14.581857">
				<ele>644.000000</ele>
			</trkpt>
			<trkpt lat="50.857230" lon="14.581786">
				<ele>646.000000</ele>
			</trkpt>
			<trkpt lat="50.857207" lon="14.581741">
				<ele>647.000000</ele>
			</trkpt>
			<trkpt lat="50.857178" lon="14.581723">
				<ele>648.000000</ele>
			</trkpt>
			<trkpt lat="50.857150" lon="14.581741">
				<ele>650.000000</ele>
			</trkpt>
			<trkpt lat="50.857150" lon="14.581741">
				<ele>650.000000</ele>
			</trkpt>
			<trkpt lat="50.857178" lon="14.581723">
				<ele>648.000000</ele>
			</trkpt>
			<trkpt lat="50.857207" lon="14.581741">
				<ele>647.000000</ele>
			</trkpt>
			<trkpt lat="50.857230" lon="14.581786">
				<ele>646.000000</ele>
			</trkpt>
			<trkpt lat="50.857252" lon="14.581857">
				<ele>644.000000</ele>
			</trkpt>
			<trkpt lat="50.857258" lon="14.581966">
				<ele>643.000000</ele>
			</trkpt>
			<trkpt lat="50.857258" lon="14.582029">
				<ele>642.000000</ele>
			</trkpt>
			<trkpt lat="50.857252" lon="14.582110">
				<ele>641.000000</ele>
			</trkpt>
			<trkpt lat="50.857207" lon="14.582253">
				<ele>640.000000</ele>
			</trkpt>
			<trkpt lat="50.857173" lon="14.582326">
				<ele>638.000000</ele>
			</trkpt>
			<trkpt lat="50.857133" lon="14.582379">
				<ele>638.000000</ele>
			</trkpt>
			<trkpt lat="50.857053" lon="14.582450">
				<ele>636.000000</ele>
			</trkpt>
			<trkpt lat="50.856980" lon="14.582496">
				<ele>634.000000</ele>
			</trkpt>
			<trkpt lat="50.856912" lon="14.582523">
				<ele>633.000000</ele>
			</trkpt>
			<trkpt lat="50.856838" lon="14.582540">
				<ele>631.000000</ele>
			</trkpt>
			<trkpt lat="50.856821" lon="14.582523">
				<ele>631.000000</ele>
			</trkpt>
			<trkpt lat="50.856792" lon="14.582513">
				<ele>630.000000</ele>
			</trkpt>
			<trkpt lat="50.856583" lon="14.582271">
				<ele>627.000000</ele>
			</trkpt>
			<trkpt lat="50.856543" lon="14.582199">
				<ele>626.000000</ele>
			</trkpt>
			<trkpt lat="50.856498" lon="14.582100">
				<ele>625.000000</ele>
			</trkpt>
			<trkpt lat="50.856458" lon="14.582029">
				<ele>625.000000</ele>
			</trkpt>
			<trkpt lat="50.856441" lon="14.581930">
				<ele>624.000000</ele>
			</trkpt>
			<trkpt lat="50.856402" lon="14.581733">
				<ele>623.000000</ele>
			</trkpt>
			<trkpt lat="50.856379" lon="14.581454">
				<ele>621.000000</ele>
			</trkpt>
			<trkpt lat="50.856356" lon="14.581391">
				<ele>621.000000</ele>
			</trkpt>
			<trkpt lat="50.856333" lon="14.581355">
				<ele>620.000000</ele>
			</trkpt>
			<trkpt lat="50.856294" lon="14.581292">
				<ele>620.000000</ele>
			</trkpt>
			<trkpt lat="50.856265" lon="14.581238">
				<ele>619.000000</ele>
			</trkpt>
			<trkpt lat="50.856265" lon="14.581184">
				<ele>619.000000</ele>
			</trkpt>
			<trkpt lat="50.856277" lon="14.581094">
				<ele>618.000000</ele>
			</trkpt>
			<trkpt lat="50.856305" lon="14.581022">
				<ele>618.000000</ele>
			</trkpt>
			<trkpt lat="50.856339" lon="14.580941">
				<ele>617.000000</ele>
			</trkpt>
			<trkpt lat="50.856436" lon="14.580771">
				<ele>615.000000</ele>
			</trkpt>
			<trkpt lat="50.856554" lon="14.580609">
				<ele>614.000000</ele>
			</trkpt>
			<trkpt lat="50.856617" lon="14.580538">
				<ele>613.000000</ele>
			</trkpt>
			<trkpt lat="50.856662" lon="14.580439">
				<ele>613.000000</ele>
			</trkpt>
			<trkpt lat="50.856685" lon="14.580322">
				<ele>612.000000</ele>
			</trkpt>
			<trkpt lat="50.856713" lon="14.580215">
				<ele>611.000000</ele>
			</trkpt>
			<trkpt lat="50.856759" lon="14.580125">
				<ele>610.000000</ele>
			</trkpt>
			<trkpt lat="50.856804" lon="14.580026">
				<ele>611.000000</ele>
			</trkpt>
			<trkpt lat="50.856900" lon="14.579855">
				<ele>612.000000</ele>
			</trkpt>
			<trkpt lat="50.856935" lon="14.579765">
				<ele>612.000000</ele>
			</trkpt>
			<trkpt lat="50.856951" lon="14.579666">
				<ele>612.000000</ele>
			</trkpt>
			<trkpt lat="50.856951" lon="14.579567">
				<ele>612.000000</ele>
			</trkpt>
			<trkpt lat="50.856935" lon="14.579486">
				<ele>613.000000</ele>
			</trkpt>
			<trkpt lat="50.856889" lon="14.579316">
				<ele>613.000000</ele>
			</trkpt>
			<trkpt lat="50.856861" lon="14.579118">
				<ele>614.000000</ele>
			</trkpt>
			<trkpt lat="50.856821" lon="14.578489">
				<ele>617.000000</ele>
			</trkpt>
			<trkpt lat="50.856697" lon="14.577708">
				<ele>625.000000</ele>
			</trkpt>
			<trkpt lat="50.856656" lon="14.577536">
				<ele>625.000000</ele>
			</trkpt>
			<trkpt lat="50.856605" lon="14.577402">
				<ele>626.000000</ele>
			</trkpt>
			<trkpt lat="50.856549" lon="14.577268">
				<ele>626.000000</ele>
			</trkpt>
			<trkpt lat="50.856469" lon="14.577133">
				<ele>627.000000</ele>
			</trkpt>
			<trkpt lat="50.856316" lon="14.576962">
				<ele>627.000000</ele>
			</trkpt>
			<trkpt lat="50.856164" lon="14.576819">
				<ele>628.000000</ele>
			</trkpt>
			<trkpt lat="50.855767" lon="14.576494">
				<ele>630.000000</ele>
			</trkpt>
			<trkpt lat="50.855681" lon="14.576423">
				<ele>630.000000</ele>
			</trkpt>
			<trkpt lat="50.855568" lon="14.576315">
				<ele>630.000000</ele>
			</trkpt>
			<trkpt lat="50.855477" lon="14.576190">
				<ele>630.000000</ele>
			</trkpt>
			<trkpt lat="50.855414" lon="14.576046">
				<ele>630.000000</ele>
			</trkpt>
			<trkpt lat="50.855358" lon="14.575857">
				<ele>630.000000</ele>
			</trkpt>
			<trkpt lat="50.855273" lon="14.575489">
				<ele>630.000000</ele>
			</trkpt>
			<trkpt lat="50.855182" lon="14.575192">
				<ele>631.000000</ele>
			</trkpt>
			<trkpt lat="50.855086" lon="14.574915">
				<ele>632.000000</ele>
			</trkpt>
			<trkpt lat="50.854910" lon="14.574519">
				<ele>633.000000</ele>
			</trkpt>
			<trkpt lat="50.854757" lon="14.574133">
				<ele>634.000000</ele>
			</trkpt>
			<trkpt lat="50.854723" lon="14.574033">
				<ele>634.000000</ele>
			</trkpt>
			<trkpt lat="50.854683" lon="14.573926">
				<ele>635.000000</ele>
			</trkpt>
			<trkpt lat="50.854655" lon="14.573791">
				<ele>635.000000</ele>
			</trkpt>
			<trkpt lat="50.854638" lon="14.573638">
				<ele>636.000000</ele>
			</trkpt>
			<trkpt lat="50.854558" lon="14.573144">
				<ele>642.000000</ele>
			</trkpt>
			<trkpt lat="50.854462" lon="14.572704">
				<ele>646.000000</ele>
			</trkpt>
			<trkpt lat="50.854354" lon="14.572273">
				<ele>648.000000</ele>
			</trkpt>
			<trkpt lat="50.854292" lon="14.572075">
				<ele>649.000000</ele>
			</trkpt>
			<trkpt lat="50.854218" lon="14.571896">
				<ele>650.000000</ele>
			</trkpt>
			<trkpt lat="50.854167" lon="14.571770">
				<ele>650.000000</ele>
			</trkpt>
			<trkpt lat="50.854138" lon="14.571699">
				<ele>650.000000</ele>
			</trkpt>
			<trkpt lat="50.854099" lon="14.571626">
				<ele>650.000000</ele>
			</trkpt>
			<trkpt lat="50.854037" lon="14.571483">
				<ele>650.000000</ele>
			</trkpt>
			<trkpt lat="50.854020" lon="14.571429">
				<ele>650.000000</ele>
			</trkpt>
			<trkpt lat="50.854002" lon="14.571374">
				<ele>650.000000</ele>
			</trkpt>
			<trkpt lat="50.854002" lon="14.571303">
				<ele>650.000000</ele>
			</trkpt>
			<trkpt lat="50.854002" lon="14.571240">
				<ele>650.000000</ele>
			</trkpt>
			<trkpt lat="50.854037" lon="14.571060">
				<ele>650.000000</ele>
			</trkpt>
			<trkpt lat="50.854065" lon="14.570863">
				<ele>650.000000</ele>
			</trkpt>
			<trkpt lat="50.854105" lon="14.570718">
				<ele>650.000000</ele>
			</trkpt>
			<trkpt lat="50.854309" lon="14.570072">
				<ele>650.000000</ele>
			</trkpt>
			<trkpt lat="50.854615" lon="14.569290">
				<ele>655.000000</ele>
			</trkpt>
			<trkpt lat="50.854745" lon="14.568976">
				<ele>658.000000</ele>
			</trkpt>
			<trkpt lat="50.854830" lon="14.568787">
				<ele>660.000000</ele>
			</trkpt>
			<trkpt lat="50.854893" lon="14.568617">
				<ele>661.000000</ele>
			</trkpt>
			<trkpt lat="50.854955" lon="14.568420">
				<ele>662.000000</ele>
			</trkpt>
			<trkpt lat="50.855058" lon="14.568024">
				<ele>664.000000</ele>
			</trkpt>
			<trkpt lat="50.855182" lon="14.567242">
				<ele>668.000000</ele>
			</trkpt>
			<trkpt lat="50.855341" lon="14.566326">
				<ele>673.000000</ele>
			</trkpt>
			<trkpt lat="50.855500" lon="14.565418">
				<ele>678.000000</ele>
			</trkpt>
			<trkpt lat="50.855506" lon="14.565302">
				<ele>679.000000</ele>
			</trkpt>
			<trkpt lat="50.855506" lon="14.565177">
				<ele>679.000000</ele>
			</trkpt>
			<trkpt lat="50.855477" lon="14.565059">
				<ele>680.000000</ele>
			</trkpt>
			<trkpt lat="50.855443" lon="14.564961">
				<ele>680.000000</ele>
			</trkpt>
			<trkpt lat="50.855409" lon="14.564898">
				<ele>680.000000</ele>
			</trkpt>
			<trkpt lat="50.855352" lon="14.564825">
				<ele>680.000000</ele>
			</trkpt>
			<trkpt lat="50.855245" lon="14.564709">
				<ele>681.000000</ele>
			</trkpt>
			<trkpt lat="50.855142" lon="14.564583">
				<ele>681.000000</ele>
			</trkpt>
			<trkpt lat="50.855058" lon="14.564458">
				<ele>681.000000</ele>
			</trkpt>
			<trkpt lat="50.854967" lon="14.564305">
				<ele>681.000000</ele>
			</trkpt>
			<trkpt lat="50.854530" lon="14.563470">
				<ele>683.000000</ele>
			</trkpt>
			<trkpt lat="50.854484" lon="14.563370">
				<ele>683.000000</ele>
			</trkpt>
			<trkpt lat="50.854445" lon="14.563254">
				<ele>683.000000</ele>
			</trkpt>
			<trkpt lat="50.854428" lon="14.563137">
				<ele>683.000000</ele>
			</trkpt>
			<trkpt lat="50.854400" lon="14.562940">
				<ele>684.000000</ele>
			</trkpt>
			<trkpt lat="50.854371" lon="14.562643">
				<ele>684.000000</ele>
			</trkpt>
			<trkpt lat="50.854371" lon="14.562517">
				<ele>684.000000</ele>
			</trkpt>
			<trkpt lat="50.854383" lon="14.562391">
				<ele>684.000000</ele>
			</trkpt>
			<trkpt lat="50.854428" lon="14.562104">
				<ele>685.000000</ele>
			</trkpt>
			<trkpt lat="50.854525" lon="14.561592">
				<ele>689.000000</ele>
			</trkpt>
			<trkpt lat="50.854564" lon="14.561269">
				<ele>692.000000</ele>
			</trkpt>
			<trkpt lat="50.854592" lon="14.560954">
				<ele>696.000000</ele>
			</trkpt>
			<trkpt lat="50.854592" lon="14.560594">
				<ele>700.000000</ele>
			</trkpt>
			<trkpt lat="50.854581" lon="14.560415">
				<ele>702.000000</ele>
			</trkpt>
			<trkpt lat="50.854541" lon="14.559938">
				<ele>705.000000</ele>
			</trkpt>
			<trkpt lat="50.854541" lon="14.559732">
				<ele>707.000000</ele>
			</trkpt>
			<trkpt lat="50.854558" lon="14.559598">
				<ele>708.000000</ele>
			</trkpt>
			<trkpt lat="50.854576" lon="14.559472">
				<ele>709.000000</ele>
			</trkpt>
			<trkpt lat="50.854615" lon="14.559364">
				<ele>710.000000</ele>
			</trkpt>
			<trkpt lat="50.854655" lon="14.559256">
				<ele>711.000000</ele>
			</trkpt>
			<trkpt lat="50.854995" lon="14.558520">
				<ele>722.000000</ele>
			</trkpt>
			<trkpt lat="50.855097" lon="14.558322">
				<ele>725.000000</ele>
			</trkpt>
			<trkpt lat="50.855182" lon="14.558179">
				<ele>727.000000</ele>
			</trkpt>
			<trkpt lat="50.855301" lon="14.558007">
				<ele>730.000000</ele>
			</trkpt>
			<trkpt lat="50.855409" lon="14.557891">
				<ele>733.000000</ele>
			</trkpt>
			<trkpt lat="50.855522" lon="14.557774">
				<ele>736.000000</ele>
			</trkpt>
			<trkpt lat="50.855647" lon="14.557684">
				<ele>739.000000</ele>
			</trkpt>
			<trkpt lat="50.855903" lon="14.557567">
				<ele>742.000000</ele>
			</trkpt>
			<trkpt lat="50.856010" lon="14.557541">
				<ele>744.000000</ele>
			</trkpt>
			<trkpt lat="50.856078" lon="14.557541">
				<ele>745.000000</ele>
			</trkpt>
			<trkpt lat="50.856123" lon="14.557558">
				<ele>745.000000</ele>
			</trkpt>
			<trkpt lat="50.856164" lon="14.557585">
				<ele>746.000000</ele>
			</trkpt>
			<trkpt lat="50.856192" lon="14.557640">
				<ele>748.000000</ele>
			</trkpt>
			<trkpt lat="50.856192" lon="14.557693">
				<ele>748.000000</ele>
			</trkpt>
			<trkpt lat="50.856192" lon="14.557730">
				<ele>749.000000</ele>
			</trkpt>
			<trkpt lat="50.856152" lon="14.557801">
				<ele>750.000000</ele>
			</trkpt>
			<trkpt lat="50.856090" lon="14.557909">
				<ele>752.000000</ele>
			</trkpt>
			<trkpt lat="50.856067" lon="14.557999">
				<ele>753.000000</ele>
			</trkpt>
			<trkpt lat="50.856056" lon="14.558070">
				<ele>754.000000</ele>
			</trkpt>
			<trkpt lat="50.856067" lon="14.558107">
				<ele>754.000000</ele>
			</trkpt>
			<trkpt lat="50.856090" lon="14.558151">
				<ele>755.000000</ele>
			</trkpt>
			<trkpt lat="50.856129" lon="14.558196">
				<ele>756.000000</ele>
			</trkpt>
			<trkpt lat="50.856311" lon="14.558304">
				<ele>761.000000</ele>
			</trkpt>
			<trkpt lat="50.856362" lon="14.558349">
				<ele>762.000000</ele>
			</trkpt>
			<trkpt lat="50.856407" lon="14.558430">
				<ele>763.000000</ele>
			</trkpt>
			<trkpt lat="50.856424" lon="14.558475">
				<ele>763.000000</ele>
			</trkpt>
			<trkpt lat="50.856436" lon="14.558520">
				<ele>764.000000</ele>
			</trkpt>
			<trkpt lat="50.856424" lon="14.558592">
				<ele>765.000000</ele>
			</trkpt>
			<trkpt lat="50.856407" lon="14.558646">
				<ele>765.000000</ele>
			</trkpt>
			<trkpt lat="50.856311" lon="14.558862">
				<ele>770.000000</ele>
			</trkpt>
			<trkpt lat="50.856277" lon="14.558959">
				<ele>770.000000</ele>
			</trkpt>
			<trkpt lat="50.856265" lon="14.559076">
				<ele>771.000000</ele>
			</trkpt>
			<trkpt lat="50.856277" lon="14.559185">
				<ele>771.000000</ele>
			</trkpt>
			<trkpt lat="50.856305" lon="14.559301">
				<ele>771.000000</ele>
			</trkpt>
			<trkpt lat="50.856458" lon="14.559741">
				<ele>773.000000</ele>
			</trkpt>
			<trkpt lat="50.856532" lon="14.559957">
				<ele>774.000000</ele>
			</trkpt>
			<trkpt lat="50.856538" lon="14.560020">
				<ele>774.000000</ele>
			</trkpt>
			<trkpt lat="50.856560" lon="14.560091">
				<ele>774.000000</ele>
			</trkpt>
			<trkpt lat="50.856583" lon="14.560164">
				<ele>775.000000</ele>
			</trkpt>
			<trkpt lat="50.856628" lon="14.560235">
				<ele>775.000000</ele>
			</trkpt>
			<trkpt lat="50.856697" lon="14.560317">
				<ele>775.000000</ele>
			</trkpt>
			<trkpt lat="50.856776" lon="14.560433">
				<ele>775.000000</ele>
			</trkpt>
			<trkpt lat="50.856776" lon="14.560433">
				<ele>775.000000</ele>
			</trkpt>
			<trkpt lat="50.856776" lon="14.560433">
				<ele>775.000000</ele>
			</trkpt>
			<trkpt lat="50.856776" lon="14.560433">
				<ele>775.000000</ele>
			</trkpt>
			<trkpt lat="50.856697" lon="14.560317">
				<ele>775.000000</ele>
			</trkpt>
			<trkpt lat="50.856628" lon="14.560235">
				<ele>775.000000</ele>
			</trkpt>
			<trkpt lat="50.856583" lon="14.560164">
				<ele>775.000000</ele>
			</trkpt>
			<trkpt lat="50.856560" lon="14.560091">
				<ele>774.000000</ele>
			</trkpt>
			<trkpt lat="50.856538" lon="14.560020">
				<ele>774.000000</ele>
			</trkpt>
			<trkpt lat="50.856532" lon="14.559957">
				<ele>774.000000</ele>
			</trkpt>
			<trkpt lat="50.856458" lon="14.559741">
				<ele>773.000000</ele>
			</trkpt>
			<trkpt lat="50.856305" lon="14.559301">
				<ele>771.000000</ele>
			</trkpt>
			<trkpt lat="50.856277" lon="14.559185">
				<ele>771.000000</ele>
			</trkpt>
			<trkpt lat="50.856265" lon="14.559076">
				<ele>771.000000</ele>
			</trkpt>
			<trkpt lat="50.856277" lon="14.558959">
				<ele>770.000000</ele>
			</trkpt>
			<trkpt lat="50.856311" lon="14.558862">
				<ele>770.000000</ele>
			</trkpt>
			<trkpt lat="50.856407" lon="14.558646">
				<ele>765.000000</ele>
			</trkpt>
			<trkpt lat="50.856424" lon="14.558592">
				<ele>765.000000</ele>
			</trkpt>
			<trkpt lat="50.856436" lon="14.558520">
				<ele>764.000000</ele>
			</trkpt>
			<trkpt lat="50.856424" lon="14.558475">
				<ele>763.000000</ele>
			</trkpt>
			<trkpt lat="50.856407" lon="14.558430">
				<ele>763.000000</ele>
			</trkpt>
			<trkpt lat="50.856362" lon="14.558349">
				<ele>762.000000</ele>
			</trkpt>
			<trkpt lat="50.856311" lon="14.558304">
				<ele>761.000000</ele>
			</trkpt>
			<trkpt lat="50.856129" lon="14.558196">
				<ele>756.000000</ele>
			</trkpt>
			<trkpt lat="50.856090" lon="14.558151">
				<ele>755.000000</ele>
			</trkpt>
			<trkpt lat="50.856067" lon="14.558107">
				<ele>754.000000</ele>
			</trkpt>
			<trkpt lat="50.856056" lon="14.558070">
				<ele>754.000000</ele>
			</trkpt>
			<trkpt lat="50.856067" lon="14.557999">
				<ele>753.000000</ele>
			</trkpt>
			<trkpt lat="50.856090" lon="14.557909">
				<ele>752.000000</ele>
			</trkpt>
			<trkpt lat="50.856152" lon="14.557801">
				<ele>750.000000</ele>
			</trkpt>
			<trkpt lat="50.856192" lon="14.557730">
				<ele>749.000000</ele>
			</trkpt>
			<trkpt lat="50.856192" lon="14.557693">
				<ele>748.000000</ele>
			</trkpt>
			<trkpt lat="50.856192" lon="14.557640">
				<ele>748.000000</ele>
			</trkpt>
			<trkpt lat="50.856164" lon="14.557585">
				<ele>746.000000</ele>
			</trkpt>
			<trkpt lat="50.856123" lon="14.557558">
				<ele>745.000000</ele>
			</trkpt>
			<trkpt lat="50.856078" lon="14.557541">
				<ele>745.000000</ele>
			</trkpt>
			<trkpt lat="50.856010" lon="14.557541">
				<ele>744.000000</ele>
			</trkpt>
			<trkpt lat="50.855903" lon="14.557567">
				<ele>742.000000</ele>
			</trkpt>
			<trkpt lat="50.855647" lon="14.557684">
				<ele>739.000000</ele>
			</trkpt>
			<trkpt lat="50.855817" lon="14.557199">
				<ele>733.000000</ele>
			</trkpt>
			<trkpt lat="50.855897" lon="14.557019">
				<ele>731.000000</ele>
			</trkpt>
			<trkpt lat="50.855942" lon="14.556921">
				<ele>729.000000</ele>
			</trkpt>
			<trkpt lat="50.855999" lon="14.556849">
				<ele>729.000000</ele>
			</trkpt>
			<trkpt lat="50.856067" lon="14.556759">
				<ele>727.000000</ele>
			</trkpt>
			<trkpt lat="50.856152" lon="14.556688">
				<ele>726.000000</ele>
			</trkpt>
			<trkpt lat="50.856328" lon="14.556535">
				<ele>725.000000</ele>
			</trkpt>
			<trkpt lat="50.856436" lon="14.556462">
				<ele>724.000000</ele>
			</trkpt>
			<trkpt lat="50.856560" lon="14.556426">
				<ele>724.000000</ele>
			</trkpt>
			<trkpt lat="50.856623" lon="14.556418">
				<ele>724.000000</ele>
			</trkpt>
			<trkpt lat="50.856697" lon="14.556426">
				<ele>723.000000</ele>
			</trkpt>
			<trkpt lat="50.856804" lon="14.556472">
				<ele>723.000000</ele>
			</trkpt>
			<trkpt lat="50.856951" lon="14.556579">
				<ele>722.000000</ele>
			</trkpt>
			<trkpt lat="50.857240" lon="14.556849">
				<ele>721.000000</ele>
			</trkpt>
			<trkpt lat="50.857439" lon="14.557074">
				<ele>720.000000</ele>
			</trkpt>
			<trkpt lat="50.857626" lon="14.557325">
				<ele>721.000000</ele>
			</trkpt>
			<trkpt lat="50.857842" lon="14.557693">
				<ele>721.000000</ele>
			</trkpt>
			<trkpt lat="50.858085" lon="14.558107">
				<ele>722.000000</ele>
			</trkpt>
			<trkpt lat="50.858188" lon="14.558304">
				<ele>723.000000</ele>
			</trkpt>
			<trkpt lat="50.858267" lon="14.558520">
				<ele>723.000000</ele>
			</trkpt>
			<trkpt lat="50.858307" lon="14.558646">
				<ele>723.000000</ele>
			</trkpt>
			<trkpt lat="50.858335" lon="14.558789">
				<ele>724.000000</ele>
			</trkpt>
			<trkpt lat="50.858364" lon="14.558986">
				<ele>724.000000</ele>
			</trkpt>
			<trkpt lat="50.858380" lon="14.559166">
				<ele>724.000000</ele>
			</trkpt>
			<trkpt lat="50.858403" lon="14.559904">
				<ele>725.000000</ele>
			</trkpt>
			<trkpt lat="50.858409" lon="14.560118">
				<ele>725.000000</ele>
			</trkpt>
			<trkpt lat="50.858409" lon="14.560317">
				<ele>723.000000</ele>
			</trkpt>
			<trkpt lat="50.858403" lon="14.560504">
				<ele>722.000000</ele>
			</trkpt>
			<trkpt lat="50.858386" lon="14.560676">
				<ele>721.000000</ele>
			</trkpt>
			<trkpt lat="50.858358" lon="14.560873">
				<ele>719.000000</ele>
			</trkpt>
			<trkpt lat="50.858324" lon="14.561062">
				<ele>717.000000</ele>
			</trkpt>
			<trkpt lat="50.858273" lon="14.561286">
				<ele>715.000000</ele>
			</trkpt>
			<trkpt lat="50.858199" lon="14.561546">
				<ele>712.000000</ele>
			</trkpt>
			<trkpt lat="50.858154" lon="14.561718">
				<ele>711.000000</ele>
			</trkpt>
			<trkpt lat="50.858137" lon="14.561898">
				<ele>708.000000</ele>
			</trkpt>
			<trkpt lat="50.858120" lon="14.562068">
				<ele>706.000000</ele>
			</trkpt>
			<trkpt lat="50.858114" lon="14.562409">
				<ele>701.000000</ele>
			</trkpt>
			<trkpt lat="50.858358" lon="14.562877">
				<ele>688.000000</ele>
			</trkpt>
			<trkpt lat="50.858415" lon="14.562957">
				<ele>686.000000</ele>
			</trkpt>
			<trkpt lat="50.858466" lon="14.563030">
				<ele>684.000000</ele>
			</trkpt>
			<trkpt lat="50.858556" lon="14.563101">
				<ele>682.000000</ele>
			</trkpt>
			<trkpt lat="50.858675" lon="14.563154">
				<ele>679.000000</ele>
			</trkpt>
			<trkpt lat="50.858897" lon="14.563254">
				<ele>674.000000</ele>
			</trkpt>
			<trkpt lat="50.859151" lon="14.563370">
				<ele>668.000000</ele>
			</trkpt>
			<trkpt lat="50.859231" lon="14.563397">
				<ele>666.000000</ele>
			</trkpt>
			<trkpt lat="50.859412" lon="14.563407">
				<ele>662.000000</ele>
			</trkpt>
			<trkpt lat="50.859504" lon="14.563460">
				<ele>659.000000</ele>
			</trkpt>
			<trkpt lat="50.859611" lon="14.563550">
				<ele>656.000000</ele>
			</trkpt>
			<trkpt lat="50.859707" lon="14.563649">
				<ele>653.000000</ele>
			</trkpt>
			<trkpt lat="50.859945" lon="14.563955">
				<ele>646.000000</ele>
			</trkpt>
			<trkpt lat="50.860053" lon="14.564099">
				<ele>642.000000</ele>
			</trkpt>
			<trkpt lat="50.860110" lon="14.564170">
				<ele>641.000000</ele>
			</trkpt>
			<trkpt lat="50.860155" lon="14.564242">
				<ele>639.000000</ele>
			</trkpt>
			<trkpt lat="50.860337" lon="14.564592">
				<ele>633.000000</ele>
			</trkpt>
			<trkpt lat="50.860462" lon="14.564791">
				<ele>631.000000</ele>
			</trkpt>
			<trkpt lat="50.860768" lon="14.565230">
				<ele>624.000000</ele>
			</trkpt>
			<trkpt lat="50.860859" lon="14.565383">
				<ele>621.000000</ele>
			</trkpt>
			<trkpt lat="50.860938" lon="14.565535">
				<ele>620.000000</ele>
			</trkpt>
			<trkpt lat="50.861171" lon="14.565293">
				<ele>618.000000</ele>
			</trkpt>
			<trkpt lat="50.861397" lon="14.565032">
				<ele>616.000000</ele>
			</trkpt>
			<trkpt lat="50.861460" lon="14.564952">
				<ele>616.000000</ele>
			</trkpt>
			<trkpt lat="50.861533" lon="14.564825">
				<ele>615.000000</ele>
			</trkpt>
			<trkpt lat="50.861573" lon="14.564709">
				<ele>615.000000</ele>
			</trkpt>
			<trkpt lat="50.861612" lon="14.564611">
				<ele>614.000000</ele>
			</trkpt>
			<trkpt lat="50.861635" lon="14.564493">
				<ele>614.000000</ele>
			</trkpt>
			<trkpt lat="50.861663" lon="14.564349">
				<ele>613.000000</ele>
			</trkpt>
			<trkpt lat="50.861726" lon="14.563963">
				<ele>612.000000</ele>
			</trkpt>
			<trkpt lat="50.861817" lon="14.563541">
				<ele>611.000000</ele>
			</trkpt>
			<trkpt lat="50.861913" lon="14.563110">
				<ele>609.000000</ele>
			</trkpt>
			<trkpt lat="50.862015" lon="14.562670">
				<ele>607.000000</ele>
			</trkpt>
			<trkpt lat="50.862078" lon="14.562328">
				<ele>606.000000</ele>
			</trkpt>
			<trkpt lat="50.862185" lon="14.561871">
				<ele>604.000000</ele>
			</trkpt>
			<trkpt lat="50.862214" lon="14.561745">
				<ele>603.000000</ele>
			</trkpt>
			<trkpt lat="50.862236" lon="14.561475">
				<ele>602.000000</ele>
			</trkpt>
			<trkpt lat="50.862236" lon="14.561349">
				<ele>602.000000</ele>
			</trkpt>
			<trkpt lat="50.862208" lon="14.561053">
				<ele>602.000000</ele>
			</trkpt>
			<trkpt lat="50.862196" lon="14.560649">
				<ele>602.000000</ele>
			</trkpt>
			<trkpt lat="50.862180" lon="14.560451">
				<ele>602.000000</ele>
			</trkpt>
			<trkpt lat="50.862162" lon="14.560343">
				<ele>601.000000</ele>
			</trkpt>
			<trkpt lat="50.862123" lon="14.560200">
				<ele>601.000000</ele>
			</trkpt>
			<trkpt lat="50.862072" lon="14.559930">
				<ele>601.000000</ele>
			</trkpt>
			<trkpt lat="50.862004" lon="14.559472">
				<ele>601.000000</ele>
			</trkpt>
			<trkpt lat="50.861958" lon="14.559221">
				<ele>601.000000</ele>
			</trkpt>
			<trkpt lat="50.861913" lon="14.559005">
				<ele>601.000000</ele>
			</trkpt>
			<trkpt lat="50.861850" lon="14.558807">
				<ele>601.000000</ele>
			</trkpt>
			<trkpt lat="50.861760" lon="14.558583">
				<ele>601.000000</ele>
			</trkpt>
			<trkpt lat="50.861607" lon="14.558233">
				<ele>601.000000</ele>
			</trkpt>
			<trkpt lat="50.861505" lon="14.557927">
				<ele>601.000000</ele>
			</trkpt>
			<trkpt lat="50.861448" lon="14.557801">
				<ele>601.000000</ele>
			</trkpt>
			<trkpt lat="50.861397" lon="14.557693">
				<ele>601.000000</ele>
			</trkpt>
			<trkpt lat="50.861323" lon="14.557577">
				<ele>601.000000</ele>
			</trkpt>
			<trkpt lat="50.861187" lon="14.557397">
				<ele>601.000000</ele>
			</trkpt>
			<trkpt lat="50.861097" lon="14.557271">
				<ele>601.000000</ele>
			</trkpt>
			<trkpt lat="50.861051" lon="14.557181">
				<ele>601.000000</ele>
			</trkpt>
			<trkpt lat="50.861023" lon="14.557064">
				<ele>601.000000</ele>
			</trkpt>
			<trkpt lat="50.861006" lon="14.556938">
				<ele>601.000000</ele>
			</trkpt>
			<trkpt lat="50.860977" lon="14.556812">
				<ele>600.000000</ele>
			</trkpt>
			<trkpt lat="50.860943" lon="14.556714">
				<ele>600.000000</ele>
			</trkpt>
			<trkpt lat="50.860887" lon="14.556615">
				<ele>600.000000</ele>
			</trkpt>
			<trkpt lat="50.860762" lon="14.556399">
				<ele>600.000000</ele>
			</trkpt>
			<trkpt lat="50.860580" lon="14.556076">
				<ele>600.000000</ele>
			</trkpt>
			<trkpt lat="50.860337" lon="14.555583">
				<ele>600.000000</ele>
			</trkpt>
			<trkpt lat="50.860110" lon="14.555133">
				<ele>599.000000</ele>
			</trkpt>
			<trkpt lat="50.860031" lon="14.555007">
				<ele>599.000000</ele>
			</trkpt>
			<trkpt lat="50.859940" lon="14.554873">
				<ele>599.000000</ele>
			</trkpt>
			<trkpt lat="50.859339" lon="14.554118">
				<ele>596.000000</ele>
			</trkpt>
			<trkpt lat="50.858942" lon="14.553562">
				<ele>594.000000</ele>
			</trkpt>
			<trkpt lat="50.858573" lon="14.553175">
				<ele>594.000000</ele>
			</trkpt>
			<trkpt lat="50.858567" lon="14.553166">
				<ele>595.000000</ele>
			</trkpt>
			<trkpt lat="50.858567" lon="14.553166">
				<ele>595.000000</ele>
			</trkpt>
			<trkpt lat="50.858449" lon="14.553040">
				<ele>595.000000</ele>
			</trkpt>
			<trkpt lat="50.858318" lon="14.552941">
				<ele>595.000000</ele>
			</trkpt>
			<trkpt lat="50.858193" lon="14.552879">
				<ele>595.000000</ele>
			</trkpt>
			<trkpt lat="50.857944" lon="14.552734">
				<ele>595.000000</ele>
			</trkpt>
			<trkpt lat="50.857932" lon="14.552734">
				<ele>595.000000</ele>
			</trkpt>
			<trkpt lat="50.857814" lon="14.552699">
				<ele>595.000000</ele>
			</trkpt>
			<trkpt lat="50.857717" lon="14.552654">
				<ele>595.000000</ele>
			</trkpt>
			<trkpt lat="50.857615" lon="14.552600">
				<ele>595.000000</ele>
			</trkpt>
			<trkpt lat="50.857501" lon="14.552501">
				<ele>595.000000</ele>
			</trkpt>
			<trkpt lat="50.857088" lon="14.552160">
				<ele>593.000000</ele>
			</trkpt>
			<trkpt lat="50.857031" lon="14.552105">
				<ele>593.000000</ele>
			</trkpt>
			<trkpt lat="50.856980" lon="14.552078">
				<ele>593.000000</ele>
			</trkpt>
			<trkpt lat="50.856923" lon="14.552061">
				<ele>593.000000</ele>
			</trkpt>
			<trkpt lat="50.856872" lon="14.552061">
				<ele>593.000000</ele>
			</trkpt>
			<trkpt lat="50.856679" lon="14.552070">
				<ele>592.000000</ele>
			</trkpt>
			<trkpt lat="50.856600" lon="14.552043">
				<ele>592.000000</ele>
			</trkpt>
			<trkpt lat="50.856520" lon="14.551998">
				<ele>592.000000</ele>
			</trkpt>
			<trkpt lat="50.856373" lon="14.551927">
				<ele>591.000000</ele>
			</trkpt>
			<trkpt lat="50.856277" lon="14.551854">
				<ele>591.000000</ele>
			</trkpt>
			<trkpt lat="50.856169" lon="14.551791">
				<ele>591.000000</ele>
			</trkpt>
			<trkpt lat="50.856050" lon="14.551747">
				<ele>591.000000</ele>
			</trkpt>
			<trkpt lat="50.855862" lon="14.551675">
				<ele>590.000000</ele>
			</trkpt>
			<trkpt lat="50.855670" lon="14.551567">
				<ele>589.000000</ele>
			</trkpt>
			<trkpt lat="50.855517" lon="14.551451">
				<ele>589.000000</ele>
			</trkpt>
			<trkpt lat="50.855029" lon="14.551126">
				<ele>587.000000</ele>
			</trkpt>
			<trkpt lat="50.854814" lon="14.550965">
				<ele>586.000000</ele>
			</trkpt>
			<trkpt lat="50.854479" lon="14.550677">
				<ele>583.000000</ele>
			</trkpt>
			<trkpt lat="50.854235" lon="14.550552">
				<ele>582.000000</ele>
			</trkpt>
			<trkpt lat="50.854122" lon="14.550516">
				<ele>582.000000</ele>
			</trkpt>
			<trkpt lat="50.854014" lon="14.550489">
				<ele>582.000000</ele>
			</trkpt>
			<trkpt lat="50.853906" lon="14.550470">
				<ele>582.000000</ele>
			</trkpt>
			<trkpt lat="50.853798" lon="14.550462">
				<ele>582.000000</ele>
			</trkpt>
			<trkpt lat="50.853543" lon="14.550489">
				<ele>581.000000</ele>
			</trkpt>
			<trkpt lat="50.853418" lon="14.550525">
				<ele>581.000000</ele>
			</trkpt>
			<trkpt lat="50.853129" lon="14.550596">
				<ele>581.000000</ele>
			</trkpt>
			<trkpt lat="50.852653" lon="14.550759">
				<ele>579.000000</ele>
			</trkpt>
			<trkpt lat="50.852460" lon="14.550812">
				<ele>578.000000</ele>
			</trkpt>
			<trkpt lat="50.852268" lon="14.550848">
				<ele>577.000000</ele>
			</trkpt>
			<trkpt lat="50.851785" lon="14.550893">
				<ele>575.000000</ele>
			</trkpt>
			<trkpt lat="50.851218" lon="14.551738">
				<ele>575.000000</ele>
			</trkpt>
			<trkpt lat="50.851031" lon="14.552034">
				<ele>575.000000</ele>
			</trkpt>
			<trkpt lat="50.850861" lon="14.552321">
				<ele>575.000000</ele>
			</trkpt>
			<trkpt lat="50.850747" lon="14.552546">
				<ele>575.000000</ele>
			</trkpt>
			<trkpt lat="50.850651" lon="14.552753">
				<ele>575.000000</ele>
			</trkpt>
			<trkpt lat="50.850577" lon="14.552950">
				<ele>575.000000</ele>
			</trkpt>
			<trkpt lat="50.850509" lon="14.553202">
				<ele>575.000000</ele>
			</trkpt>
			<trkpt lat="50.850487" lon="14.553265">
				<ele>575.000000</ele>
			</trkpt>
			<trkpt lat="50.850401" lon="14.553579">
				<ele>575.000000</ele>
			</trkpt>
			<trkpt lat="50.850356" lon="14.553732">
				<ele>575.000000</ele>
			</trkpt>
			<trkpt lat="50.850293" lon="14.553858">
				<ele>575.000000</ele>
			</trkpt>
			<trkpt lat="50.850220" lon="14.553992">
				<ele>575.000000</ele>
			</trkpt>
			<trkpt lat="50.850061" lon="14.554190">
				<ele>575.000000</ele>
			</trkpt>
			<trkpt lat="50.849846" lon="14.554405">
				<ele>575.000000</ele>
			</trkpt>
			<trkpt lat="50.849795" lon="14.554459">
				<ele>575.000000</ele>
			</trkpt>
			<trkpt lat="50.849693" lon="14.554522">
				<ele>575.000000</ele>
			</trkpt>
			<trkpt lat="50.849522" lon="14.554594">
				<ele>575.000000</ele>
			</trkpt>
			<trkpt lat="50.849341" lon="14.554648">
				<ele>575.000000</ele>
			</trkpt>
			<trkpt lat="50.849227" lon="14.554693">
				<ele>575.000000</ele>
			</trkpt>
			<trkpt lat="50.849137" lon="14.554738">
				<ele>575.000000</ele>
			</trkpt>
			<trkpt lat="50.849057" lon="14.554810">
				<ele>575.000000</ele>
			</trkpt>
			<trkpt lat="50.848978" lon="14.554900">
				<ele>575.000000</ele>
			</trkpt>
			<trkpt lat="50.848921" lon="14.554980">
				<ele>575.000000</ele>
			</trkpt>
			<trkpt lat="50.848870" lon="14.555106">
				<ele>574.000000</ele>
			</trkpt>
			<trkpt lat="50.848830" lon="14.555241">
				<ele>574.000000</ele>
			</trkpt>
			<trkpt lat="50.848683" lon="14.555969">
				<ele>571.000000</ele>
			</trkpt>
			<trkpt lat="50.848592" lon="14.556481">
				<ele>570.000000</ele>
			</trkpt>
			<trkpt lat="50.848524" lon="14.557001">
				<ele>568.000000</ele>
			</trkpt>
			<trkpt lat="50.848462" lon="14.557613">
				<ele>566.000000</ele>
			</trkpt>
			<trkpt lat="50.848439" lon="14.557971">
				<ele>564.000000</ele>
			</trkpt>
			<trkpt lat="50.848433" lon="14.558196">
				<ele>563.000000</ele>
			</trkpt>
			<trkpt lat="50.848439" lon="14.558412">
				<ele>562.000000</ele>
			</trkpt>
			<trkpt lat="50.848468" lon="14.558655">
				<ele>561.000000</ele>
			</trkpt>
			<trkpt lat="50.848553" lon="14.559131">
				<ele>560.000000</ele>
			</trkpt>
			<trkpt lat="50.848581" lon="14.559319">
				<ele>559.000000</ele>
			</trkpt>
			<trkpt lat="50.848581" lon="14.559418">
				<ele>559.000000</ele>
			</trkpt>
			<trkpt lat="50.848569" lon="14.559535">
				<ele>558.000000</ele>
			</trkpt>
			<trkpt lat="50.848563" lon="14.559634">
				<ele>558.000000</ele>
			</trkpt>
			<trkpt lat="50.848535" lon="14.559732">
				<ele>558.000000</ele>
			</trkpt>
			<trkpt lat="50.848490" lon="14.559904">
				<ele>557.000000</ele>
			</trkpt>
			<trkpt lat="50.848473" lon="14.560011">
				<ele>557.000000</ele>
			</trkpt>
			<trkpt lat="50.848456" lon="14.560145">
				<ele>557.000000</ele>
			</trkpt>
			<trkpt lat="50.848456" lon="14.560280">
				<ele>556.000000</ele>
			</trkpt>
			<trkpt lat="50.848456" lon="14.560388">
				<ele>556.000000</ele>
			</trkpt>
			<trkpt lat="50.848450" lon="14.560470">
				<ele>556.000000</ele>
			</trkpt>
			<trkpt lat="50.848376" lon="14.560856">
				<ele>554.000000</ele>
			</trkpt>
			<trkpt lat="50.848218" lon="14.561879">
				<ele>550.000000</ele>
			</trkpt>
			<trkpt lat="50.848195" lon="14.562158">
				<ele>550.000000</ele>
			</trkpt>
			<trkpt lat="50.848166" lon="14.562445">
				<ele>550.000000</ele>
			</trkpt>
			<trkpt lat="50.848150" lon="14.562661">
				<ele>550.000000</ele>
			</trkpt>
			<trkpt lat="50.848104" lon="14.562733">
				<ele>549.000000</ele>
			</trkpt>
			<trkpt lat="50.848059" lon="14.562814">
				<ele>547.000000</ele>
			</trkpt>
			<trkpt lat="50.847883" lon="14.563173">
				<ele>544.000000</ele>
			</trkpt>
			<trkpt lat="50.847820" lon="14.563317">
				<ele>544.000000</ele>
			</trkpt>
			<trkpt lat="50.847787" lon="14.563460">
				<ele>543.000000</ele>
			</trkpt>
			<trkpt lat="50.847770" lon="14.563631">
				<ele>543.000000</ele>
			</trkpt>
			<trkpt lat="50.847776" lon="14.563856">
				<ele>542.000000</ele>
			</trkpt>
			<trkpt lat="50.847804" lon="14.564395">
				<ele>540.000000</ele>
			</trkpt>
			<trkpt lat="50.847804" lon="14.564449">
				<ele>540.000000</ele>
			</trkpt>
			<trkpt lat="50.847798" lon="14.564521">
				<ele>540.000000</ele>
			</trkpt>
			<trkpt lat="50.847781" lon="14.564583">
				<ele>540.000000</ele>
			</trkpt>
			<trkpt lat="50.847753" lon="14.564638">
				<ele>539.000000</ele>
			</trkpt>
			<trkpt lat="50.847719" lon="14.564682">
				<ele>539.000000</ele>
			</trkpt>
			<trkpt lat="50.847679" lon="14.564709">
				<ele>538.000000</ele>
			</trkpt>
			<trkpt lat="50.847639" lon="14.564728">
				<ele>537.000000</ele>
			</trkpt>
			<trkpt lat="50.847594" lon="14.564736">
				<ele>537.000000</ele>
			</trkpt>
			<trkpt lat="50.847554" lon="14.564728">
				<ele>536.000000</ele>
			</trkpt>
			<trkpt lat="50.847458" lon="14.564709">
				<ele>535.000000</ele>
			</trkpt>
			<trkpt lat="50.847322" lon="14.564646">
				<ele>530.000000</ele>
			</trkpt>
			<trkpt lat="50.847338" lon="14.564538">
				<ele>530.000000</ele>
			</trkpt>
			<trkpt lat="50.847338" lon="14.564431">
				<ele>530.000000</ele>
			</trkpt>
			<trkpt lat="50.847271" lon="14.563730">
				<ele>530.000000</ele>
			</trkpt>
			<trkpt lat="50.847225" lon="14.563326">
				<ele>530.000000</ele>
			</trkpt>
			<trkpt lat="50.847192" lon="14.563137">
				<ele>530.000000</ele>
			</trkpt>
			<trkpt lat="50.847151" lon="14.562993">
				<ele>530.000000</ele>
			</trkpt>
			<trkpt lat="50.847118" lon="14.562850">
				<ele>530.000000</ele>
			</trkpt>
			<trkpt lat="50.847061" lon="14.562715">
				<ele>530.000000</ele>
			</trkpt>
			<trkpt lat="50.846998" lon="14.562571">
				<ele>529.000000</ele>
			</trkpt>
			<trkpt lat="50.846925" lon="14.562428">
				<ele>528.000000</ele>
			</trkpt>
			<trkpt lat="50.846783" lon="14.562149">
				<ele>526.000000</ele>
			</trkpt>
			<trkpt lat="50.846652" lon="14.561888">
				<ele>524.000000</ele>
			</trkpt>
			<trkpt lat="50.846448" lon="14.561412">
				<ele>522.000000</ele>
			</trkpt>
			<trkpt lat="50.846244" lon="14.560873">
				<ele>519.000000</ele>
			</trkpt>
			<trkpt lat="50.845864" lon="14.559759">
				<ele>514.000000</ele>
			</trkpt>
			<trkpt lat="50.845790" lon="14.559588">
				<ele>514.000000</ele>
			</trkpt>
			<trkpt lat="50.845722" lon="14.559445">
				<ele>513.000000</ele>
			</trkpt>
			<trkpt lat="50.845631" lon="14.559319">
				<ele>512.000000</ele>
			</trkpt>
			<trkpt lat="50.845473" lon="14.559122">
				<ele>511.000000</ele>
			</trkpt>
			<trkpt lat="50.845376" lon="14.559022">
				<ele>510.000000</ele>
			</trkpt>
			<trkpt lat="50.845268" lon="14.558951">
				<ele>510.000000</ele>
			</trkpt>
			<trkpt lat="50.845144" lon="14.558906">
				<ele>510.000000</ele>
			</trkpt>
			<trkpt lat="50.844991" lon="14.558896">
				<ele>510.000000</ele>
			</trkpt>
			<trkpt lat="50.844888" lon="14.558915">
				<ele>511.000000</ele>
			</trkpt>
			<trkpt lat="50.844729" lon="14.558959">
				<ele>511.000000</ele>
			</trkpt>
			<trkpt lat="50.844650" lon="14.558969">
				<ele>511.000000</ele>
			</trkpt>
			<trkpt lat="50.844605" lon="14.559229">
				<ele>511.000000</ele>
			</trkpt>
			<trkpt lat="50.844576" lon="14.559338">
				<ele>511.000000</ele>
			</trkpt>
			<trkpt lat="50.844542" lon="14.559427">
				<ele>511.000000</ele>
			</trkpt>
			<trkpt lat="50.844497" lon="14.559472">
				<ele>511.000000</ele>
			</trkpt>
			<trkpt lat="50.844452" lon="14.559481">
				<ele>511.000000</ele>
			</trkpt>
			<trkpt lat="50.844395" lon="14.559499">
				<ele>511.000000</ele>
			</trkpt>
			<trkpt lat="50.844299" lon="14.559499">
				<ele>511.000000</ele>
			</trkpt>
			<trkpt lat="50.844281" lon="14.559499">
				<ele>511.000000</ele>
			</trkpt>
			<trkpt lat="50.844281" lon="14.559499">
				<ele>511.000000</ele>
			</trkpt>
			<trkpt lat="50.844027" lon="14.559499">
				<ele>512.000000</ele>
			</trkpt>
			<trkpt lat="50.843947" lon="14.559535">
				<ele>512.000000</ele>
			</trkpt>
			<trkpt lat="50.843879" lon="14.559562">
				<ele>512.000000</ele>
			</trkpt>
			<trkpt lat="50.843794" lon="14.559607">
				<ele>512.000000</ele>
			</trkpt>
			<trkpt lat="50.843731" lon="14.559678">
				<ele>512.000000</ele>
			</trkpt>
			<trkpt lat="50.843516" lon="14.559921">
				<ele>512.000000</ele>
			</trkpt>
			<trkpt lat="50.843357" lon="14.560137">
				<ele>513.000000</ele>
			</trkpt>
			<trkpt lat="50.843283" lon="14.560208">
				<ele>513.000000</ele>
			</trkpt>
			<trkpt lat="50.843266" lon="14.560208">
				<ele>513.000000</ele>
			</trkpt>
			<trkpt lat="50.843238" lon="14.560208">
				<ele>513.000000</ele>
			</trkpt>
			<trkpt lat="50.843215" lon="14.560191">
				<ele>513.000000</ele>
			</trkpt>
			<trkpt lat="50.843187" lon="14.560164">
				<ele>513.000000</ele>
			</trkpt>
			<trkpt lat="50.843113" lon="14.560011">
				<ele>513.000000</ele>
			</trkpt>
			<trkpt lat="50.842869" lon="14.559328">
				<ele>513.000000</ele>
			</trkpt>
			<trkpt lat="50.842824" lon="14.559202">
				<ele>514.000000</ele>
			</trkpt>
			<trkpt lat="50.842779" lon="14.559112">
				<ele>514.000000</ele>
			</trkpt>
			<trkpt lat="50.842733" lon="14.559076">
				<ele>514.000000</ele>
			</trkpt>
			<trkpt lat="50.842676" lon="14.559032">
				<ele>514.000000</ele>
			</trkpt>
			<trkpt lat="50.842500" lon="14.558978">
				<ele>514.000000</ele>
			</trkpt>
			<trkpt lat="50.842319" lon="14.558906">
				<ele>514.000000</ele>
			</trkpt>
			<trkpt lat="50.842200" lon="14.558870">
				<ele>514.000000</ele>
			</trkpt>
			<trkpt lat="50.842103" lon="14.558870">
				<ele>514.000000</ele>
			</trkpt>
			<trkpt lat="50.842012" lon="14.558879">
				<ele>514.000000</ele>
			</trkpt>
			<trkpt lat="50.841922" lon="14.558942">
				<ele>515.000000</ele>
			</trkpt>
			<trkpt lat="50.841627" lon="14.559185">
				<ele>515.000000</ele>
			</trkpt>
			<trkpt lat="50.841553" lon="14.559256">
				<ele>515.000000</ele>
			</trkpt>
			<trkpt lat="50.841490" lon="14.559338">
				<ele>515.000000</ele>
			</trkpt>
			<trkpt lat="50.841440" lon="14.559445">
				<ele>515.000000</ele>
			</trkpt>
			<trkpt lat="50.841394" lon="14.559552">
				<ele>515.000000</ele>
			</trkpt>
			<trkpt lat="50.841377" lon="14.559669">
				<ele>515.000000</ele>
			</trkpt>
			<trkpt lat="50.841360" lon="14.559814">
				<ele>515.000000</ele>
			</trkpt>
			<trkpt lat="50.841298" lon="14.560550">
				<ele>515.000000</ele>
			</trkpt>
			<trkpt lat="50.841275" lon="14.560820">
				<ele>515.000000</ele>
			</trkpt>
			<trkpt lat="50.841230" lon="14.561009">
				<ele>515.000000</ele>
			</trkpt>
			<trkpt lat="50.841201" lon="14.561080">
				<ele>515.000000</ele>
			</trkpt>
			<trkpt lat="50.841167" lon="14.561152">
				<ele>515.000000</ele>
			</trkpt>
			<trkpt lat="50.841139" lon="14.561206">
				<ele>515.000000</ele>
			</trkpt>
			<trkpt lat="50.841094" lon="14.561250">
				<ele>515.000000</ele>
			</trkpt>
			<trkpt lat="50.840748" lon="14.561546">
				<ele>516.000000</ele>
			</trkpt>
			<trkpt lat="50.840554" lon="14.561682">
				<ele>517.000000</ele>
			</trkpt>
			<trkpt lat="50.840396" lon="14.561753">
				<ele>518.000000</ele>
			</trkpt>
			<trkpt lat="50.840197" lon="14.561808">
				<ele>519.000000</ele>
			</trkpt>
			<trkpt lat="50.839982" lon="14.561843">
				<ele>522.000000</ele>
			</trkpt>
			<trkpt lat="50.839908" lon="14.561852">
				<ele>523.000000</ele>
			</trkpt>
			<trkpt lat="50.839840" lon="14.561898">
				<ele>524.000000</ele>
			</trkpt>
			<trkpt lat="50.839783" lon="14.561988">
				<ele>525.000000</ele>
			</trkpt>
			<trkpt lat="50.839732" lon="14.562131">
				<ele>526.000000</ele>
			</trkpt>
			<trkpt lat="50.839687" lon="14.562230">
				<ele>526.000000</ele>
			</trkpt>
			<trkpt lat="50.839659" lon="14.562284">
				<ele>527.000000</ele>
			</trkpt>
			<trkpt lat="50.839613" lon="14.562328">
				<ele>527.000000</ele>
			</trkpt>
			<trkpt lat="50.839562" lon="14.562382">
				<ele>527.000000</ele>
			</trkpt>
			<trkpt lat="50.839482" lon="14.562454">
				<ele>528.000000</ele>
			</trkpt>
			<trkpt lat="50.839426" lon="14.562517">
				<ele>529.000000</ele>
			</trkpt>
			<trkpt lat="50.839357" lon="14.562598">
				<ele>529.000000</ele>
			</trkpt>
			<trkpt lat="50.839318" lon="14.562670">
				<ele>530.000000</ele>
			</trkpt>
			<trkpt lat="50.839295" lon="14.562741">
				<ele>530.000000</ele>
			</trkpt>
			<trkpt lat="50.839272" lon="14.562831">
				<ele>530.000000</ele>
			</trkpt>
			<trkpt lat="50.839256" lon="14.563065">
				<ele>531.000000</ele>
			</trkpt>
			<trkpt lat="50.839239" lon="14.563200">
				<ele>532.000000</ele>
			</trkpt>
			<trkpt lat="50.839205" lon="14.563307">
				<ele>532.000000</ele>
			</trkpt>
			<trkpt lat="50.839154" lon="14.563397">
				<ele>533.000000</ele>
			</trkpt>
			<trkpt lat="50.839097" lon="14.563451">
				<ele>533.000000</ele>
			</trkpt>
			<trkpt lat="50.838955" lon="14.563541">
				<ele>534.000000</ele>
			</trkpt>
			<trkpt lat="50.838859" lon="14.563640">
				<ele>535.000000</ele>
			</trkpt>
			<trkpt lat="50.838773" lon="14.563739">
				<ele>535.000000</ele>
			</trkpt>
			<trkpt lat="50.838711" lon="14.563873">
				<ele>536.000000</ele>
			</trkpt>
			<trkpt lat="50.838660" lon="14.564009">
				<ele>536.000000</ele>
			</trkpt>
			<trkpt lat="50.838564" lon="14.564368">
				<ele>538.000000</ele>
			</trkpt>
			<trkpt lat="50.838490" lon="14.564709">
				<ele>539.000000</ele>
			</trkpt>
			<trkpt lat="50.838467" lon="14.564825">
				<ele>539.000000</ele>
			</trkpt>
			<trkpt lat="50.838427" lon="14.564907">
				<ele>540.000000</ele>
			</trkpt>
			<trkpt lat="50.838382" lon="14.564997">
				<ele>540.000000</ele>
			</trkpt>
			<trkpt lat="50.838337" lon="14.565051">
				<ele>540.000000</ele>
			</trkpt>
			<trkpt lat="50.838252" lon="14.565141">
				<ele>540.000000</ele>
			</trkpt>
			<trkpt lat="50.838149" lon="14.565167">
				<ele>540.000000</ele>
			</trkpt>
			<trkpt lat="50.837973" lon="14.565212">
				<ele>540.000000</ele>
			</trkpt>
			<trkpt lat="50.837843" lon="14.565212">
				<ele>539.000000</ele>
			</trkpt>
			<trkpt lat="50.837718" lon="14.565185">
				<ele>539.000000</ele>
			</trkpt>
			<trkpt lat="50.837560" lon="14.565114">
				<ele>538.000000</ele>
			</trkpt>
			<trkpt lat="50.837429" lon="14.565059">
				<ele>538.000000</ele>
			</trkpt>
			<trkpt lat="50.837321" lon="14.565051">
				<ele>537.000000</ele>
			</trkpt>
			<trkpt lat="50.837208" lon="14.565078">
				<ele>537.000000</ele>
			</trkpt>
			<trkpt lat="50.837072" lon="14.565131">
				<ele>536.000000</ele>
			</trkpt>
			<trkpt lat="50.836873" lon="14.565267">
				<ele>535.000000</ele>
			</trkpt>
			<trkpt lat="50.836714" lon="14.565347">
				<ele>535.000000</ele>
			</trkpt>
			<trkpt lat="50.836329" lon="14.565535">
				<ele>535.000000</ele>
			</trkpt>
			<trkpt lat="50.835993" lon="14.565697">
				<ele>535.000000</ele>
			</trkpt>
			<trkpt lat="50.835806" lon="14.565796">
				<ele>535.000000</ele>
			</trkpt>
			<trkpt lat="50.835681" lon="14.565833">
				<ele>535.000000</ele>
			</trkpt>
			<trkpt lat="50.835545" lon="14.565841">
				<ele>535.000000</ele>
			</trkpt>
			<trkpt lat="50.835381" lon="14.565833">
				<ele>535.000000</ele>
			</trkpt>
			<trkpt lat="50.835188" lon="14.565778">
				<ele>535.000000</ele>
			</trkpt>
			<trkpt lat="50.834888" lon="14.565670">
				<ele>536.000000</ele>
			</trkpt>
			<trkpt lat="50.834411" lon="14.565491">
				<ele>540.000000</ele>
			</trkpt>
			<trkpt lat="50.834275" lon="14.565454">
				<ele>540.000000</ele>
			</trkpt>
			<trkpt lat="50.834133" lon="14.565446">
				<ele>540.000000</ele>
			</trkpt>
			<trkpt lat="50.833685" lon="14.565418">
				<ele>540.000000</ele>
			</trkpt>
			<trkpt lat="50.833486" lon="14.565410">
				<ele>540.000000</ele>
			</trkpt>
			<trkpt lat="50.833231" lon="14.565365">
				<ele>538.000000</ele>
			</trkpt>
			<trkpt lat="50.833055" lon="14.565347">
				<ele>538.000000</ele>
			</trkpt>
			<trkpt lat="50.832907" lon="14.565302">
				<ele>537.000000</ele>
			</trkpt>
			<trkpt lat="50.832675" lon="14.565248">
				<ele>536.000000</ele>
			</trkpt>
			<trkpt lat="50.832584" lon="14.565248">
				<ele>536.000000</ele>
			</trkpt>
			<trkpt lat="50.832504" lon="14.565267">
				<ele>535.000000</ele>
			</trkpt>
			<trkpt lat="50.832352" lon="14.565275">
				<ele>535.000000</ele>
			</trkpt>
			<trkpt lat="50.832260" lon="14.565275">
				<ele>534.000000</ele>
			</trkpt>
			<trkpt lat="50.832198" lon="14.565267">
				<ele>534.000000</ele>
			</trkpt>
			<trkpt lat="50.832124" lon="14.565221">
				<ele>534.000000</ele>
			</trkpt>
			<trkpt lat="50.832073" lon="14.565185">
				<ele>533.000000</ele>
			</trkpt>
			<trkpt lat="50.832011" lon="14.565095">
				<ele>533.000000</ele>
			</trkpt>
			<trkpt lat="50.831857" lon="14.564915">
				<ele>532.000000</ele>
			</trkpt>
			<trkpt lat="50.831665" lon="14.564745">
				<ele>531.000000</ele>
			</trkpt>
			<trkpt lat="50.831529" lon="14.564665">
				<ele>531.000000</ele>
			</trkpt>
			<trkpt lat="50.831370" lon="14.564601">
				<ele>530.000000</ele>
			</trkpt>
			<trkpt lat="50.831250" lon="14.564592">
				<ele>529.000000</ele>
			</trkpt>
			<trkpt lat="50.831126" lon="14.564611">
				<ele>528.000000</ele>
			</trkpt>
			<trkpt lat="50.830961" lon="14.564665">
				<ele>526.000000</ele>
			</trkpt>
			<trkpt lat="50.830791" lon="14.564736">
				<ele>524.000000</ele>
			</trkpt>
			<trkpt lat="50.830729" lon="14.564781">
				<ele>523.000000</ele>
			</trkpt>
			<trkpt lat="50.830666" lon="14.564835">
				<ele>523.000000</ele>
			</trkpt>
			<trkpt lat="50.830615" lon="14.564898">
				<ele>522.000000</ele>
			</trkpt>
			<trkpt lat="50.830558" lon="14.564978">
				<ele>521.000000</ele>
			</trkpt>
			<trkpt lat="50.830451" lon="14.565212">
				<ele>520.000000</ele>
			</trkpt>
			<trkpt lat="50.830411" lon="14.565293">
				<ele>519.000000</ele>
			</trkpt>
			<trkpt lat="50.830354" lon="14.565365">
				<ele>518.000000</ele>
			</trkpt>
			<trkpt lat="50.830308" lon="14.565428">
				<ele>517.000000</ele>
			</trkpt>
			<trkpt lat="50.830257" lon="14.565464">
				<ele>517.000000</ele>
			</trkpt>
			<trkpt lat="50.830201" lon="14.565481">
				<ele>516.000000</ele>
			</trkpt>
			<trkpt lat="50.830150" lon="14.565481">
				<ele>515.000000</ele>
			</trkpt>
			<trkpt lat="50.830093" lon="14.565473">
				<ele>515.000000</ele>
			</trkpt>
			<trkpt lat="50.830042" lon="14.565446">
				<ele>514.000000</ele>
			</trkpt>
			<trkpt lat="50.829968" lon="14.565383">
				<ele>513.000000</ele>
			</trkpt>
			<trkpt lat="50.829815" lon="14.565212">
				<ele>512.000000</ele>
			</trkpt>
			<trkpt lat="50.829724" lon="14.565158">
				<ele>511.000000</ele>
			</trkpt>
			<trkpt lat="50.829634" lon="14.565104">
				<ele>510.000000</ele>
			</trkpt>
			<trkpt lat="50.829543" lon="14.565104">
				<ele>508.000000</ele>
			</trkpt>
			<trkpt lat="50.829475" lon="14.565131">
				<ele>507.000000</ele>
			</trkpt>
			<trkpt lat="50.829401" lon="14.565221">
				<ele>506.000000</ele>
			</trkpt>
			<trkpt lat="50.829327" lon="14.565338">
				<ele>505.000000</ele>
			</trkpt>
			<trkpt lat="50.829264" lon="14.565491">
				<ele>503.000000</ele>
			</trkpt>
			<trkpt lat="50.829213" lon="14.565661">
				<ele>502.000000</ele>
			</trkpt>
			<trkpt lat="50.829180" lon="14.565778">
				<ele>501.000000</ele>
			</trkpt>
		</trkseg>
	</trk>
</gpx>

