<?xml version="1.0" encoding="utf-8"?>
<gpx xmlns="http://www.topografix.com/GPX/1/1" version="1.1" creator="https://mapy.com/">
	<trk>
		<name>Route from Parking - paid to 50.892260N, 14.229901E</name>
		<trkseg>
			<trkpt lat="50.892352" lon="14.229764">
				<ele>128.000000</ele>
			</trkpt>
			<trkpt lat="50.892006" lon="14.230105">
				<ele>127.000000</ele>
			</trkpt>
			<trkpt lat="50.891966" lon="14.229997">
				<ele>127.000000</ele>
			</trkpt>
			<trkpt lat="50.891983" lon="14.229871">
				<ele>127.000000</ele>
			</trkpt>
			<trkpt lat="50.892011" lon="14.229844">
				<ele>127.000000</ele>
			</trkpt>
			<trkpt lat="50.892000" lon="14.229808">
				<ele>121.000000</ele>
			</trkpt>
			<trkpt lat="50.891960" lon="14.229709">
				<ele>140.000000</ele>
			</trkpt>
			<trkpt lat="50.891887" lon="14.229791">
				<ele>140.000000</ele>
			</trkpt>
			<trkpt lat="50.891853" lon="14.229871">
				<ele>137.000000</ele>
			</trkpt>
			<trkpt lat="50.891807" lon="14.229961">
				<ele>134.000000</ele>
			</trkpt>
			<trkpt lat="50.891700" lon="14.230122">
				<ele>128.000000</ele>
			</trkpt>
			<trkpt lat="50.891610" lon="14.230294">
				<ele>122.000000</ele>
			</trkpt>
			<trkpt lat="50.891575" lon="14.230374">
				<ele>122.000000</ele>
			</trkpt>
			<trkpt lat="50.891575" lon="14.230455">
				<ele>123.000000</ele>
			</trkpt>
			<trkpt lat="50.891581" lon="14.230644">
				<ele>124.000000</ele>
			</trkpt>
			<trkpt lat="50.891592" lon="14.230833">
				<ele>125.000000</ele>
			</trkpt>
			<trkpt lat="50.891564" lon="14.230886">
				<ele>126.000000</ele>
			</trkpt>
			<trkpt lat="50.891536" lon="14.230913">
				<ele>126.000000</ele>
			</trkpt>
			<trkpt lat="50.891654" lon="14.231156">
				<ele>128.000000</ele>
			</trkpt>
			<trkpt lat="50.891756" lon="14.231309">
				<ele>129.000000</ele>
			</trkpt>
			<trkpt lat="50.891791" lon="14.231362">
				<ele>129.000000</ele>
			</trkpt>
			<trkpt lat="50.891853" lon="14.231479">
				<ele>130.000000</ele>
			</trkpt>
			<trkpt lat="50.892187" lon="14.232009">
				<ele>135.000000</ele>
			</trkpt>
			<trkpt lat="50.892221" lon="14.232126">
				<ele>135.000000</ele>
			</trkpt>
			<trkpt lat="50.892261" lon="14.232261">
				<ele>136.000000</ele>
			</trkpt>
			<trkpt lat="50.892290" lon="14.232378">
				<ele>137.000000</ele>
			</trkpt>
			<trkpt lat="50.892318" lon="14.232476">
				<ele>138.000000</ele>
			</trkpt>
			<trkpt lat="50.892391" lon="14.232755">
				<ele>140.000000</ele>
			</trkpt>
			<trkpt lat="50.892431" lon="14.232934">
				<ele>141.000000</ele>
			</trkpt>
			<trkpt lat="50.892471" lon="14.233204">
				<ele>142.000000</ele>
			</trkpt>
			<trkpt lat="50.892505" lon="14.233357">
				<ele>143.000000</ele>
			</trkpt>
			<trkpt lat="50.892550" lon="14.233483">
				<ele>144.000000</ele>
			</trkpt>
			<trkpt lat="50.892629" lon="14.233707">
				<ele>145.000000</ele>
			</trkpt>
			<trkpt lat="50.892703" lon="14.233896">
				<ele>147.000000</ele>
			</trkpt>
			<trkpt lat="50.892765" lon="14.233994">
				<ele>147.000000</ele>
			</trkpt>
			<trkpt lat="50.892850" lon="14.234156">
				<ele>149.000000</ele>
			</trkpt>
			<trkpt lat="50.892912" lon="14.234273">
				<ele>150.000000</ele>
			</trkpt>
			<trkpt lat="50.892992" lon="14.234426">
				<ele>151.000000</ele>
			</trkpt>
			<trkpt lat="50.893032" lon="14.234489">
				<ele>152.000000</ele>
			</trkpt>
			<trkpt lat="50.893071" lon="14.234542">
				<ele>152.000000</ele>
			</trkpt>
			<trkpt lat="50.893122" lon="14.234596">
				<ele>153.000000</ele>
			</trkpt>
			<trkpt lat="50.893258" lon="14.234705">
				<ele>155.000000</ele>
			</trkpt>
			<trkpt lat="50.893502" lon="14.234884">
				<ele>159.000000</ele>
			</trkpt>
			<trkpt lat="50.893638" lon="14.234965">
				<ele>162.000000</ele>
			</trkpt>
			<trkpt lat="50.893978" lon="14.235332">
				<ele>169.000000</ele>
			</trkpt>
			<trkpt lat="50.894295" lon="14.235575">
				<ele>174.000000</ele>
			</trkpt>
			<trkpt lat="50.894771" lon="14.235988">
				<ele>182.000000</ele>
			</trkpt>
			<trkpt lat="50.894783" lon="14.235997">
				<ele>182.000000</ele>
			</trkpt>
			<trkpt lat="50.894975" lon="14.236123">
				<ele>185.000000</ele>
			</trkpt>
			<trkpt lat="50.895564" lon="14.236410">
				<ele>192.000000</ele>
			</trkpt>
			<trkpt lat="50.895752" lon="14.236492">
				<ele>194.000000</ele>
			</trkpt>
			<trkpt lat="50.896046" lon="14.236762">
				<ele>198.000000</ele>
			</trkpt>
			<trkpt lat="50.896256" lon="14.237022">
				<ele>202.000000</ele>
			</trkpt>
			<trkpt lat="50.896465" lon="14.237309">
				<ele>206.000000</ele>
			</trkpt>
			<trkpt lat="50.896771" lon="14.237714">
				<ele>212.000000</ele>
			</trkpt>
			<trkpt lat="50.897015" lon="14.238108">
				<ele>217.000000</ele>
			</trkpt>
			<trkpt lat="50.897191" lon="14.238280">
				<ele>219.000000</ele>
			</trkpt>
			<trkpt lat="50.897575" lon="14.238540">
				<ele>223.000000</ele>
			</trkpt>
			<trkpt lat="50.898306" lon="14.238800">
				<ele>229.000000</ele>
			</trkpt>
			<trkpt lat="50.898970" lon="14.238963">
				<ele>233.000000</ele>
			</trkpt>
			<trkpt lat="50.899599" lon="14.239034">
				<ele>236.000000</ele>
			</trkpt>
			<trkpt lat="50.900103" lon="14.239024">
				<ele>239.000000</ele>
			</trkpt>
			<trkpt lat="50.900295" lon="14.239079">
				<ele>240.000000</ele>
			</trkpt>
			<trkpt lat="50.900494" lon="14.238917">
				<ele>241.000000</ele>
			</trkpt>
			<trkpt lat="50.900698" lon="14.238693">
				<ele>242.000000</ele>
			</trkpt>
			<trkpt lat="50.900946" lon="14.238370">
				<ele>244.000000</ele>
			</trkpt>
			<trkpt lat="50.901598" lon="14.237705">
				<ele>248.000000</ele>
			</trkpt>
			<trkpt lat="50.901672" lon="14.237651">
				<ele>248.000000</ele>
			</trkpt>
			<trkpt lat="50.901734" lon="14.237686">
				<ele>248.000000</ele>
			</trkpt>
			<trkpt lat="50.901882" lon="14.237758">
				<ele>249.000000</ele>
			</trkpt>
			<trkpt lat="50.902029" lon="14.237911">
				<ele>249.000000</ele>
			</trkpt>
			<trkpt lat="50.902272" lon="14.238127">
				<ele>250.000000</ele>
			</trkpt>
			<trkpt lat="50.902629" lon="14.238423">
				<ele>251.000000</ele>
			</trkpt>
			<trkpt lat="50.902986" lon="14.238594">
				<ele>252.000000</ele>
			</trkpt>
			<trkpt lat="50.903303" lon="14.238773">
				<ele>254.000000</ele>
			</trkpt>
			<trkpt lat="50.903615" lon="14.238846">
				<ele>255.000000</ele>
			</trkpt>
			<trkpt lat="50.903995" lon="14.238971">
				<ele>256.000000</ele>
			</trkpt>
			<trkpt lat="50.904221" lon="14.239079">
				<ele>257.000000</ele>
			</trkpt>
			<trkpt lat="50.904504" lon="14.239250">
				<ele>259.000000</ele>
			</trkpt>
			<trkpt lat="50.905145" lon="14.239689">
				<ele>262.000000</ele>
			</trkpt>
			<trkpt lat="50.905383" lon="14.239932">
				<ele>264.000000</ele>
			</trkpt>
			<trkpt lat="50.905643" lon="14.240156">
				<ele>266.000000</ele>
			</trkpt>
			<trkpt lat="50.905790" lon="14.240211">
				<ele>267.000000</ele>
			</trkpt>
			<trkpt lat="50.905943" lon="14.240202">
				<ele>268.000000</ele>
			</trkpt>
			<trkpt lat="50.906022" lon="14.240156">
				<ele>268.000000</ele>
			</trkpt>
			<trkpt lat="50.906130" lon="14.240102">
				<ele>269.000000</ele>
			</trkpt>
			<trkpt lat="50.906170" lon="14.240076">
				<ele>269.000000</ele>
			</trkpt>
			<trkpt lat="50.906221" lon="14.240022">
				<ele>270.000000</ele>
			</trkpt>
			<trkpt lat="50.906272" lon="14.239968">
				<ele>270.000000</ele>
			</trkpt>
			<trkpt lat="50.906476" lon="14.239825">
				<ele>272.000000</ele>
			</trkpt>
			<trkpt lat="50.906686" lon="14.239672">
				<ele>274.000000</ele>
			</trkpt>
			<trkpt lat="50.907252" lon="14.239286">
				<ele>280.000000</ele>
			</trkpt>
			<trkpt lat="50.907473" lon="14.239142">
				<ele>284.000000</ele>
			</trkpt>
			<trkpt lat="50.907642" lon="14.239079">
				<ele>287.000000</ele>
			</trkpt>
			<trkpt lat="50.907739" lon="14.238936">
				<ele>289.000000</ele>
			</trkpt>
			<trkpt lat="50.907858" lon="14.238603">
				<ele>294.000000</ele>
			</trkpt>
			<trkpt lat="50.907966" lon="14.238351">
				<ele>298.000000</ele>
			</trkpt>
			<trkpt lat="50.908101" lon="14.238288">
				<ele>302.000000</ele>
			</trkpt>
			<trkpt lat="50.908192" lon="14.238244">
				<ele>306.000000</ele>
			</trkpt>
			<trkpt lat="50.908271" lon="14.238234">
				<ele>310.000000</ele>
			</trkpt>
			<trkpt lat="50.908345" lon="14.238181">
				<ele>312.000000</ele>
			</trkpt>
			<trkpt lat="50.908373" lon="14.238144">
				<ele>313.000000</ele>
			</trkpt>
			<trkpt lat="50.908436" lon="14.238064">
				<ele>316.000000</ele>
			</trkpt>
			<trkpt lat="50.908503" lon="14.238045">
				<ele>318.000000</ele>
			</trkpt>
			<trkpt lat="50.908594" lon="14.238118">
				<ele>321.000000</ele>
			</trkpt>
			<trkpt lat="50.908696" lon="14.238081">
				<ele>324.000000</ele>
			</trkpt>
			<trkpt lat="50.908770" lon="14.238081">
				<ele>326.000000</ele>
			</trkpt>
			<trkpt lat="50.908878" lon="14.238091">
				<ele>330.000000</ele>
			</trkpt>
			<trkpt lat="50.908945" lon="14.238045">
				<ele>333.000000</ele>
			</trkpt>
			<trkpt lat="50.908934" lon="14.237804">
				<ele>341.000000</ele>
			</trkpt>
			<trkpt lat="50.908929" lon="14.237705">
				<ele>347.000000</ele>
			</trkpt>
			<trkpt lat="50.908883" lon="14.237605">
				<ele>354.000000</ele>
			</trkpt>
			<trkpt lat="50.908827" lon="14.237381">
				<ele>368.000000</ele>
			</trkpt>
			<trkpt lat="50.908843" lon="14.237372">
				<ele>370.000000</ele>
			</trkpt>
			<trkpt lat="50.908821" lon="14.237265">
				<ele>376.000000</ele>
			</trkpt>
			<trkpt lat="50.908815" lon="14.237273">
				<ele>377.000000</ele>
			</trkpt>
			<trkpt lat="50.908696" lon="14.236887">
				<ele>400.000000</ele>
			</trkpt>
			<trkpt lat="50.908770" lon="14.236887">
				<ele>401.000000</ele>
			</trkpt>
			<trkpt lat="50.908815" lon="14.236968">
				<ele>401.000000</ele>
			</trkpt>
			<trkpt lat="50.908906" lon="14.236913">
				<ele>402.000000</ele>
			</trkpt>
			<trkpt lat="50.908962" lon="14.236779">
				<ele>402.000000</ele>
			</trkpt>
			<trkpt lat="50.909008" lon="14.236762">
				<ele>402.000000</ele>
			</trkpt>
			<trkpt lat="50.909065" lon="14.236860">
				<ele>403.000000</ele>
			</trkpt>
			<trkpt lat="50.909098" lon="14.237003">
				<ele>403.000000</ele>
			</trkpt>
			<trkpt lat="50.909138" lon="14.237139">
				<ele>404.000000</ele>
			</trkpt>
			<trkpt lat="50.909183" lon="14.237219">
				<ele>404.000000</ele>
			</trkpt>
			<trkpt lat="50.909269" lon="14.237246">
				<ele>405.000000</ele>
			</trkpt>
			<trkpt lat="50.909302" lon="14.237246">
				<ele>405.000000</ele>
			</trkpt>
			<trkpt lat="50.909399" lon="14.237228">
				<ele>406.000000</ele>
			</trkpt>
			<trkpt lat="50.909535" lon="14.237165">
				<ele>406.000000</ele>
			</trkpt>
			<trkpt lat="50.909637" lon="14.237165">
				<ele>407.000000</ele>
			</trkpt>
			<trkpt lat="50.909755" lon="14.237255">
				<ele>408.000000</ele>
			</trkpt>
			<trkpt lat="50.909823" lon="14.237265">
				<ele>408.000000</ele>
			</trkpt>
			<trkpt lat="50.909920" lon="14.237265">
				<ele>408.000000</ele>
			</trkpt>
			<trkpt lat="50.910061" lon="14.237416">
				<ele>409.000000</ele>
			</trkpt>
			<trkpt lat="50.910124" lon="14.237651">
				<ele>411.000000</ele>
			</trkpt>
			<trkpt lat="50.910191" lon="14.237722">
				<ele>414.000000</ele>
			</trkpt>
			<trkpt lat="50.910248" lon="14.237615">
				<ele>417.000000</ele>
			</trkpt>
			<trkpt lat="50.910339" lon="14.237506">
				<ele>421.000000</ele>
			</trkpt>
			<trkpt lat="50.910452" lon="14.237498">
				<ele>430.000000</ele>
			</trkpt>
			<trkpt lat="50.910452" lon="14.237489">
				<ele>430.000000</ele>
			</trkpt>
			<trkpt lat="50.910452" lon="14.237489">
				<ele>430.000000</ele>
			</trkpt>
			<trkpt lat="50.910447" lon="14.237309">
				<ele>423.000000</ele>
			</trkpt>
			<trkpt lat="50.910435" lon="14.237129">
				<ele>418.000000</ele>
			</trkpt>
			<trkpt lat="50.910378" lon="14.236842">
				<ele>412.000000</ele>
			</trkpt>
			<trkpt lat="50.910390" lon="14.236536">
				<ele>408.000000</ele>
			</trkpt>
			<trkpt lat="50.910486" lon="14.236007">
				<ele>403.000000</ele>
			</trkpt>
			<trkpt lat="50.910565" lon="14.235657">
				<ele>403.000000</ele>
			</trkpt>
			<trkpt lat="50.910690" lon="14.235441">
				<ele>403.000000</ele>
			</trkpt>
			<trkpt lat="50.910832" lon="14.235332">
				<ele>403.000000</ele>
			</trkpt>
			<trkpt lat="50.910934" lon="14.235154">
				<ele>403.000000</ele>
			</trkpt>
			<trkpt lat="50.911041" lon="14.234875">
				<ele>403.000000</ele>
			</trkpt>
			<trkpt lat="50.911143" lon="14.234695">
				<ele>403.000000</ele>
			</trkpt>
			<trkpt lat="50.911194" lon="14.234498">
				<ele>403.000000</ele>
			</trkpt>
			<trkpt lat="50.911267" lon="14.234435">
				<ele>403.000000</ele>
			</trkpt>
			<trkpt lat="50.911324" lon="14.234309">
				<ele>403.000000</ele>
			</trkpt>
			<trkpt lat="50.911398" lon="14.234022">
				<ele>403.000000</ele>
			</trkpt>
			<trkpt lat="50.911426" lon="14.233716">
				<ele>403.000000</ele>
			</trkpt>
			<trkpt lat="50.911528" lon="14.233626">
				<ele>404.000000</ele>
			</trkpt>
			<trkpt lat="50.911687" lon="14.233221">
				<ele>404.000000</ele>
			</trkpt>
			<trkpt lat="50.911891" lon="14.232647">
				<ele>404.000000</ele>
			</trkpt>
			<trkpt lat="50.912010" lon="14.232386">
				<ele>404.000000</ele>
			</trkpt>
			<trkpt lat="50.912044" lon="14.232234">
				<ele>404.000000</ele>
			</trkpt>
			<trkpt lat="50.912055" lon="14.232081">
				<ele>404.000000</ele>
			</trkpt>
			<trkpt lat="50.912021" lon="14.231955">
				<ele>404.000000</ele>
			</trkpt>
			<trkpt lat="50.911936" lon="14.231848">
				<ele>404.000000</ele>
			</trkpt>
			<trkpt lat="50.911851" lon="14.231758">
				<ele>404.000000</ele>
			</trkpt>
			<trkpt lat="50.911766" lon="14.231649">
				<ele>404.000000</ele>
			</trkpt>
			<trkpt lat="50.911693" lon="14.231596">
				<ele>404.000000</ele>
			</trkpt>
			<trkpt lat="50.911596" lon="14.231586">
				<ele>404.000000</ele>
			</trkpt>
			<trkpt lat="50.911494" lon="14.231659">
				<ele>404.000000</ele>
			</trkpt>
			<trkpt lat="50.911461" lon="14.231793">
				<ele>404.000000</ele>
			</trkpt>
			<trkpt lat="50.911455" lon="14.231902">
				<ele>404.000000</ele>
			</trkpt>
			<trkpt lat="50.911381" lon="14.231965">
				<ele>404.000000</ele>
			</trkpt>
			<trkpt lat="50.911302" lon="14.232162">
				<ele>405.000000</ele>
			</trkpt>
			<trkpt lat="50.911274" lon="14.232288">
				<ele>405.000000</ele>
			</trkpt>
			<trkpt lat="50.911228" lon="14.232341">
				<ele>405.000000</ele>
			</trkpt>
			<trkpt lat="50.911121" lon="14.232414">
				<ele>405.000000</ele>
			</trkpt>
			<trkpt lat="50.911013" lon="14.232565">
				<ele>405.000000</ele>
			</trkpt>
			<trkpt lat="50.910973" lon="14.232800">
				<ele>405.000000</ele>
			</trkpt>
			<trkpt lat="50.910922" lon="14.232934">
				<ele>405.000000</ele>
			</trkpt>
			<trkpt lat="50.910860" lon="14.232980">
				<ele>405.000000</ele>
			</trkpt>
			<trkpt lat="50.910746" lon="14.233007">
				<ele>405.000000</ele>
			</trkpt>
			<trkpt lat="50.910639" lon="14.232988">
				<ele>405.000000</ele>
			</trkpt>
			<trkpt lat="50.910565" lon="14.232898">
				<ele>405.000000</ele>
			</trkpt>
			<trkpt lat="50.910526" lon="14.232745">
				<ele>405.000000</ele>
			</trkpt>
			<trkpt lat="50.910498" lon="14.232557">
				<ele>405.000000</ele>
			</trkpt>
			<trkpt lat="50.910549" lon="14.232324">
				<ele>405.000000</ele>
			</trkpt>
			<trkpt lat="50.910537" lon="14.232081">
				<ele>405.000000</ele>
			</trkpt>
			<trkpt lat="50.910549" lon="14.231910">
				<ele>405.000000</ele>
			</trkpt>
			<trkpt lat="50.910565" lon="14.231676">
				<ele>405.000000</ele>
			</trkpt>
			<trkpt lat="50.910549" lon="14.231434">
				<ele>405.000000</ele>
			</trkpt>
			<trkpt lat="50.910492" lon="14.231192">
				<ele>406.000000</ele>
			</trkpt>
			<trkpt lat="50.910384" lon="14.231047">
				<ele>406.000000</ele>
			</trkpt>
			<trkpt lat="50.910288" lon="14.230850">
				<ele>406.000000</ele>
			</trkpt>
			<trkpt lat="50.910265" lon="14.230653">
				<ele>406.000000</ele>
			</trkpt>
			<trkpt lat="50.910265" lon="14.230420">
				<ele>406.000000</ele>
			</trkpt>
			<trkpt lat="50.910276" lon="14.230330">
				<ele>406.000000</ele>
			</trkpt>
			<trkpt lat="50.910322" lon="14.230275">
				<ele>406.000000</ele>
			</trkpt>
			<trkpt lat="50.910384" lon="14.230114">
				<ele>406.000000</ele>
			</trkpt>
			<trkpt lat="50.910503" lon="14.229835">
				<ele>406.000000</ele>
			</trkpt>
			<trkpt lat="50.910588" lon="14.229655">
				<ele>406.000000</ele>
			</trkpt>
			<trkpt lat="50.910645" lon="14.229494">
				<ele>406.000000</ele>
			</trkpt>
			<trkpt lat="50.910662" lon="14.229368">
				<ele>406.000000</ele>
			</trkpt>
			<trkpt lat="50.910639" lon="14.229215">
				<ele>406.000000</ele>
			</trkpt>
			<trkpt lat="50.910577" lon="14.229018">
				<ele>400.000000</ele>
			</trkpt>
			<trkpt lat="50.910498" lon="14.228873">
				<ele>400.000000</ele>
			</trkpt>
			<trkpt lat="50.910498" lon="14.228694">
				<ele>400.000000</ele>
			</trkpt>
			<trkpt lat="50.910447" lon="14.228523">
				<ele>400.000000</ele>
			</trkpt>
			<trkpt lat="50.910429" lon="14.228389">
				<ele>399.000000</ele>
			</trkpt>
			<trkpt lat="50.910492" lon="14.228273">
				<ele>398.000000</ele>
			</trkpt>
			<trkpt lat="50.910639" lon="14.228156">
				<ele>396.000000</ele>
			</trkpt>
			<trkpt lat="50.910730" lon="14.228066">
				<ele>394.000000</ele>
			</trkpt>
			<trkpt lat="50.910797" lon="14.227931">
				<ele>393.000000</ele>
			</trkpt>
			<trkpt lat="50.910866" lon="14.227850">
				<ele>392.000000</ele>
			</trkpt>
			<trkpt lat="50.910848" lon="14.228066">
				<ele>390.000000</ele>
			</trkpt>
			<trkpt lat="50.910815" lon="14.228210">
				<ele>384.000000</ele>
			</trkpt>
			<trkpt lat="50.910809" lon="14.228317">
				<ele>379.000000</ele>
			</trkpt>
			<trkpt lat="50.910837" lon="14.228353">
				<ele>377.000000</ele>
			</trkpt>
			<trkpt lat="50.910922" lon="14.228299">
				<ele>371.000000</ele>
			</trkpt>
			<trkpt lat="50.911007" lon="14.228299">
				<ele>366.000000</ele>
			</trkpt>
			<trkpt lat="50.911098" lon="14.228334">
				<ele>361.000000</ele>
			</trkpt>
			<trkpt lat="50.911194" lon="14.228424">
				<ele>350.000000</ele>
			</trkpt>
			<trkpt lat="50.911251" lon="14.228514">
				<ele>340.000000</ele>
			</trkpt>
			<trkpt lat="50.911313" lon="14.228694">
				<ele>349.000000</ele>
			</trkpt>
			<trkpt lat="50.911438" lon="14.228892">
				<ele>346.000000</ele>
			</trkpt>
			<trkpt lat="50.911426" lon="14.228963">
				<ele>345.000000</ele>
			</trkpt>
			<trkpt lat="50.911420" lon="14.229126">
				<ele>343.000000</ele>
			</trkpt>
			<trkpt lat="50.911364" lon="14.229368">
				<ele>340.000000</ele>
			</trkpt>
			<trkpt lat="50.911375" lon="14.229476">
				<ele>337.000000</ele>
			</trkpt>
			<trkpt lat="50.911404" lon="14.229556">
				<ele>334.000000</ele>
			</trkpt>
			<trkpt lat="50.911449" lon="14.229709">
				<ele>329.000000</ele>
			</trkpt>
			<trkpt lat="50.911540" lon="14.229862">
				<ele>325.000000</ele>
			</trkpt>
			<trkpt lat="50.911607" lon="14.229915">
				<ele>322.000000</ele>
			</trkpt>
			<trkpt lat="50.911653" lon="14.229835">
				<ele>320.000000</ele>
			</trkpt>
			<trkpt lat="50.911681" lon="14.229736">
				<ele>319.000000</ele>
			</trkpt>
			<trkpt lat="50.911709" lon="14.229431">
				<ele>317.000000</ele>
			</trkpt>
			<trkpt lat="50.911778" lon="14.229242">
				<ele>315.000000</ele>
			</trkpt>
			<trkpt lat="50.911874" lon="14.229072">
				<ele>313.000000</ele>
			</trkpt>
			<trkpt lat="50.912004" lon="14.228873">
				<ele>311.000000</ele>
			</trkpt>
			<trkpt lat="50.912128" lon="14.228533">
				<ele>303.000000</ele>
			</trkpt>
			<trkpt lat="50.912174" lon="14.228281">
				<ele>298.000000</ele>
			</trkpt>
			<trkpt lat="50.912248" lon="14.228003">
				<ele>295.000000</ele>
			</trkpt>
			<trkpt lat="50.912271" lon="14.227831">
				<ele>293.000000</ele>
			</trkpt>
			<trkpt lat="50.912316" lon="14.227670">
				<ele>291.000000</ele>
			</trkpt>
			<trkpt lat="50.912406" lon="14.227328">
				<ele>287.000000</ele>
			</trkpt>
			<trkpt lat="50.912310" lon="14.226871">
				<ele>284.000000</ele>
			</trkpt>
			<trkpt lat="50.912327" lon="14.226556">
				<ele>282.000000</ele>
			</trkpt>
			<trkpt lat="50.912299" lon="14.226269">
				<ele>281.000000</ele>
			</trkpt>
			<trkpt lat="50.912174" lon="14.225900">
				<ele>278.000000</ele>
			</trkpt>
			<trkpt lat="50.912095" lon="14.225478">
				<ele>275.000000</ele>
			</trkpt>
			<trkpt lat="50.912100" lon="14.225208">
				<ele>273.000000</ele>
			</trkpt>
			<trkpt lat="50.912140" lon="14.224868">
				<ele>270.000000</ele>
			</trkpt>
			<trkpt lat="50.911982" lon="14.223933">
				<ele>266.000000</ele>
			</trkpt>
			<trkpt lat="50.911885" lon="14.223449">
				<ele>263.000000</ele>
			</trkpt>
			<trkpt lat="50.911817" lon="14.223214">
				<ele>262.000000</ele>
			</trkpt>
			<trkpt lat="50.911811" lon="14.223116">
				<ele>262.000000</ele>
			</trkpt>
			<trkpt lat="50.911811" lon="14.223116">
				<ele>262.000000</ele>
			</trkpt>
			<trkpt lat="50.911806" lon="14.222981">
				<ele>261.000000</ele>
			</trkpt>
			<trkpt lat="50.911862" lon="14.222730">
				<ele>260.000000</ele>
			</trkpt>
			<trkpt lat="50.911811" lon="14.222676">
				<ele>260.000000</ele>
			</trkpt>
			<trkpt lat="50.911800" lon="14.222568">
				<ele>261.000000</ele>
			</trkpt>
			<trkpt lat="50.911823" lon="14.222227">
				<ele>261.000000</ele>
			</trkpt>
			<trkpt lat="50.911880" lon="14.221867">
				<ele>262.000000</ele>
			</trkpt>
			<trkpt lat="50.911953" lon="14.221516">
				<ele>263.000000</ele>
			</trkpt>
			<trkpt lat="50.912049" lon="14.221265">
				<ele>264.000000</ele>
			</trkpt>
			<trkpt lat="50.912151" lon="14.220663">
				<ele>266.000000</ele>
			</trkpt>
			<trkpt lat="50.912219" lon="14.220457">
				<ele>266.000000</ele>
			</trkpt>
			<trkpt lat="50.912287" lon="14.220277">
				<ele>267.000000</ele>
			</trkpt>
			<trkpt lat="50.912485" lon="14.220044">
				<ele>268.000000</ele>
			</trkpt>
			<trkpt lat="50.912610" lon="14.219694">
				<ele>269.000000</ele>
			</trkpt>
			<trkpt lat="50.912649" lon="14.219441">
				<ele>270.000000</ele>
			</trkpt>
			<trkpt lat="50.912639" lon="14.219164">
				<ele>270.000000</ele>
			</trkpt>
			<trkpt lat="50.912644" lon="14.218984">
				<ele>270.000000</ele>
			</trkpt>
			<trkpt lat="50.912667" lon="14.218894">
				<ele>270.000000</ele>
			</trkpt>
			<trkpt lat="50.912706" lon="14.218804">
				<ele>270.000000</ele>
			</trkpt>
			<trkpt lat="50.912797" lon="14.218652">
				<ele>270.000000</ele>
			</trkpt>
			<trkpt lat="50.913007" lon="14.217923">
				<ele>270.000000</ele>
			</trkpt>
			<trkpt lat="50.913097" lon="14.217394">
				<ele>270.000000</ele>
			</trkpt>
			<trkpt lat="50.913109" lon="14.217241">
				<ele>270.000000</ele>
			</trkpt>
			<trkpt lat="50.913109" lon="14.217097">
				<ele>270.000000</ele>
			</trkpt>
			<trkpt lat="50.913058" lon="14.216845">
				<ele>270.000000</ele>
			</trkpt>
			<trkpt lat="50.912938" lon="14.216630">
				<ele>270.000000</ele>
			</trkpt>
			<trkpt lat="50.912729" lon="14.216361">
				<ele>270.000000</ele>
			</trkpt>
			<trkpt lat="50.912633" lon="14.216172">
				<ele>270.000000</ele>
			</trkpt>
			<trkpt lat="50.912531" lon="14.215849">
				<ele>270.000000</ele>
			</trkpt>
			<trkpt lat="50.912338" lon="14.215507">
				<ele>270.000000</ele>
			</trkpt>
			<trkpt lat="50.912185" lon="14.215309">
				<ele>268.000000</ele>
			</trkpt>
			<trkpt lat="50.912044" lon="14.215157">
				<ele>268.000000</ele>
			</trkpt>
			<trkpt lat="50.911959" lon="14.215120">
				<ele>267.000000</ele>
			</trkpt>
			<trkpt lat="50.911868" lon="14.215094">
				<ele>267.000000</ele>
			</trkpt>
			<trkpt lat="50.911658" lon="14.215013">
				<ele>265.000000</ele>
			</trkpt>
			<trkpt lat="50.911591" lon="14.214959">
				<ele>265.000000</ele>
			</trkpt>
			<trkpt lat="50.911523" lon="14.214878">
				<ele>265.000000</ele>
			</trkpt>
			<trkpt lat="50.911494" lon="14.214770">
				<ele>264.000000</ele>
			</trkpt>
			<trkpt lat="50.911477" lon="14.214663">
				<ele>264.000000</ele>
			</trkpt>
			<trkpt lat="50.911568" lon="14.214411">
				<ele>263.000000</ele>
			</trkpt>
			<trkpt lat="50.912038" lon="14.213405">
				<ele>259.000000</ele>
			</trkpt>
			<trkpt lat="50.912230" lon="14.213009">
				<ele>257.000000</ele>
			</trkpt>
			<trkpt lat="50.912078" lon="14.212606">
				<ele>260.000000</ele>
			</trkpt>
			<trkpt lat="50.911987" lon="14.212220">
				<ele>262.000000</ele>
			</trkpt>
			<trkpt lat="50.911913" lon="14.211977">
				<ele>264.000000</ele>
			</trkpt>
			<trkpt lat="50.911795" lon="14.211545">
				<ele>266.000000</ele>
			</trkpt>
			<trkpt lat="50.911681" lon="14.211285">
				<ele>268.000000</ele>
			</trkpt>
			<trkpt lat="50.911653" lon="14.211151">
				<ele>269.000000</ele>
			</trkpt>
			<trkpt lat="50.911676" lon="14.210998">
				<ele>270.000000</ele>
			</trkpt>
			<trkpt lat="50.911721" lon="14.210836">
				<ele>271.000000</ele>
			</trkpt>
			<trkpt lat="50.911817" lon="14.210692">
				<ele>272.000000</ele>
			</trkpt>
			<trkpt lat="50.911964" lon="14.210539">
				<ele>273.000000</ele>
			</trkpt>
			<trkpt lat="50.912191" lon="14.210413">
				<ele>275.000000</ele>
			</trkpt>
			<trkpt lat="50.912401" lon="14.210315">
				<ele>277.000000</ele>
			</trkpt>
			<trkpt lat="50.912542" lon="14.210296">
				<ele>278.000000</ele>
			</trkpt>
			<trkpt lat="50.912695" lon="14.210153">
				<ele>280.000000</ele>
			</trkpt>
			<trkpt lat="50.912876" lon="14.209776">
				<ele>280.000000</ele>
			</trkpt>
			<trkpt lat="50.912973" lon="14.209578">
				<ele>281.000000</ele>
			</trkpt>
			<trkpt lat="50.913114" lon="14.209426">
				<ele>281.000000</ele>
			</trkpt>
			<trkpt lat="50.913505" lon="14.208950">
				<ele>282.000000</ele>
			</trkpt>
			<trkpt lat="50.913658" lon="14.208805">
				<ele>282.000000</ele>
			</trkpt>
			<trkpt lat="50.913806" lon="14.208581">
				<ele>282.000000</ele>
			</trkpt>
			<trkpt lat="50.913952" lon="14.208275">
				<ele>283.000000</ele>
			</trkpt>
			<trkpt lat="50.914168" lon="14.207952">
				<ele>283.000000</ele>
			</trkpt>
			<trkpt lat="50.914247" lon="14.207835">
				<ele>284.000000</ele>
			</trkpt>
			<trkpt lat="50.914320" lon="14.207629">
				<ele>284.000000</ele>
			</trkpt>
			<trkpt lat="50.914383" lon="14.207413">
				<ele>284.000000</ele>
			</trkpt>
			<trkpt lat="50.914445" lon="14.207216">
				<ele>284.000000</ele>
			</trkpt>
			<trkpt lat="50.914502" lon="14.207017">
				<ele>285.000000</ele>
			</trkpt>
			<trkpt lat="50.914564" lon="14.206784">
				<ele>285.000000</ele>
			</trkpt>
			<trkpt lat="50.914542" lon="14.206515">
				<ele>285.000000</ele>
			</trkpt>
			<trkpt lat="50.914502" lon="14.206228">
				<ele>285.000000</ele>
			</trkpt>
			<trkpt lat="50.914502" lon="14.206030">
				<ele>286.000000</ele>
			</trkpt>
			<trkpt lat="50.914508" lon="14.205822">
				<ele>286.000000</ele>
			</trkpt>
			<trkpt lat="50.914457" lon="14.205671">
				<ele>286.000000</ele>
			</trkpt>
			<trkpt lat="50.914394" lon="14.205545">
				<ele>286.000000</ele>
			</trkpt>
			<trkpt lat="50.914292" lon="14.205482">
				<ele>286.000000</ele>
			</trkpt>
			<trkpt lat="50.914179" lon="14.205455">
				<ele>287.000000</ele>
			</trkpt>
			<trkpt lat="50.914082" lon="14.205455">
				<ele>287.000000</ele>
			</trkpt>
			<trkpt lat="50.913958" lon="14.205464">
				<ele>287.000000</ele>
			</trkpt>
			<trkpt lat="50.913885" lon="14.205472">
				<ele>287.000000</ele>
			</trkpt>
			<trkpt lat="50.913816" lon="14.205428">
				<ele>287.000000</ele>
			</trkpt>
			<trkpt lat="50.913755" lon="14.205338">
				<ele>287.000000</ele>
			</trkpt>
			<trkpt lat="50.913488" lon="14.204637">
				<ele>288.000000</ele>
			</trkpt>
			<trkpt lat="50.913335" lon="14.204233">
				<ele>289.000000</ele>
			</trkpt>
			<trkpt lat="50.913267" lon="14.203946">
				<ele>289.000000</ele>
			</trkpt>
			<trkpt lat="50.913227" lon="14.203757">
				<ele>289.000000</ele>
			</trkpt>
			<trkpt lat="50.913205" lon="14.203532">
				<ele>289.000000</ele>
			</trkpt>
			<trkpt lat="50.913205" lon="14.203362">
				<ele>290.000000</ele>
			</trkpt>
			<trkpt lat="50.913222" lon="14.203262">
				<ele>290.000000</ele>
			</trkpt>
			<trkpt lat="50.913262" lon="14.203155">
				<ele>290.000000</ele>
			</trkpt>
			<trkpt lat="50.913369" lon="14.202985">
				<ele>290.000000</ele>
			</trkpt>
			<trkpt lat="50.913460" lon="14.202859">
				<ele>290.000000</ele>
			</trkpt>
			<trkpt lat="50.913573" lon="14.202769">
				<ele>290.000000</ele>
			</trkpt>
			<trkpt lat="50.913641" lon="14.202733">
				<ele>290.000000</ele>
			</trkpt>
			<trkpt lat="50.913720" lon="14.202706">
				<ele>290.000000</ele>
			</trkpt>
			<trkpt lat="50.913964" lon="14.202742">
				<ele>290.000000</ele>
			</trkpt>
			<trkpt lat="50.914100" lon="14.202725">
				<ele>290.000000</ele>
			</trkpt>
			<trkpt lat="50.914327" lon="14.202625">
				<ele>290.000000</ele>
			</trkpt>
			<trkpt lat="50.914496" lon="14.202526">
				<ele>290.000000</ele>
			</trkpt>
			<trkpt lat="50.914649" lon="14.202409">
				<ele>290.000000</ele>
			</trkpt>
			<trkpt lat="50.914848" lon="14.202203">
				<ele>290.000000</ele>
			</trkpt>
			<trkpt lat="50.914943" lon="14.202096">
				<ele>290.000000</ele>
			</trkpt>
			<trkpt lat="50.915029" lon="14.201744">
				<ele>290.000000</ele>
			</trkpt>
			<trkpt lat="50.915045" lon="14.201367">
				<ele>290.000000</ele>
			</trkpt>
			<trkpt lat="50.915040" lon="14.201088">
				<ele>290.000000</ele>
			</trkpt>
			<trkpt lat="50.914955" lon="14.200685">
				<ele>290.000000</ele>
			</trkpt>
			<trkpt lat="50.914955" lon="14.200308">
				<ele>290.000000</ele>
			</trkpt>
			<trkpt lat="50.914910" lon="14.200092">
				<ele>290.000000</ele>
			</trkpt>
			<trkpt lat="50.914836" lon="14.199895">
				<ele>290.000000</ele>
			</trkpt>
			<trkpt lat="50.914734" lon="14.199562">
				<ele>290.000000</ele>
			</trkpt>
			<trkpt lat="50.914672" lon="14.199463">
				<ele>290.000000</ele>
			</trkpt>
			<trkpt lat="50.914553" lon="14.199400">
				<ele>290.000000</ele>
			</trkpt>
			<trkpt lat="50.914400" lon="14.199383">
				<ele>290.000000</ele>
			</trkpt>
			<trkpt lat="50.914168" lon="14.199436">
				<ele>290.000000</ele>
			</trkpt>
			<trkpt lat="50.914094" lon="14.199409">
				<ele>290.000000</ele>
			</trkpt>
			<trkpt lat="50.913987" lon="14.199266">
				<ele>290.000000</ele>
			</trkpt>
			<trkpt lat="50.913828" lon="14.199302">
				<ele>290.000000</ele>
			</trkpt>
			<trkpt lat="50.913443" lon="14.199383">
				<ele>290.000000</ele>
			</trkpt>
			<trkpt lat="50.913375" lon="14.199400">
				<ele>290.000000</ele>
			</trkpt>
			<trkpt lat="50.913313" lon="14.199400">
				<ele>290.000000</ele>
			</trkpt>
			<trkpt lat="50.913256" lon="14.199373">
				<ele>290.000000</ele>
			</trkpt>
			<trkpt lat="50.913109" lon="14.199212">
				<ele>290.000000</ele>
			</trkpt>
			<trkpt lat="50.913058" lon="14.199184">
				<ele>290.000000</ele>
			</trkpt>
			<trkpt lat="50.912373" lon="14.199122">
				<ele>290.000000</ele>
			</trkpt>
			<trkpt lat="50.911874" lon="14.199184">
				<ele>290.000000</ele>
			</trkpt>
			<trkpt lat="50.910730" lon="14.199346">
				<ele>290.000000</ele>
			</trkpt>
			<trkpt lat="50.910730" lon="14.199436">
				<ele>291.000000</ele>
			</trkpt>
			<trkpt lat="50.910730" lon="14.199436">
				<ele>291.000000</ele>
			</trkpt>
			<trkpt lat="50.910730" lon="14.199436">
				<ele>291.000000</ele>
			</trkpt>
			<trkpt lat="50.910775" lon="14.199570">
				<ele>293.000000</ele>
			</trkpt>
			<trkpt lat="50.910837" lon="14.199688">
				<ele>295.000000</ele>
			</trkpt>
			<trkpt lat="50.910899" lon="14.199778">
				<ele>297.000000</ele>
			</trkpt>
			<trkpt lat="50.910962" lon="14.199840">
				<ele>299.000000</ele>
			</trkpt>
			<trkpt lat="50.911030" lon="14.199868">
				<ele>300.000000</ele>
			</trkpt>
			<trkpt lat="50.911081" lon="14.199895">
				<ele>301.000000</ele>
			</trkpt>
			<trkpt lat="50.911154" lon="14.199912">
				<ele>303.000000</ele>
			</trkpt>
			<trkpt lat="50.911194" lon="14.199957">
				<ele>304.000000</ele>
			</trkpt>
			<trkpt lat="50.911188" lon="14.200020">
				<ele>305.000000</ele>
			</trkpt>
			<trkpt lat="50.911132" lon="14.200119">
				<ele>307.000000</ele>
			</trkpt>
			<trkpt lat="50.911103" lon="14.200199">
				<ele>308.000000</ele>
			</trkpt>
			<trkpt lat="50.911030" lon="14.200325">
				<ele>311.000000</ele>
			</trkpt>
			<trkpt lat="50.910996" lon="14.200379">
				<ele>319.000000</ele>
			</trkpt>
			<trkpt lat="50.910991" lon="14.200442">
				<ele>318.000000</ele>
			</trkpt>
			<trkpt lat="50.911001" lon="14.200496">
				<ele>316.000000</ele>
			</trkpt>
			<trkpt lat="50.911024" lon="14.200551">
				<ele>314.000000</ele>
			</trkpt>
			<trkpt lat="50.911058" lon="14.200585">
				<ele>312.000000</ele>
			</trkpt>
			<trkpt lat="50.911070" lon="14.200612">
				<ele>311.000000</ele>
			</trkpt>
			<trkpt lat="50.911064" lon="14.200640">
				<ele>310.000000</ele>
			</trkpt>
			<trkpt lat="50.911019" lon="14.200675">
				<ele>309.000000</ele>
			</trkpt>
			<trkpt lat="50.910991" lon="14.200721">
				<ele>309.000000</ele>
			</trkpt>
			<trkpt lat="50.910991" lon="14.200784">
				<ele>308.000000</ele>
			</trkpt>
			<trkpt lat="50.911019" lon="14.200828">
				<ele>308.000000</ele>
			</trkpt>
			<trkpt lat="50.911166" lon="14.200910">
				<ele>305.000000</ele>
			</trkpt>
			<trkpt lat="50.911245" lon="14.200945">
				<ele>304.000000</ele>
			</trkpt>
			<trkpt lat="50.911302" lon="14.201017">
				<ele>303.000000</ele>
			</trkpt>
			<trkpt lat="50.911392" lon="14.201088">
				<ele>301.000000</ele>
			</trkpt>
			<trkpt lat="50.911494" lon="14.201233">
				<ele>300.000000</ele>
			</trkpt>
			<trkpt lat="50.911647" lon="14.201404">
				<ele>300.000000</ele>
			</trkpt>
			<trkpt lat="50.911670" lon="14.201440">
				<ele>300.000000</ele>
			</trkpt>
			<trkpt lat="50.911664" lon="14.201503">
				<ele>301.000000</ele>
			</trkpt>
			<trkpt lat="50.911625" lon="14.201637">
				<ele>301.000000</ele>
			</trkpt>
			<trkpt lat="50.911528" lon="14.201763">
				<ele>301.000000</ele>
			</trkpt>
			<trkpt lat="50.911506" lon="14.201780">
				<ele>301.000000</ele>
			</trkpt>
			<trkpt lat="50.911387" lon="14.201862">
				<ele>301.000000</ele>
			</trkpt>
			<trkpt lat="50.911211" lon="14.201987">
				<ele>302.000000</ele>
			</trkpt>
			<trkpt lat="50.911154" lon="14.202104">
				<ele>302.000000</ele>
			</trkpt>
			<trkpt lat="50.911070" lon="14.202266">
				<ele>302.000000</ele>
			</trkpt>
			<trkpt lat="50.911047" lon="14.202409">
				<ele>302.000000</ele>
			</trkpt>
			<trkpt lat="50.911075" lon="14.202572">
				<ele>302.000000</ele>
			</trkpt>
			<trkpt lat="50.911160" lon="14.202733">
				<ele>303.000000</ele>
			</trkpt>
			<trkpt lat="50.911274" lon="14.202904">
				<ele>303.000000</ele>
			</trkpt>
			<trkpt lat="50.911410" lon="14.203084">
				<ele>303.000000</ele>
			</trkpt>
			<trkpt lat="50.911483" lon="14.203254">
				<ele>303.000000</ele>
			</trkpt>
			<trkpt lat="50.911585" lon="14.203488">
				<ele>304.000000</ele>
			</trkpt>
			<trkpt lat="50.911647" lon="14.203748">
				<ele>304.000000</ele>
			</trkpt>
			<trkpt lat="50.911642" lon="14.203937">
				<ele>304.000000</ele>
			</trkpt>
			<trkpt lat="50.911596" lon="14.204260">
				<ele>305.000000</ele>
			</trkpt>
			<trkpt lat="50.911585" lon="14.204449">
				<ele>305.000000</ele>
			</trkpt>
			<trkpt lat="50.911551" lon="14.204610">
				<ele>305.000000</ele>
			</trkpt>
			<trkpt lat="50.911517" lon="14.204692">
				<ele>305.000000</ele>
			</trkpt>
			<trkpt lat="50.911313" lon="14.204898">
				<ele>306.000000</ele>
			</trkpt>
			<trkpt lat="50.911086" lon="14.205122">
				<ele>306.000000</ele>
			</trkpt>
			<trkpt lat="50.911035" lon="14.205249">
				<ele>306.000000</ele>
			</trkpt>
			<trkpt lat="50.910973" lon="14.205446">
				<ele>307.000000</ele>
			</trkpt>
			<trkpt lat="50.910950" lon="14.205608">
				<ele>307.000000</ele>
			</trkpt>
			<trkpt lat="50.910979" lon="14.205751">
				<ele>307.000000</ele>
			</trkpt>
			<trkpt lat="50.910979" lon="14.205931">
				<ele>307.000000</ele>
			</trkpt>
			<trkpt lat="50.910917" lon="14.206147">
				<ele>307.000000</ele>
			</trkpt>
			<trkpt lat="50.910826" lon="14.206245">
				<ele>308.000000</ele>
			</trkpt>
			<trkpt lat="50.910741" lon="14.206300">
				<ele>308.000000</ele>
			</trkpt>
			<trkpt lat="50.910718" lon="14.206354">
				<ele>308.000000</ele>
			</trkpt>
			<trkpt lat="50.910730" lon="14.206478">
				<ele>308.000000</ele>
			</trkpt>
			<trkpt lat="50.910752" lon="14.206578">
				<ele>308.000000</ele>
			</trkpt>
			<trkpt lat="50.910735" lon="14.206658">
				<ele>308.000000</ele>
			</trkpt>
			<trkpt lat="50.910746" lon="14.206803">
				<ele>308.000000</ele>
			</trkpt>
			<trkpt lat="50.910786" lon="14.206954">
				<ele>309.000000</ele>
			</trkpt>
			<trkpt lat="50.910888" lon="14.207117">
				<ele>309.000000</ele>
			</trkpt>
			<trkpt lat="50.910962" lon="14.207233">
				<ele>309.000000</ele>
			</trkpt>
			<trkpt lat="50.911001" lon="14.207279">
				<ele>309.000000</ele>
			</trkpt>
			<trkpt lat="50.911019" lon="14.207386">
				<ele>309.000000</ele>
			</trkpt>
			<trkpt lat="50.910991" lon="14.207557">
				<ele>310.000000</ele>
			</trkpt>
			<trkpt lat="50.910973" lon="14.207683">
				<ele>310.000000</ele>
			</trkpt>
			<trkpt lat="50.910928" lon="14.207853">
				<ele>310.000000</ele>
			</trkpt>
			<trkpt lat="50.910888" lon="14.207979">
				<ele>310.000000</ele>
			</trkpt>
			<trkpt lat="50.910837" lon="14.208176">
				<ele>316.000000</ele>
			</trkpt>
			<trkpt lat="50.911030" lon="14.208149">
				<ele>323.000000</ele>
			</trkpt>
			<trkpt lat="50.910877" lon="14.208419">
				<ele>333.000000</ele>
			</trkpt>
			<trkpt lat="50.910934" lon="14.208446">
				<ele>335.000000</ele>
			</trkpt>
			<trkpt lat="50.910894" lon="14.208572">
				<ele>339.000000</ele>
			</trkpt>
			<trkpt lat="50.910928" lon="14.208599">
				<ele>341.000000</ele>
			</trkpt>
			<trkpt lat="50.910950" lon="14.208680">
				<ele>348.000000</ele>
			</trkpt>
			<trkpt lat="50.910968" lon="14.208742">
				<ele>352.000000</ele>
			</trkpt>
			<trkpt lat="50.910962" lon="14.208751">
				<ele>352.000000</ele>
			</trkpt>
			<trkpt lat="50.911001" lon="14.208878">
				<ele>357.000000</ele>
			</trkpt>
			<trkpt lat="50.910934" lon="14.208895">
				<ele>360.000000</ele>
			</trkpt>
			<trkpt lat="50.910894" lon="14.208878">
				<ele>364.000000</ele>
			</trkpt>
			<trkpt lat="50.910843" lon="14.208895">
				<ele>369.000000</ele>
			</trkpt>
			<trkpt lat="50.910803" lon="14.208950">
				<ele>371.000000</ele>
			</trkpt>
			<trkpt lat="50.910758" lon="14.208985">
				<ele>372.000000</ele>
			</trkpt>
			<trkpt lat="50.910718" lon="14.209021">
				<ele>373.000000</ele>
			</trkpt>
			<trkpt lat="50.910600" lon="14.209237">
				<ele>376.000000</ele>
			</trkpt>
			<trkpt lat="50.910543" lon="14.209380">
				<ele>378.000000</ele>
			</trkpt>
			<trkpt lat="50.910429" lon="14.209596">
				<ele>380.000000</ele>
			</trkpt>
			<trkpt lat="50.910424" lon="14.209866">
				<ele>381.000000</ele>
			</trkpt>
			<trkpt lat="50.910350" lon="14.210144">
				<ele>381.000000</ele>
			</trkpt>
			<trkpt lat="50.910322" lon="14.210342">
				<ele>382.000000</ele>
			</trkpt>
			<trkpt lat="50.910214" lon="14.210683">
				<ele>382.000000</ele>
			</trkpt>
			<trkpt lat="50.910158" lon="14.210971">
				<ele>383.000000</ele>
			</trkpt>
			<trkpt lat="50.910084" lon="14.211321">
				<ele>384.000000</ele>
			</trkpt>
			<trkpt lat="50.910056" lon="14.211510">
				<ele>384.000000</ele>
			</trkpt>
			<trkpt lat="50.910022" lon="14.211752">
				<ele>384.000000</ele>
			</trkpt>
			<trkpt lat="50.910016" lon="14.212084">
				<ele>385.000000</ele>
			</trkpt>
			<trkpt lat="50.909977" lon="14.212380">
				<ele>386.000000</ele>
			</trkpt>
			<trkpt lat="50.909863" lon="14.212776">
				<ele>386.000000</ele>
			</trkpt>
			<trkpt lat="50.909733" lon="14.213046">
				<ele>387.000000</ele>
			</trkpt>
			<trkpt lat="50.909625" lon="14.213306">
				<ele>388.000000</ele>
			</trkpt>
			<trkpt lat="50.909517" lon="14.213449">
				<ele>388.000000</ele>
			</trkpt>
			<trkpt lat="50.909415" lon="14.213512">
				<ele>388.000000</ele>
			</trkpt>
			<trkpt lat="50.909228" lon="14.213522">
				<ele>389.000000</ele>
			</trkpt>
			<trkpt lat="50.909155" lon="14.213594">
				<ele>389.000000</ele>
			</trkpt>
			<trkpt lat="50.909093" lon="14.213629">
				<ele>389.000000</ele>
			</trkpt>
			<trkpt lat="50.909053" lon="14.213665">
				<ele>389.000000</ele>
			</trkpt>
			<trkpt lat="50.908900" lon="14.213656">
				<ele>390.000000</ele>
			</trkpt>
			<trkpt lat="50.908809" lon="14.213738">
				<ele>390.000000</ele>
			</trkpt>
			<trkpt lat="50.908787" lon="14.213791">
				<ele>390.000000</ele>
			</trkpt>
			<trkpt lat="50.908758" lon="14.213854">
				<ele>390.000000</ele>
			</trkpt>
			<trkpt lat="50.908605" lon="14.214141">
				<ele>390.000000</ele>
			</trkpt>
			<trkpt lat="50.908560" lon="14.214348">
				<ele>390.000000</ele>
			</trkpt>
			<trkpt lat="50.908459" lon="14.215166">
				<ele>390.000000</ele>
			</trkpt>
			<trkpt lat="50.908322" lon="14.215678">
				<ele>390.000000</ele>
			</trkpt>
			<trkpt lat="50.908198" lon="14.216073">
				<ele>390.000000</ele>
			</trkpt>
			<trkpt lat="50.908107" lon="14.216325">
				<ele>390.000000</ele>
			</trkpt>
			<trkpt lat="50.908068" lon="14.216612">
				<ele>390.000000</ele>
			</trkpt>
			<trkpt lat="50.908101" lon="14.217034">
				<ele>390.000000</ele>
			</trkpt>
			<trkpt lat="50.908084" lon="14.217124">
				<ele>390.000000</ele>
			</trkpt>
			<trkpt lat="50.908017" lon="14.217304">
				<ele>390.000000</ele>
			</trkpt>
			<trkpt lat="50.907920" lon="14.217707">
				<ele>390.000000</ele>
			</trkpt>
			<trkpt lat="50.907943" lon="14.218013">
				<ele>390.000000</ele>
			</trkpt>
			<trkpt lat="50.907915" lon="14.218094">
				<ele>390.000000</ele>
			</trkpt>
			<trkpt lat="50.907795" lon="14.218238">
				<ele>390.000000</ele>
			</trkpt>
			<trkpt lat="50.907705" lon="14.218390">
				<ele>390.000000</ele>
			</trkpt>
			<trkpt lat="50.907671" lon="14.218462">
				<ele>390.000000</ele>
			</trkpt>
			<trkpt lat="50.907598" lon="14.218633">
				<ele>390.000000</ele>
			</trkpt>
			<trkpt lat="50.907490" lon="14.218866">
				<ele>390.000000</ele>
			</trkpt>
			<trkpt lat="50.907439" lon="14.218921">
				<ele>390.000000</ele>
			</trkpt>
			<trkpt lat="50.907348" lon="14.218956">
				<ele>390.000000</ele>
			</trkpt>
			<trkpt lat="50.907240" lon="14.218786">
				<ele>390.000000</ele>
			</trkpt>
			<trkpt lat="50.907212" lon="14.218696">
				<ele>390.000000</ele>
			</trkpt>
			<trkpt lat="50.907172" lon="14.218642">
				<ele>390.000000</ele>
			</trkpt>
			<trkpt lat="50.907105" lon="14.218660">
				<ele>390.000000</ele>
			</trkpt>
			<trkpt lat="50.907076" lon="14.218741">
				<ele>390.000000</ele>
			</trkpt>
			<trkpt lat="50.907099" lon="14.218866">
				<ele>390.000000</ele>
			</trkpt>
			<trkpt lat="50.907127" lon="14.218965">
				<ele>390.000000</ele>
			</trkpt>
			<trkpt lat="50.907116" lon="14.219118">
				<ele>390.000000</ele>
			</trkpt>
			<trkpt lat="50.907054" lon="14.219315">
				<ele>390.000000</ele>
			</trkpt>
			<trkpt lat="50.906957" lon="14.219694">
				<ele>390.000000</ele>
			</trkpt>
			<trkpt lat="50.906923" lon="14.220070">
				<ele>390.000000</ele>
			</trkpt>
			<trkpt lat="50.906895" lon="14.220178">
				<ele>390.000000</ele>
			</trkpt>
			<trkpt lat="50.906816" lon="14.220384">
				<ele>390.000000</ele>
			</trkpt>
			<trkpt lat="50.906674" lon="14.220573">
				<ele>390.000000</ele>
			</trkpt>
			<trkpt lat="50.906635" lon="14.220682">
				<ele>390.000000</ele>
			</trkpt>
			<trkpt lat="50.906600" lon="14.220950">
				<ele>390.000000</ele>
			</trkpt>
			<trkpt lat="50.906589" lon="14.221275">
				<ele>390.000000</ele>
			</trkpt>
			<trkpt lat="50.906566" lon="14.221525">
				<ele>390.000000</ele>
			</trkpt>
			<trkpt lat="50.906572" lon="14.221715">
				<ele>390.000000</ele>
			</trkpt>
			<trkpt lat="50.906555" lon="14.221858">
				<ele>390.000000</ele>
			</trkpt>
			<trkpt lat="50.906600" lon="14.221992">
				<ele>390.000000</ele>
			</trkpt>
			<trkpt lat="50.906674" lon="14.222047">
				<ele>390.000000</ele>
			</trkpt>
			<trkpt lat="50.906799" lon="14.222118">
				<ele>390.000000</ele>
			</trkpt>
			<trkpt lat="50.906946" lon="14.222200">
				<ele>390.000000</ele>
			</trkpt>
			<trkpt lat="50.907116" lon="14.222441">
				<ele>390.000000</ele>
			</trkpt>
			<trkpt lat="50.907286" lon="14.222676">
				<ele>390.000000</ele>
			</trkpt>
			<trkpt lat="50.907399" lon="14.222837">
				<ele>390.000000</ele>
			</trkpt>
			<trkpt lat="50.907455" lon="14.222927">
				<ele>390.000000</ele>
			</trkpt>
			<trkpt lat="50.907688" lon="14.222990">
				<ele>390.000000</ele>
			</trkpt>
			<trkpt lat="50.907818" lon="14.222973">
				<ele>390.000000</ele>
			</trkpt>
			<trkpt lat="50.907897" lon="14.222990">
				<ele>390.000000</ele>
			</trkpt>
			<trkpt lat="50.907988" lon="14.223080">
				<ele>390.000000</ele>
			</trkpt>
			<trkpt lat="50.908028" lon="14.223179">
				<ele>391.000000</ele>
			</trkpt>
			<trkpt lat="50.908056" lon="14.223296">
				<ele>391.000000</ele>
			</trkpt>
			<trkpt lat="50.908017" lon="14.223430">
				<ele>391.000000</ele>
			</trkpt>
			<trkpt lat="50.907948" lon="14.223565">
				<ele>391.000000</ele>
			</trkpt>
			<trkpt lat="50.907886" lon="14.223655">
				<ele>391.000000</ele>
			</trkpt>
			<trkpt lat="50.907852" lon="14.223718">
				<ele>392.000000</ele>
			</trkpt>
			<trkpt lat="50.907813" lon="14.223898">
				<ele>392.000000</ele>
			</trkpt>
			<trkpt lat="50.907773" lon="14.224346">
				<ele>392.000000</ele>
			</trkpt>
			<trkpt lat="50.907654" lon="14.224931">
				<ele>393.000000</ele>
			</trkpt>
			<trkpt lat="50.907535" lon="14.225388">
				<ele>394.000000</ele>
			</trkpt>
			<trkpt lat="50.907524" lon="14.225550">
				<ele>394.000000</ele>
			</trkpt>
			<trkpt lat="50.907541" lon="14.225810">
				<ele>395.000000</ele>
			</trkpt>
			<trkpt lat="50.907580" lon="14.226062">
				<ele>395.000000</ele>
			</trkpt>
			<trkpt lat="50.907677" lon="14.226189">
				<ele>395.000000</ele>
			</trkpt>
			<trkpt lat="50.907795" lon="14.226250">
				<ele>396.000000</ele>
			</trkpt>
			<trkpt lat="50.907841" lon="14.226332">
				<ele>396.000000</ele>
			</trkpt>
			<trkpt lat="50.907858" lon="14.226412">
				<ele>396.000000</ele>
			</trkpt>
			<trkpt lat="50.907858" lon="14.226556">
				<ele>396.000000</ele>
			</trkpt>
			<trkpt lat="50.907835" lon="14.226826">
				<ele>397.000000</ele>
			</trkpt>
			<trkpt lat="50.907773" lon="14.227078">
				<ele>397.000000</ele>
			</trkpt>
			<trkpt lat="50.907711" lon="14.227401">
				<ele>397.000000</ele>
			</trkpt>
			<trkpt lat="50.907660" lon="14.228120">
				<ele>398.000000</ele>
			</trkpt>
			<trkpt lat="50.907654" lon="14.228749">
				<ele>399.000000</ele>
			</trkpt>
			<trkpt lat="50.907699" lon="14.228919">
				<ele>400.000000</ele>
			</trkpt>
			<trkpt lat="50.907654" lon="14.229368">
				<ele>402.000000</ele>
			</trkpt>
			<trkpt lat="50.907592" lon="14.229674">
				<ele>405.000000</ele>
			</trkpt>
			<trkpt lat="50.907518" lon="14.230114">
				<ele>410.000000</ele>
			</trkpt>
			<trkpt lat="50.907512" lon="14.230294">
				<ele>410.000000</ele>
			</trkpt>
			<trkpt lat="50.907552" lon="14.230554">
				<ele>410.000000</ele>
			</trkpt>
			<trkpt lat="50.907569" lon="14.230688">
				<ele>410.000000</ele>
			</trkpt>
			<trkpt lat="50.907586" lon="14.230797">
				<ele>410.000000</ele>
			</trkpt>
			<trkpt lat="50.907586" lon="14.230931">
				<ele>410.000000</ele>
			</trkpt>
			<trkpt lat="50.907557" lon="14.231147">
				<ele>410.000000</ele>
			</trkpt>
			<trkpt lat="50.907501" lon="14.231299">
				<ele>410.000000</ele>
			</trkpt>
			<trkpt lat="50.907427" lon="14.231426">
				<ele>410.000000</ele>
			</trkpt>
			<trkpt lat="50.907320" lon="14.231523">
				<ele>410.000000</ele>
			</trkpt>
			<trkpt lat="50.907218" lon="14.231586">
				<ele>410.000000</ele>
			</trkpt>
			<trkpt lat="50.907082" lon="14.231668">
				<ele>410.000000</ele>
			</trkpt>
			<trkpt lat="50.906952" lon="14.231605">
				<ele>410.000000</ele>
			</trkpt>
			<trkpt lat="50.906799" lon="14.231586">
				<ele>410.000000</ele>
			</trkpt>
			<trkpt lat="50.906691" lon="14.231632">
				<ele>410.000000</ele>
			</trkpt>
			<trkpt lat="50.906657" lon="14.231695">
				<ele>410.000000</ele>
			</trkpt>
			<trkpt lat="50.906651" lon="14.231829">
				<ele>410.000000</ele>
			</trkpt>
			<trkpt lat="50.906640" lon="14.231991">
				<ele>410.000000</ele>
			</trkpt>
			<trkpt lat="50.906663" lon="14.232198">
				<ele>410.000000</ele>
			</trkpt>
			<trkpt lat="50.906702" lon="14.232296">
				<ele>410.000000</ele>
			</trkpt>
			<trkpt lat="50.906799" lon="14.232431">
				<ele>410.000000</ele>
			</trkpt>
			<trkpt lat="50.906850" lon="14.232504">
				<ele>410.000000</ele>
			</trkpt>
			<trkpt lat="50.906906" lon="14.232665">
				<ele>410.000000</ele>
			</trkpt>
			<trkpt lat="50.906929" lon="14.232835">
				<ele>410.000000</ele>
			</trkpt>
			<trkpt lat="50.906940" lon="14.233042">
				<ele>410.000000</ele>
			</trkpt>
			<trkpt lat="50.906985" lon="14.233105">
				<ele>410.000000</ele>
			</trkpt>
			<trkpt lat="50.907008" lon="14.233123">
				<ele>410.000000</ele>
			</trkpt>
			<trkpt lat="50.907008" lon="14.233123">
				<ele>410.000000</ele>
			</trkpt>
			<trkpt lat="50.907025" lon="14.233141">
				<ele>410.000000</ele>
			</trkpt>
			<trkpt lat="50.907059" lon="14.233456">
				<ele>409.000000</ele>
			</trkpt>
			<trkpt lat="50.906957" lon="14.233877">
				<ele>407.000000</ele>
			</trkpt>
			<trkpt lat="50.906912" lon="14.234139">
				<ele>406.000000</ele>
			</trkpt>
			<trkpt lat="50.906810" lon="14.234506">
				<ele>396.000000</ele>
			</trkpt>
			<trkpt lat="50.906781" lon="14.234416">
				<ele>393.000000</ele>
			</trkpt>
			<trkpt lat="50.906737" lon="14.234336">
				<ele>390.000000</ele>
			</trkpt>
			<trkpt lat="50.906702" lon="14.234236">
				<ele>383.000000</ele>
			</trkpt>
			<trkpt lat="50.906680" lon="14.234147">
				<ele>378.000000</ele>
			</trkpt>
			<trkpt lat="50.906635" lon="14.234003">
				<ele>373.000000</ele>
			</trkpt>
			<trkpt lat="50.906600" lon="14.234139">
				<ele>367.000000</ele>
			</trkpt>
			<trkpt lat="50.906594" lon="14.234309">
				<ele>361.000000</ele>
			</trkpt>
			<trkpt lat="50.906521" lon="14.234408">
				<ele>358.000000</ele>
			</trkpt>
			<trkpt lat="50.906464" lon="14.234408">
				<ele>357.000000</ele>
			</trkpt>
			<trkpt lat="50.906402" lon="14.234435">
				<ele>355.000000</ele>
			</trkpt>
			<trkpt lat="50.906255" lon="14.234443">
				<ele>351.000000</ele>
			</trkpt>
			<trkpt lat="50.906221" lon="14.234498">
				<ele>350.000000</ele>
			</trkpt>
			<trkpt lat="50.906181" lon="14.234533">
				<ele>349.000000</ele>
			</trkpt>
			<trkpt lat="50.906040" lon="14.234452">
				<ele>345.000000</ele>
			</trkpt>
			<trkpt lat="50.906000" lon="14.234416">
				<ele>344.000000</ele>
			</trkpt>
			<trkpt lat="50.905920" lon="14.234416">
				<ele>342.000000</ele>
			</trkpt>
			<trkpt lat="50.905898" lon="14.234336">
				<ele>341.000000</ele>
			</trkpt>
			<trkpt lat="50.905824" lon="14.234318">
				<ele>338.000000</ele>
			</trkpt>
			<trkpt lat="50.905700" lon="14.234336">
				<ele>332.000000</ele>
			</trkpt>
			<trkpt lat="50.905530" lon="14.234300">
				<ele>324.000000</ele>
			</trkpt>
			<trkpt lat="50.905399" lon="14.234156">
				<ele>318.000000</ele>
			</trkpt>
			<trkpt lat="50.905280" lon="14.233904">
				<ele>311.000000</ele>
			</trkpt>
			<trkpt lat="50.905082" lon="14.233896">
				<ele>307.000000</ele>
			</trkpt>
			<trkpt lat="50.904720" lon="14.233787">
				<ele>301.000000</ele>
			</trkpt>
			<trkpt lat="50.904346" lon="14.233536">
				<ele>295.000000</ele>
			</trkpt>
			<trkpt lat="50.904255" lon="14.233546">
				<ele>294.000000</ele>
			</trkpt>
			<trkpt lat="50.904074" lon="14.233689">
				<ele>290.000000</ele>
			</trkpt>
			<trkpt lat="50.903887" lon="14.233869">
				<ele>287.000000</ele>
			</trkpt>
			<trkpt lat="50.903547" lon="14.234479">
				<ele>279.000000</ele>
			</trkpt>
			<trkpt lat="50.903394" lon="14.234766">
				<ele>276.000000</ele>
			</trkpt>
			<trkpt lat="50.903224" lon="14.234848">
				<ele>274.000000</ele>
			</trkpt>
			<trkpt lat="50.902572" lon="14.235118">
				<ele>266.000000</ele>
			</trkpt>
			<trkpt lat="50.902080" lon="14.235521">
				<ele>259.000000</ele>
			</trkpt>
			<trkpt lat="50.902074" lon="14.235611">
				<ele>258.000000</ele>
			</trkpt>
			<trkpt lat="50.902051" lon="14.235747">
				<ele>258.000000</ele>
			</trkpt>
			<trkpt lat="50.901938" lon="14.236267">
				<ele>255.000000</ele>
			</trkpt>
			<trkpt lat="50.901848" lon="14.236940">
				<ele>251.000000</ele>
			</trkpt>
			<trkpt lat="50.901762" lon="14.237363">
				<ele>249.000000</ele>
			</trkpt>
			<trkpt lat="50.901672" lon="14.237651">
				<ele>248.000000</ele>
			</trkpt>
			<trkpt lat="50.901598" lon="14.237705">
				<ele>248.000000</ele>
			</trkpt>
			<trkpt lat="50.900946" lon="14.238370">
				<ele>244.000000</ele>
			</trkpt>
			<trkpt lat="50.900698" lon="14.238693">
				<ele>242.000000</ele>
			</trkpt>
			<trkpt lat="50.900494" lon="14.238917">
				<ele>241.000000</ele>
			</trkpt>
			<trkpt lat="50.900295" lon="14.239079">
				<ele>240.000000</ele>
			</trkpt>
			<trkpt lat="50.900103" lon="14.239024">
				<ele>239.000000</ele>
			</trkpt>
			<trkpt lat="50.899599" lon="14.239034">
				<ele>236.000000</ele>
			</trkpt>
			<trkpt lat="50.898970" lon="14.238963">
				<ele>233.000000</ele>
			</trkpt>
			<trkpt lat="50.898306" lon="14.238800">
				<ele>229.000000</ele>
			</trkpt>
			<trkpt lat="50.897575" lon="14.238540">
				<ele>223.000000</ele>
			</trkpt>
			<trkpt lat="50.897191" lon="14.238280">
				<ele>219.000000</ele>
			</trkpt>
			<trkpt lat="50.897015" lon="14.238108">
				<ele>217.000000</ele>
			</trkpt>
			<trkpt lat="50.896771" lon="14.237714">
				<ele>212.000000</ele>
			</trkpt>
			<trkpt lat="50.896465" lon="14.237309">
				<ele>206.000000</ele>
			</trkpt>
			<trkpt lat="50.896256" lon="14.237022">
				<ele>202.000000</ele>
			</trkpt>
			<trkpt lat="50.896046" lon="14.236762">
				<ele>198.000000</ele>
			</trkpt>
			<trkpt lat="50.895752" lon="14.236492">
				<ele>194.000000</ele>
			</trkpt>
			<trkpt lat="50.895564" lon="14.236410">
				<ele>192.000000</ele>
			</trkpt>
			<trkpt lat="50.894975" lon="14.236123">
				<ele>185.000000</ele>
			</trkpt>
			<trkpt lat="50.894783" lon="14.235997">
				<ele>182.000000</ele>
			</trkpt>
			<trkpt lat="50.894771" lon="14.235988">
				<ele>182.000000</ele>
			</trkpt>
			<trkpt lat="50.894295" lon="14.235575">
				<ele>174.000000</ele>
			</trkpt>
			<trkpt lat="50.893978" lon="14.235332">
				<ele>169.000000</ele>
			</trkpt>
			<trkpt lat="50.893638" lon="14.234965">
				<ele>162.000000</ele>
			</trkpt>
			<trkpt lat="50.893502" lon="14.234884">
				<ele>159.000000</ele>
			</trkpt>
			<trkpt lat="50.893258" lon="14.234705">
				<ele>155.000000</ele>
			</trkpt>
			<trkpt lat="50.893122" lon="14.234596">
				<ele>153.000000</ele>
			</trkpt>
			<trkpt lat="50.893071" lon="14.234542">
				<ele>152.000000</ele>
			</trkpt>
			<trkpt lat="50.893032" lon="14.234489">
				<ele>152.000000</ele>
			</trkpt>
			<trkpt lat="50.892992" lon="14.234426">
				<ele>151.000000</ele>
			</trkpt>
			<trkpt lat="50.892912" lon="14.234273">
				<ele>150.000000</ele>
			</trkpt>
			<trkpt lat="50.892850" lon="14.234156">
				<ele>149.000000</ele>
			</trkpt>
			<trkpt lat="50.892765" lon="14.233994">
				<ele>147.000000</ele>
			</trkpt>
			<trkpt lat="50.892703" lon="14.233896">
				<ele>147.000000</ele>
			</trkpt>
			<trkpt lat="50.892629" lon="14.233707">
				<ele>145.000000</ele>
			</trkpt>
			<trkpt lat="50.892550" lon="14.233483">
				<ele>144.000000</ele>
			</trkpt>
			<trkpt lat="50.892505" lon="14.233357">
				<ele>143.000000</ele>
			</trkpt>
			<trkpt lat="50.892471" lon="14.233204">
				<ele>142.000000</ele>
			</trkpt>
			<trkpt lat="50.892431" lon="14.232934">
				<ele>141.000000</ele>
			</trkpt>
			<trkpt lat="50.892391" lon="14.232755">
				<ele>140.000000</ele>
			</trkpt>
			<trkpt lat="50.892318" lon="14.232476">
				<ele>138.000000</ele>
			</trkpt>
			<trkpt lat="50.892290" lon="14.232378">
				<ele>137.000000</ele>
			</trkpt>
			<trkpt lat="50.892261" lon="14.232261">
				<ele>136.000000</ele>
			</trkpt>
			<trkpt lat="50.892221" lon="14.232126">
				<ele>135.000000</ele>
			</trkpt>
			<trkpt lat="50.892187" lon="14.232009">
				<ele>135.000000</ele>
			</trkpt>
			<trkpt lat="50.891853" lon="14.231479">
				<ele>130.000000</ele>
			</trkpt>
			<trkpt lat="50.891791" lon="14.231362">
				<ele>129.000000</ele>
			</trkpt>
			<trkpt lat="50.891756" lon="14.231309">
				<ele>129.000000</ele>
			</trkpt>
			<trkpt lat="50.891654" lon="14.231156">
				<ele>128.000000</ele>
			</trkpt>
			<trkpt lat="50.891536" lon="14.230913">
				<ele>126.000000</ele>
			</trkpt>
			<trkpt lat="50.891564" lon="14.230886">
				<ele>126.000000</ele>
			</trkpt>
			<trkpt lat="50.891592" lon="14.230833">
				<ele>125.000000</ele>
			</trkpt>
			<trkpt lat="50.891581" lon="14.230644">
				<ele>124.000000</ele>
			</trkpt>
			<trkpt lat="50.891575" lon="14.230455">
				<ele>123.000000</ele>
			</trkpt>
			<trkpt lat="50.891575" lon="14.230374">
				<ele>122.000000</ele>
			</trkpt>
			<trkpt lat="50.891610" lon="14.230294">
				<ele>122.000000</ele>
			</trkpt>
			<trkpt lat="50.891700" lon="14.230122">
				<ele>128.000000</ele>
			</trkpt>
			<trkpt lat="50.891807" lon="14.229961">
				<ele>134.000000</ele>
			</trkpt>
			<trkpt lat="50.891853" lon="14.229871">
				<ele>137.000000</ele>
			</trkpt>
			<trkpt lat="50.891887" lon="14.229791">
				<ele>140.000000</ele>
			</trkpt>
			<trkpt lat="50.891960" lon="14.229709">
				<ele>140.000000</ele>
			</trkpt>
			<trkpt lat="50.892000" lon="14.229808">
				<ele>121.000000</ele>
			</trkpt>
			<trkpt lat="50.892011" lon="14.229844">
				<ele>127.000000</ele>
			</trkpt>
			<trkpt lat="50.891983" lon="14.229871">
				<ele>127.000000</ele>
			</trkpt>
			<trkpt lat="50.891966" lon="14.229997">
				<ele>127.000000</ele>
			</trkpt>
			<trkpt lat="50.892006" lon="14.230105">
				<ele>127.000000</ele>
			</trkpt>
			<trkpt lat="50.892244" lon="14.229862">
				<ele>128.000000</ele>
			</trkpt>
		</trkseg>
	</trk>
</gpx>

