<?xml version="1.0" encoding="utf-8"?>
<gpx xmlns="http://www.topografix.com/GPX/1/1" version="1.1" creator="https://mapy.com/">
	<trk>
		<name>Route from Parkoviště Mšeno to Parkoviště Mšeno</name>
		<trkseg>
			<trkpt lat="50.443011" lon="14.629730">
				<ele>346.000000</ele>
			</trkpt>
			<trkpt lat="50.442965" lon="14.629747">
				<ele>345.000000</ele>
			</trkpt>
			<trkpt lat="50.442931" lon="14.629793">
				<ele>344.000000</ele>
			</trkpt>
			<trkpt lat="50.442885" lon="14.629854">
				<ele>343.000000</ele>
			</trkpt>
			<trkpt lat="50.442748" lon="14.630062">
				<ele>340.000000</ele>
			</trkpt>
			<trkpt lat="50.442588" lon="14.630232">
				<ele>340.000000</ele>
			</trkpt>
			<trkpt lat="50.442696" lon="14.630250">
				<ele>340.000000</ele>
			</trkpt>
			<trkpt lat="50.442805" lon="14.630206">
				<ele>340.000000</ele>
			</trkpt>
			<trkpt lat="50.443011" lon="14.630133">
				<ele>339.000000</ele>
			</trkpt>
			<trkpt lat="50.443103" lon="14.630116">
				<ele>339.000000</ele>
			</trkpt>
			<trkpt lat="50.443200" lon="14.630116">
				<ele>339.000000</ele>
			</trkpt>
			<trkpt lat="50.443343" lon="14.630124">
				<ele>339.000000</ele>
			</trkpt>
			<trkpt lat="50.443389" lon="14.630143">
				<ele>339.000000</ele>
			</trkpt>
			<trkpt lat="50.443400" lon="14.630169">
				<ele>339.000000</ele>
			</trkpt>
			<trkpt lat="50.443400" lon="14.630196">
				<ele>339.000000</ele>
			</trkpt>
			<trkpt lat="50.443514" lon="14.630097">
				<ele>339.000000</ele>
			</trkpt>
			<trkpt lat="50.443755" lon="14.629827">
				<ele>339.000000</ele>
			</trkpt>
			<trkpt lat="50.443880" lon="14.629720">
				<ele>340.000000</ele>
			</trkpt>
			<trkpt lat="50.444127" lon="14.629531">
				<ele>340.000000</ele>
			</trkpt>
			<trkpt lat="50.444762" lon="14.629101">
				<ele>340.000000</ele>
			</trkpt>
			<trkpt lat="50.445042" lon="14.628902">
				<ele>340.000000</ele>
			</trkpt>
			<trkpt lat="50.445168" lon="14.628795">
				<ele>340.000000</ele>
			</trkpt>
			<trkpt lat="50.445282" lon="14.628661">
				<ele>340.000000</ele>
			</trkpt>
			<trkpt lat="50.445391" lon="14.628508">
				<ele>340.000000</ele>
			</trkpt>
			<trkpt lat="50.445517" lon="14.628282">
				<ele>340.000000</ele>
			</trkpt>
			<trkpt lat="50.445551" lon="14.628211">
				<ele>340.000000</ele>
			</trkpt>
			<trkpt lat="50.445597" lon="14.628166">
				<ele>340.000000</ele>
			</trkpt>
			<trkpt lat="50.445757" lon="14.628022">
				<ele>341.000000</ele>
			</trkpt>
			<trkpt lat="50.445952" lon="14.627843">
				<ele>342.000000</ele>
			</trkpt>
			<trkpt lat="50.446329" lon="14.627474">
				<ele>343.000000</ele>
			</trkpt>
			<trkpt lat="50.446529" lon="14.627286">
				<ele>343.000000</ele>
			</trkpt>
			<trkpt lat="50.446987" lon="14.626873">
				<ele>345.000000</ele>
			</trkpt>
			<trkpt lat="50.447227" lon="14.626621">
				<ele>347.000000</ele>
			</trkpt>
			<trkpt lat="50.447462" lon="14.626378">
				<ele>348.000000</ele>
			</trkpt>
			<trkpt lat="50.447817" lon="14.626064">
				<ele>350.000000</ele>
			</trkpt>
			<trkpt lat="50.448034" lon="14.625894">
				<ele>351.000000</ele>
			</trkpt>
			<trkpt lat="50.448423" lon="14.625651">
				<ele>353.000000</ele>
			</trkpt>
			<trkpt lat="50.448549" lon="14.625552">
				<ele>354.000000</ele>
			</trkpt>
			<trkpt lat="50.448651" lon="14.625426">
				<ele>355.000000</ele>
			</trkpt>
			<trkpt lat="50.448743" lon="14.625273">
				<ele>355.000000</ele>
			</trkpt>
			<trkpt lat="50.448875" lon="14.624986">
				<ele>357.000000</ele>
			</trkpt>
			<trkpt lat="50.449384" lon="14.623900">
				<ele>362.000000</ele>
			</trkpt>
			<trkpt lat="50.449447" lon="14.623755">
				<ele>362.000000</ele>
			</trkpt>
			<trkpt lat="50.449504" lon="14.623611">
				<ele>363.000000</ele>
			</trkpt>
			<trkpt lat="50.449544" lon="14.623477">
				<ele>363.000000</ele>
			</trkpt>
			<trkpt lat="50.449601" lon="14.623252">
				<ele>364.000000</ele>
			</trkpt>
			<trkpt lat="50.449635" lon="14.623091">
				<ele>364.000000</ele>
			</trkpt>
			<trkpt lat="50.449670" lon="14.622965">
				<ele>365.000000</ele>
			</trkpt>
			<trkpt lat="50.449727" lon="14.622856">
				<ele>365.000000</ele>
			</trkpt>
			<trkpt lat="50.449784" lon="14.622713">
				<ele>366.000000</ele>
			</trkpt>
			<trkpt lat="50.449858" lon="14.622588">
				<ele>367.000000</ele>
			</trkpt>
			<trkpt lat="50.449956" lon="14.622489">
				<ele>369.000000</ele>
			</trkpt>
			<trkpt lat="50.450082" lon="14.622353">
				<ele>371.000000</ele>
			</trkpt>
			<trkpt lat="50.450179" lon="14.622273">
				<ele>372.000000</ele>
			</trkpt>
			<trkpt lat="50.450288" lon="14.622246">
				<ele>373.000000</ele>
			</trkpt>
			<trkpt lat="50.450413" lon="14.622229">
				<ele>375.000000</ele>
			</trkpt>
			<trkpt lat="50.450522" lon="14.622237">
				<ele>376.000000</ele>
			</trkpt>
			<trkpt lat="50.450620" lon="14.622210">
				<ele>379.000000</ele>
			</trkpt>
			<trkpt lat="50.450722" lon="14.622183">
				<ele>381.000000</ele>
			</trkpt>
			<trkpt lat="50.450871" lon="14.622112">
				<ele>383.000000</ele>
			</trkpt>
			<trkpt lat="50.451134" lon="14.621959">
				<ele>387.000000</ele>
			</trkpt>
			<trkpt lat="50.451294" lon="14.621887">
				<ele>389.000000</ele>
			</trkpt>
			<trkpt lat="50.451580" lon="14.621753">
				<ele>395.000000</ele>
			</trkpt>
			<trkpt lat="50.451580" lon="14.621753">
				<ele>395.000000</ele>
			</trkpt>
			<trkpt lat="50.451580" lon="14.621753">
				<ele>395.000000</ele>
			</trkpt>
			<trkpt lat="50.451558" lon="14.621600">
				<ele>395.000000</ele>
			</trkpt>
			<trkpt lat="50.451529" lon="14.621384">
				<ele>395.000000</ele>
			</trkpt>
			<trkpt lat="50.451466" lon="14.621231">
				<ele>395.000000</ele>
			</trkpt>
			<trkpt lat="50.451409" lon="14.621150">
				<ele>395.000000</ele>
			</trkpt>
			<trkpt lat="50.451317" lon="14.621070">
				<ele>395.000000</ele>
			</trkpt>
			<trkpt lat="50.451077" lon="14.620872">
				<ele>395.000000</ele>
			</trkpt>
			<trkpt lat="50.450699" lon="14.620504">
				<ele>395.000000</ele>
			</trkpt>
			<trkpt lat="50.450499" lon="14.620342">
				<ele>395.000000</ele>
			</trkpt>
			<trkpt lat="50.450373" lon="14.620243">
				<ele>395.000000</ele>
			</trkpt>
			<trkpt lat="50.450253" lon="14.620189">
				<ele>395.000000</ele>
			</trkpt>
			<trkpt lat="50.449795" lon="14.620036">
				<ele>395.000000</ele>
			</trkpt>
			<trkpt lat="50.449750" lon="14.619812">
				<ele>395.000000</ele>
			</trkpt>
			<trkpt lat="50.449732" lon="14.619632">
				<ele>394.000000</ele>
			</trkpt>
			<trkpt lat="50.449732" lon="14.619462">
				<ele>393.000000</ele>
			</trkpt>
			<trkpt lat="50.449756" lon="14.619273">
				<ele>392.000000</ele>
			</trkpt>
			<trkpt lat="50.449847" lon="14.619120">
				<ele>391.000000</ele>
			</trkpt>
			<trkpt lat="50.449915" lon="14.618967">
				<ele>389.000000</ele>
			</trkpt>
			<trkpt lat="50.449962" lon="14.618806">
				<ele>387.000000</ele>
			</trkpt>
			<trkpt lat="50.450024" lon="14.618581">
				<ele>385.000000</ele>
			</trkpt>
			<trkpt lat="50.450024" lon="14.618411">
				<ele>381.000000</ele>
			</trkpt>
			<trkpt lat="50.449996" lon="14.618275">
				<ele>378.000000</ele>
			</trkpt>
			<trkpt lat="50.449967" lon="14.618105">
				<ele>375.000000</ele>
			</trkpt>
			<trkpt lat="50.449933" lon="14.617889">
				<ele>370.000000</ele>
			</trkpt>
			<trkpt lat="50.449904" lon="14.617701">
				<ele>366.000000</ele>
			</trkpt>
			<trkpt lat="50.449876" lon="14.617584">
				<ele>364.000000</ele>
			</trkpt>
			<trkpt lat="50.449841" lon="14.617503">
				<ele>362.000000</ele>
			</trkpt>
			<trkpt lat="50.449790" lon="14.617413">
				<ele>360.000000</ele>
			</trkpt>
			<trkpt lat="50.449716" lon="14.617315">
				<ele>357.000000</ele>
			</trkpt>
			<trkpt lat="50.449641" lon="14.617216">
				<ele>354.000000</ele>
			</trkpt>
			<trkpt lat="50.449515" lon="14.617063">
				<ele>346.000000</ele>
			</trkpt>
			<trkpt lat="50.449464" lon="14.616982">
				<ele>343.000000</ele>
			</trkpt>
			<trkpt lat="50.449418" lon="14.616902">
				<ele>341.000000</ele>
			</trkpt>
			<trkpt lat="50.449378" lon="14.616784">
				<ele>340.000000</ele>
			</trkpt>
			<trkpt lat="50.449269" lon="14.616407">
				<ele>333.000000</ele>
			</trkpt>
			<trkpt lat="50.449223" lon="14.616308">
				<ele>331.000000</ele>
			</trkpt>
			<trkpt lat="50.449160" lon="14.616210">
				<ele>330.000000</ele>
			</trkpt>
			<trkpt lat="50.449035" lon="14.616030">
				<ele>326.000000</ele>
			</trkpt>
			<trkpt lat="50.448966" lon="14.615904">
				<ele>324.000000</ele>
			</trkpt>
			<trkpt lat="50.448909" lon="14.615761">
				<ele>323.000000</ele>
			</trkpt>
			<trkpt lat="50.448863" lon="14.615590">
				<ele>321.000000</ele>
			</trkpt>
			<trkpt lat="50.448812" lon="14.615382">
				<ele>320.000000</ele>
			</trkpt>
			<trkpt lat="50.448703" lon="14.615042">
				<ele>318.000000</ele>
			</trkpt>
			<trkpt lat="50.448646" lon="14.614879">
				<ele>317.000000</ele>
			</trkpt>
			<trkpt lat="50.448583" lon="14.614610">
				<ele>315.000000</ele>
			</trkpt>
			<trkpt lat="50.448543" lon="14.614440">
				<ele>314.000000</ele>
			</trkpt>
			<trkpt lat="50.448525" lon="14.614287">
				<ele>313.000000</ele>
			</trkpt>
			<trkpt lat="50.448525" lon="14.614134">
				<ele>312.000000</ele>
			</trkpt>
			<trkpt lat="50.448543" lon="14.613973">
				<ele>312.000000</ele>
			</trkpt>
			<trkpt lat="50.448588" lon="14.613837">
				<ele>311.000000</ele>
			</trkpt>
			<trkpt lat="50.449000" lon="14.612661">
				<ele>303.000000</ele>
			</trkpt>
			<trkpt lat="50.449149" lon="14.612239">
				<ele>300.000000</ele>
			</trkpt>
			<trkpt lat="50.449246" lon="14.611870">
				<ele>298.000000</ele>
			</trkpt>
			<trkpt lat="50.449280" lon="14.611719">
				<ele>298.000000</ele>
			</trkpt>
			<trkpt lat="50.449298" lon="14.611574">
				<ele>297.000000</ele>
			</trkpt>
			<trkpt lat="50.449309" lon="14.611457">
				<ele>297.000000</ele>
			</trkpt>
			<trkpt lat="50.449298" lon="14.611377">
				<ele>296.000000</ele>
			</trkpt>
			<trkpt lat="50.449246" lon="14.611036">
				<ele>295.000000</ele>
			</trkpt>
			<trkpt lat="50.449207" lon="14.610883">
				<ele>294.000000</ele>
			</trkpt>
			<trkpt lat="50.449172" lon="14.610774">
				<ele>294.000000</ele>
			</trkpt>
			<trkpt lat="50.449126" lon="14.610658">
				<ele>293.000000</ele>
			</trkpt>
			<trkpt lat="50.449075" lon="14.610550">
				<ele>293.000000</ele>
			</trkpt>
			<trkpt lat="50.448938" lon="14.610325">
				<ele>292.000000</ele>
			</trkpt>
			<trkpt lat="50.448943" lon="14.610155">
				<ele>292.000000</ele>
			</trkpt>
			<trkpt lat="50.448972" lon="14.610002">
				<ele>291.000000</ele>
			</trkpt>
			<trkpt lat="50.449006" lon="14.609876">
				<ele>291.000000</ele>
			</trkpt>
			<trkpt lat="50.449058" lon="14.609688">
				<ele>290.000000</ele>
			</trkpt>
			<trkpt lat="50.449103" lon="14.609545">
				<ele>290.000000</ele>
			</trkpt>
			<trkpt lat="50.449132" lon="14.609409">
				<ele>290.000000</ele>
			</trkpt>
			<trkpt lat="50.449149" lon="14.609248">
				<ele>289.000000</ele>
			</trkpt>
			<trkpt lat="50.449155" lon="14.609023">
				<ele>289.000000</ele>
			</trkpt>
			<trkpt lat="50.449166" lon="14.608889">
				<ele>289.000000</ele>
			</trkpt>
			<trkpt lat="50.449183" lon="14.608790">
				<ele>288.000000</ele>
			</trkpt>
			<trkpt lat="50.449212" lon="14.608673">
				<ele>288.000000</ele>
			</trkpt>
			<trkpt lat="50.449241" lon="14.608592">
				<ele>288.000000</ele>
			</trkpt>
			<trkpt lat="50.449241" lon="14.608592">
				<ele>288.000000</ele>
			</trkpt>
			<trkpt lat="50.449252" lon="14.608547">
				<ele>288.000000</ele>
			</trkpt>
			<trkpt lat="50.449293" lon="14.608493">
				<ele>287.000000</ele>
			</trkpt>
			<trkpt lat="50.449372" lon="14.608430">
				<ele>287.000000</ele>
			</trkpt>
			<trkpt lat="50.449435" lon="14.608376">
				<ele>287.000000</ele>
			</trkpt>
			<trkpt lat="50.449487" lon="14.608304">
				<ele>287.000000</ele>
			</trkpt>
			<trkpt lat="50.449533" lon="14.608233">
				<ele>286.000000</ele>
			</trkpt>
			<trkpt lat="50.449578" lon="14.608134">
				<ele>286.000000</ele>
			</trkpt>
			<trkpt lat="50.449727" lon="14.607784">
				<ele>285.000000</ele>
			</trkpt>
			<trkpt lat="50.449773" lon="14.607684">
				<ele>285.000000</ele>
			</trkpt>
			<trkpt lat="50.449887" lon="14.607397">
				<ele>285.000000</ele>
			</trkpt>
			<trkpt lat="50.450150" lon="14.606849">
				<ele>285.000000</ele>
			</trkpt>
			<trkpt lat="50.450253" lon="14.606598">
				<ele>285.000000</ele>
			</trkpt>
			<trkpt lat="50.450345" lon="14.606355">
				<ele>285.000000</ele>
			</trkpt>
			<trkpt lat="50.450373" lon="14.606229">
				<ele>284.000000</ele>
			</trkpt>
			<trkpt lat="50.450396" lon="14.606086">
				<ele>283.000000</ele>
			</trkpt>
			<trkpt lat="50.450425" lon="14.605834">
				<ele>281.000000</ele>
			</trkpt>
			<trkpt lat="50.450448" lon="14.605321">
				<ele>280.000000</ele>
			</trkpt>
			<trkpt lat="50.450459" lon="14.605061">
				<ele>280.000000</ele>
			</trkpt>
			<trkpt lat="50.450453" lon="14.604845">
				<ele>280.000000</ele>
			</trkpt>
			<trkpt lat="50.450430" lon="14.604604">
				<ele>281.000000</ele>
			</trkpt>
			<trkpt lat="50.450390" lon="14.604352">
				<ele>283.000000</ele>
			</trkpt>
			<trkpt lat="50.450282" lon="14.603795">
				<ele>285.000000</ele>
			</trkpt>
			<trkpt lat="50.450087" lon="14.602906">
				<ele>280.000000</ele>
			</trkpt>
			<trkpt lat="50.450064" lon="14.602753">
				<ele>280.000000</ele>
			</trkpt>
			<trkpt lat="50.450064" lon="14.602627">
				<ele>280.000000</ele>
			</trkpt>
			<trkpt lat="50.450082" lon="14.602484">
				<ele>279.000000</ele>
			</trkpt>
			<trkpt lat="50.450121" lon="14.602331">
				<ele>279.000000</ele>
			</trkpt>
			<trkpt lat="50.450196" lon="14.602105">
				<ele>278.000000</ele>
			</trkpt>
			<trkpt lat="50.450247" lon="14.601872">
				<ele>277.000000</ele>
			</trkpt>
			<trkpt lat="50.450276" lon="14.601711">
				<ele>277.000000</ele>
			</trkpt>
			<trkpt lat="50.450293" lon="14.601540">
				<ele>276.000000</ele>
			</trkpt>
			<trkpt lat="50.450293" lon="14.601379">
				<ele>276.000000</ele>
			</trkpt>
			<trkpt lat="50.450282" lon="14.601153">
				<ele>275.000000</ele>
			</trkpt>
			<trkpt lat="50.450282" lon="14.600974">
				<ele>275.000000</ele>
			</trkpt>
			<trkpt lat="50.450304" lon="14.600759">
				<ele>275.000000</ele>
			</trkpt>
			<trkpt lat="50.450402" lon="14.600363">
				<ele>275.000000</ele>
			</trkpt>
			<trkpt lat="50.450442" lon="14.600228">
				<ele>275.000000</ele>
			</trkpt>
			<trkpt lat="50.450493" lon="14.600103">
				<ele>275.000000</ele>
			</trkpt>
			<trkpt lat="50.450762" lon="14.599447">
				<ele>275.000000</ele>
			</trkpt>
			<trkpt lat="50.451031" lon="14.598881">
				<ele>273.000000</ele>
			</trkpt>
			<trkpt lat="50.451242" lon="14.598459">
				<ele>270.000000</ele>
			</trkpt>
			<trkpt lat="50.451289" lon="14.598379">
				<ele>269.000000</ele>
			</trkpt>
			<trkpt lat="50.451397" lon="14.598172">
				<ele>268.000000</ele>
			</trkpt>
			<trkpt lat="50.451558" lon="14.597910">
				<ele>267.000000</ele>
			</trkpt>
			<trkpt lat="50.451643" lon="14.597740">
				<ele>266.000000</ele>
			</trkpt>
			<trkpt lat="50.451717" lon="14.597570">
				<ele>265.000000</ele>
			</trkpt>
			<trkpt lat="50.451769" lon="14.597398">
				<ele>265.000000</ele>
			</trkpt>
			<trkpt lat="50.451866" lon="14.597031">
				<ele>265.000000</ele>
			</trkpt>
			<trkpt lat="50.451941" lon="14.596779">
				<ele>264.000000</ele>
			</trkpt>
			<trkpt lat="50.452004" lon="14.596608">
				<ele>263.000000</ele>
			</trkpt>
			<trkpt lat="50.452026" lon="14.596536">
				<ele>263.000000</ele>
			</trkpt>
			<trkpt lat="50.452055" lon="14.596455">
				<ele>263.000000</ele>
			</trkpt>
			<trkpt lat="50.452089" lon="14.596213">
				<ele>262.000000</ele>
			</trkpt>
			<trkpt lat="50.452118" lon="14.596087">
				<ele>261.000000</ele>
			</trkpt>
			<trkpt lat="50.452181" lon="14.595899">
				<ele>261.000000</ele>
			</trkpt>
			<trkpt lat="50.452250" lon="14.595719">
				<ele>260.000000</ele>
			</trkpt>
			<trkpt lat="50.452266" lon="14.595629">
				<ele>260.000000</ele>
			</trkpt>
			<trkpt lat="50.452278" lon="14.595530">
				<ele>260.000000</ele>
			</trkpt>
			<trkpt lat="50.452295" lon="14.595450">
				<ele>260.000000</ele>
			</trkpt>
			<trkpt lat="50.452358" lon="14.595306">
				<ele>260.000000</ele>
			</trkpt>
			<trkpt lat="50.452456" lon="14.595126">
				<ele>260.000000</ele>
			</trkpt>
			<trkpt lat="50.452506" lon="14.595054">
				<ele>260.000000</ele>
			</trkpt>
			<trkpt lat="50.452581" lon="14.594983">
				<ele>260.000000</ele>
			</trkpt>
			<trkpt lat="50.452838" lon="14.594821">
				<ele>260.000000</ele>
			</trkpt>
			<trkpt lat="50.452976" lon="14.594740">
				<ele>258.000000</ele>
			</trkpt>
			<trkpt lat="50.453056" lon="14.594668">
				<ele>257.000000</ele>
			</trkpt>
			<trkpt lat="50.453130" lon="14.594542">
				<ele>256.000000</ele>
			</trkpt>
			<trkpt lat="50.453182" lon="14.594398">
				<ele>254.000000</ele>
			</trkpt>
			<trkpt lat="50.453245" lon="14.594228">
				<ele>253.000000</ele>
			</trkpt>
			<trkpt lat="50.453394" lon="14.593851">
				<ele>250.000000</ele>
			</trkpt>
			<trkpt lat="50.453468" lon="14.593455">
				<ele>250.000000</ele>
			</trkpt>
			<trkpt lat="50.453536" lon="14.593033">
				<ele>249.000000</ele>
			</trkpt>
			<trkpt lat="50.453713" lon="14.592216">
				<ele>248.000000</ele>
			</trkpt>
			<trkpt lat="50.453794" lon="14.591784">
				<ele>248.000000</ele>
			</trkpt>
			<trkpt lat="50.453833" lon="14.591532">
				<ele>248.000000</ele>
			</trkpt>
			<trkpt lat="50.453891" lon="14.591335">
				<ele>247.000000</ele>
			</trkpt>
			<trkpt lat="50.453954" lon="14.591129">
				<ele>247.000000</ele>
			</trkpt>
			<trkpt lat="50.454039" lon="14.590859">
				<ele>247.000000</ele>
			</trkpt>
			<trkpt lat="50.454246" lon="14.590373">
				<ele>246.000000</ele>
			</trkpt>
			<trkpt lat="50.454308" lon="14.590203">
				<ele>246.000000</ele>
			</trkpt>
			<trkpt lat="50.454440" lon="14.589834">
				<ele>246.000000</ele>
			</trkpt>
			<trkpt lat="50.454486" lon="14.589683">
				<ele>245.000000</ele>
			</trkpt>
			<trkpt lat="50.454497" lon="14.589584">
				<ele>245.000000</ele>
			</trkpt>
			<trkpt lat="50.454503" lon="14.589484">
				<ele>245.000000</ele>
			</trkpt>
			<trkpt lat="50.454503" lon="14.589358">
				<ele>245.000000</ele>
			</trkpt>
			<trkpt lat="50.454491" lon="14.589215">
				<ele>245.000000</ele>
			</trkpt>
			<trkpt lat="50.454463" lon="14.588792">
				<ele>244.000000</ele>
			</trkpt>
			<trkpt lat="50.454457" lon="14.588641">
				<ele>244.000000</ele>
			</trkpt>
			<trkpt lat="50.454463" lon="14.588461">
				<ele>243.000000</ele>
			</trkpt>
			<trkpt lat="50.454491" lon="14.588263">
				<ele>243.000000</ele>
			</trkpt>
			<trkpt lat="50.454526" lon="14.588092">
				<ele>243.000000</ele>
			</trkpt>
			<trkpt lat="50.454595" lon="14.587903">
				<ele>242.000000</ele>
			</trkpt>
			<trkpt lat="50.454812" lon="14.587302">
				<ele>241.000000</ele>
			</trkpt>
			<trkpt lat="50.454857" lon="14.587176">
				<ele>241.000000</ele>
			</trkpt>
			<trkpt lat="50.454875" lon="14.587033">
				<ele>240.000000</ele>
			</trkpt>
			<trkpt lat="50.454875" lon="14.587033">
				<ele>240.000000</ele>
			</trkpt>
			<trkpt lat="50.454366" lon="14.586744">
				<ele>240.000000</ele>
			</trkpt>
			<trkpt lat="50.454314" lon="14.586708">
				<ele>240.000000</ele>
			</trkpt>
			<trkpt lat="50.454097" lon="14.586574">
				<ele>240.000000</ele>
			</trkpt>
			<trkpt lat="50.453988" lon="14.586520">
				<ele>240.000000</ele>
			</trkpt>
			<trkpt lat="50.453891" lon="14.586494">
				<ele>240.000000</ele>
			</trkpt>
			<trkpt lat="50.453776" lon="14.586502">
				<ele>240.000000</ele>
			</trkpt>
			<trkpt lat="50.453622" lon="14.586538">
				<ele>240.000000</ele>
			</trkpt>
			<trkpt lat="50.453519" lon="14.586538">
				<ele>240.000000</ele>
			</trkpt>
			<trkpt lat="50.453439" lon="14.586520">
				<ele>240.000000</ele>
			</trkpt>
			<trkpt lat="50.453353" lon="14.586494">
				<ele>240.000000</ele>
			</trkpt>
			<trkpt lat="50.453073" lon="14.586412">
				<ele>240.000000</ele>
			</trkpt>
			<trkpt lat="50.452844" lon="14.586377">
				<ele>240.000000</ele>
			</trkpt>
			<trkpt lat="50.452650" lon="14.586322">
				<ele>240.000000</ele>
			</trkpt>
			<trkpt lat="50.452530" lon="14.586278">
				<ele>240.000000</ele>
			</trkpt>
			<trkpt lat="50.452421" lon="14.586268">
				<ele>241.000000</ele>
			</trkpt>
			<trkpt lat="50.452318" lon="14.586232">
				<ele>242.000000</ele>
			</trkpt>
			<trkpt lat="50.452215" lon="14.586179">
				<ele>243.000000</ele>
			</trkpt>
			<trkpt lat="50.452055" lon="14.586052">
				<ele>244.000000</ele>
			</trkpt>
			<trkpt lat="50.451947" lon="14.585991">
				<ele>245.000000</ele>
			</trkpt>
			<trkpt lat="50.451849" lon="14.585972">
				<ele>246.000000</ele>
			</trkpt>
			<trkpt lat="50.451786" lon="14.585945">
				<ele>246.000000</ele>
			</trkpt>
			<trkpt lat="50.451740" lon="14.585901">
				<ele>247.000000</ele>
			</trkpt>
			<trkpt lat="50.451694" lon="14.585838">
				<ele>247.000000</ele>
			</trkpt>
			<trkpt lat="50.451620" lon="14.585694">
				<ele>248.000000</ele>
			</trkpt>
			<trkpt lat="50.451569" lon="14.585622">
				<ele>248.000000</ele>
			</trkpt>
			<trkpt lat="50.451511" lon="14.585541">
				<ele>249.000000</ele>
			</trkpt>
			<trkpt lat="50.451448" lon="14.585487">
				<ele>249.000000</ele>
			</trkpt>
			<trkpt lat="50.451386" lon="14.585442">
				<ele>250.000000</ele>
			</trkpt>
			<trkpt lat="50.451323" lon="14.585425">
				<ele>250.000000</ele>
			</trkpt>
			<trkpt lat="50.451260" lon="14.585433">
				<ele>248.000000</ele>
			</trkpt>
			<trkpt lat="50.451163" lon="14.585469">
				<ele>247.000000</ele>
			</trkpt>
			<trkpt lat="50.451054" lon="14.585532">
				<ele>245.000000</ele>
			</trkpt>
			<trkpt lat="50.450974" lon="14.585586">
				<ele>245.000000</ele>
			</trkpt>
			<trkpt lat="50.450717" lon="14.585855">
				<ele>245.000000</ele>
			</trkpt>
			<trkpt lat="50.450659" lon="14.585802">
				<ele>245.000000</ele>
			</trkpt>
			<trkpt lat="50.450631" lon="14.585756">
				<ele>245.000000</ele>
			</trkpt>
			<trkpt lat="50.450631" lon="14.585702">
				<ele>245.000000</ele>
			</trkpt>
			<trkpt lat="50.450642" lon="14.585631">
				<ele>245.000000</ele>
			</trkpt>
			<trkpt lat="50.450705" lon="14.585406">
				<ele>245.000000</ele>
			</trkpt>
			<trkpt lat="50.450791" lon="14.585163">
				<ele>245.000000</ele>
			</trkpt>
			<trkpt lat="50.450819" lon="14.585065">
				<ele>245.000000</ele>
			</trkpt>
			<trkpt lat="50.450825" lon="14.584966">
				<ele>245.000000</ele>
			</trkpt>
			<trkpt lat="50.450808" lon="14.584859">
				<ele>245.000000</ele>
			</trkpt>
			<trkpt lat="50.450774" lon="14.584769">
				<ele>245.000000</ele>
			</trkpt>
			<trkpt lat="50.450620" lon="14.584463">
				<ele>243.000000</ele>
			</trkpt>
			<trkpt lat="50.450482" lon="14.584157">
				<ele>240.000000</ele>
			</trkpt>
			<trkpt lat="50.450265" lon="14.583762">
				<ele>239.000000</ele>
			</trkpt>
			<trkpt lat="50.450156" lon="14.583555">
				<ele>239.000000</ele>
			</trkpt>
			<trkpt lat="50.450064" lon="14.583331">
				<ele>239.000000</ele>
			</trkpt>
			<trkpt lat="50.449985" lon="14.583062">
				<ele>238.000000</ele>
			</trkpt>
			<trkpt lat="50.449847" lon="14.582586">
				<ele>238.000000</ele>
			</trkpt>
			<trkpt lat="50.449830" lon="14.582523">
				<ele>237.000000</ele>
			</trkpt>
			<trkpt lat="50.449818" lon="14.582513">
				<ele>237.000000</ele>
			</trkpt>
			<trkpt lat="50.449675" lon="14.582190">
				<ele>237.000000</ele>
			</trkpt>
			<trkpt lat="50.449378" lon="14.581436">
				<ele>236.000000</ele>
			</trkpt>
			<trkpt lat="50.449350" lon="14.581364">
				<ele>236.000000</ele>
			</trkpt>
			<trkpt lat="50.449338" lon="14.581265">
				<ele>236.000000</ele>
			</trkpt>
			<trkpt lat="50.449350" lon="14.581175">
				<ele>235.000000</ele>
			</trkpt>
			<trkpt lat="50.449366" lon="14.581005">
				<ele>235.000000</ele>
			</trkpt>
			<trkpt lat="50.449384" lon="14.580726">
				<ele>235.000000</ele>
			</trkpt>
			<trkpt lat="50.449361" lon="14.580484">
				<ele>235.000000</ele>
			</trkpt>
			<trkpt lat="50.449327" lon="14.580259">
				<ele>235.000000</ele>
			</trkpt>
			<trkpt lat="50.449223" lon="14.579729">
				<ele>237.000000</ele>
			</trkpt>
			<trkpt lat="50.449189" lon="14.579576">
				<ele>237.000000</ele>
			</trkpt>
			<trkpt lat="50.449144" lon="14.579406">
				<ele>237.000000</ele>
			</trkpt>
			<trkpt lat="50.449109" lon="14.579262">
				<ele>238.000000</ele>
			</trkpt>
			<trkpt lat="50.449052" lon="14.579127">
				<ele>238.000000</ele>
			</trkpt>
			<trkpt lat="50.448989" lon="14.579001">
				<ele>239.000000</ele>
			</trkpt>
			<trkpt lat="50.448915" lon="14.578876">
				<ele>239.000000</ele>
			</trkpt>
			<trkpt lat="50.448680" lon="14.578498">
				<ele>240.000000</ele>
			</trkpt>
			<trkpt lat="50.448617" lon="14.578427">
				<ele>240.000000</ele>
			</trkpt>
			<trkpt lat="50.448320" lon="14.578184">
				<ele>240.000000</ele>
			</trkpt>
			<trkpt lat="50.448228" lon="14.578148">
				<ele>240.000000</ele>
			</trkpt>
			<trkpt lat="50.448143" lon="14.578102">
				<ele>240.000000</ele>
			</trkpt>
			<trkpt lat="50.448062" lon="14.578094">
				<ele>240.000000</ele>
			</trkpt>
			<trkpt lat="50.447971" lon="14.578094">
				<ele>239.000000</ele>
			</trkpt>
			<trkpt lat="50.447656" lon="14.578094">
				<ele>239.000000</ele>
			</trkpt>
			<trkpt lat="50.447467" lon="14.578112">
				<ele>239.000000</ele>
			</trkpt>
			<trkpt lat="50.447342" lon="14.578112">
				<ele>239.000000</ele>
			</trkpt>
			<trkpt lat="50.447302" lon="14.578094">
				<ele>239.000000</ele>
			</trkpt>
			<trkpt lat="50.447261" lon="14.578068">
				<ele>239.000000</ele>
			</trkpt>
			<trkpt lat="50.447135" lon="14.577968">
				<ele>239.000000</ele>
			</trkpt>
			<trkpt lat="50.447090" lon="14.577959">
				<ele>239.000000</ele>
			</trkpt>
			<trkpt lat="50.447044" lon="14.577959">
				<ele>239.000000</ele>
			</trkpt>
			<trkpt lat="50.446541" lon="14.577959">
				<ele>238.000000</ele>
			</trkpt>
			<trkpt lat="50.446294" lon="14.577978">
				<ele>238.000000</ele>
			</trkpt>
			<trkpt lat="50.446123" lon="14.577968">
				<ele>238.000000</ele>
			</trkpt>
			<trkpt lat="50.445980" lon="14.577941">
				<ele>238.000000</ele>
			</trkpt>
			<trkpt lat="50.445894" lon="14.577923">
				<ele>238.000000</ele>
			</trkpt>
			<trkpt lat="50.445757" lon="14.577941">
				<ele>237.000000</ele>
			</trkpt>
			<trkpt lat="50.445517" lon="14.578004">
				<ele>237.000000</ele>
			</trkpt>
			<trkpt lat="50.445299" lon="14.578058">
				<ele>237.000000</ele>
			</trkpt>
			<trkpt lat="50.444904" lon="14.578202">
				<ele>237.000000</ele>
			</trkpt>
			<trkpt lat="50.444779" lon="14.578228">
				<ele>236.000000</ele>
			</trkpt>
			<trkpt lat="50.444653" lon="14.578238">
				<ele>236.000000</ele>
			</trkpt>
			<trkpt lat="50.444418" lon="14.578238">
				<ele>236.000000</ele>
			</trkpt>
			<trkpt lat="50.444344" lon="14.578247">
				<ele>236.000000</ele>
			</trkpt>
			<trkpt lat="50.444258" lon="14.578282">
				<ele>236.000000</ele>
			</trkpt>
			<trkpt lat="50.443841" lon="14.578462">
				<ele>236.000000</ele>
			</trkpt>
			<trkpt lat="50.443634" lon="14.578570">
				<ele>235.000000</ele>
			</trkpt>
			<trkpt lat="50.443492" lon="14.578668">
				<ele>235.000000</ele>
			</trkpt>
			<trkpt lat="50.443268" lon="14.578867">
				<ele>235.000000</ele>
			</trkpt>
			<trkpt lat="50.443114" lon="14.578947">
				<ele>235.000000</ele>
			</trkpt>
			<trkpt lat="50.442983" lon="14.579010">
				<ele>235.000000</ele>
			</trkpt>
			<trkpt lat="50.442891" lon="14.579083">
				<ele>235.000000</ele>
			</trkpt>
			<trkpt lat="50.442811" lon="14.579154">
				<ele>235.000000</ele>
			</trkpt>
			<trkpt lat="50.442719" lon="14.579280">
				<ele>235.000000</ele>
			</trkpt>
			<trkpt lat="50.442525" lon="14.579477">
				<ele>235.000000</ele>
			</trkpt>
			<trkpt lat="50.442370" lon="14.579603">
				<ele>235.000000</ele>
			</trkpt>
			<trkpt lat="50.442095" lon="14.579810">
				<ele>235.000000</ele>
			</trkpt>
			<trkpt lat="50.441564" lon="14.580178">
				<ele>235.000000</ele>
			</trkpt>
			<trkpt lat="50.441198" lon="14.580421">
				<ele>235.000000</ele>
			</trkpt>
			<trkpt lat="50.440917" lon="14.580591">
				<ele>235.000000</ele>
			</trkpt>
			<trkpt lat="50.440746" lon="14.580672">
				<ele>235.000000</ele>
			</trkpt>
			<trkpt lat="50.440579" lon="14.580735">
				<ele>235.000000</ele>
			</trkpt>
			<trkpt lat="50.440380" lon="14.580762">
				<ele>235.000000</ele>
			</trkpt>
			<trkpt lat="50.440328" lon="14.580752">
				<ele>235.000000</ele>
			</trkpt>
			<trkpt lat="50.440282" lon="14.580726">
				<ele>235.000000</ele>
			</trkpt>
			<trkpt lat="50.440288" lon="14.580681">
				<ele>235.000000</ele>
			</trkpt>
			<trkpt lat="50.440299" lon="14.580636">
				<ele>235.000000</ele>
			</trkpt>
			<trkpt lat="50.440288" lon="14.580601">
				<ele>235.000000</ele>
			</trkpt>
			<trkpt lat="50.440208" lon="14.580502">
				<ele>235.000000</ele>
			</trkpt>
			<trkpt lat="50.440402" lon="14.580133">
				<ele>235.000000</ele>
			</trkpt>
			<trkpt lat="50.440608" lon="14.579666">
				<ele>235.000000</ele>
			</trkpt>
			<trkpt lat="50.440574" lon="14.579523">
				<ele>235.000000</ele>
			</trkpt>
			<trkpt lat="50.440517" lon="14.579414">
				<ele>236.000000</ele>
			</trkpt>
			<trkpt lat="50.440482" lon="14.579387">
				<ele>236.000000</ele>
			</trkpt>
			<trkpt lat="50.440448" lon="14.579352">
				<ele>236.000000</ele>
			</trkpt>
			<trkpt lat="50.440351" lon="14.579370">
				<ele>236.000000</ele>
			</trkpt>
			<trkpt lat="50.440042" lon="14.579441">
				<ele>238.000000</ele>
			</trkpt>
			<trkpt lat="50.439991" lon="14.579441">
				<ele>238.000000</ele>
			</trkpt>
			<trkpt lat="50.439933" lon="14.579433">
				<ele>238.000000</ele>
			</trkpt>
			<trkpt lat="50.439882" lon="14.579387">
				<ele>238.000000</ele>
			</trkpt>
			<trkpt lat="50.439836" lon="14.579334">
				<ele>239.000000</ele>
			</trkpt>
			<trkpt lat="50.439779" lon="14.579234">
				<ele>239.000000</ele>
			</trkpt>
			<trkpt lat="50.439756" lon="14.579110">
				<ele>239.000000</ele>
			</trkpt>
			<trkpt lat="50.439653" lon="14.578121">
				<ele>244.000000</ele>
			</trkpt>
			<trkpt lat="50.439578" lon="14.577205">
				<ele>249.000000</ele>
			</trkpt>
			<trkpt lat="50.439521" lon="14.576280">
				<ele>254.000000</ele>
			</trkpt>
			<trkpt lat="50.439561" lon="14.576136">
				<ele>257.000000</ele>
			</trkpt>
			<trkpt lat="50.439607" lon="14.575928">
				<ele>262.000000</ele>
			</trkpt>
			<trkpt lat="50.439641" lon="14.575731">
				<ele>268.000000</ele>
			</trkpt>
			<trkpt lat="50.439670" lon="14.575534">
				<ele>272.000000</ele>
			</trkpt>
			<trkpt lat="50.439733" lon="14.575632">
				<ele>277.000000</ele>
			</trkpt>
			<trkpt lat="50.439824" lon="14.575731">
				<ele>283.000000</ele>
			</trkpt>
			<trkpt lat="50.439939" lon="14.575821">
				<ele>289.000000</ele>
			</trkpt>
			<trkpt lat="50.440099" lon="14.575920">
				<ele>296.000000</ele>
			</trkpt>
			<trkpt lat="50.440139" lon="14.576144">
				<ele>298.000000</ele>
			</trkpt>
			<trkpt lat="50.440156" lon="14.576244">
				<ele>299.000000</ele>
			</trkpt>
			<trkpt lat="50.440168" lon="14.576360">
				<ele>300.000000</ele>
			</trkpt>
			<trkpt lat="50.440202" lon="14.576433">
				<ele>303.000000</ele>
			</trkpt>
			<trkpt lat="50.440219" lon="14.576494">
				<ele>305.000000</ele>
			</trkpt>
			<trkpt lat="50.440242" lon="14.576666">
				<ele>309.000000</ele>
			</trkpt>
			<trkpt lat="50.440260" lon="14.576729">
				<ele>309.000000</ele>
			</trkpt>
			<trkpt lat="50.440260" lon="14.576729">
				<ele>309.000000</ele>
			</trkpt>
			<trkpt lat="50.440242" lon="14.576666">
				<ele>309.000000</ele>
			</trkpt>
			<trkpt lat="50.440219" lon="14.576494">
				<ele>305.000000</ele>
			</trkpt>
			<trkpt lat="50.440202" lon="14.576433">
				<ele>303.000000</ele>
			</trkpt>
			<trkpt lat="50.440168" lon="14.576360">
				<ele>300.000000</ele>
			</trkpt>
			<trkpt lat="50.440156" lon="14.576244">
				<ele>299.000000</ele>
			</trkpt>
			<trkpt lat="50.440139" lon="14.576144">
				<ele>298.000000</ele>
			</trkpt>
			<trkpt lat="50.440099" lon="14.575920">
				<ele>296.000000</ele>
			</trkpt>
			<trkpt lat="50.439939" lon="14.575821">
				<ele>289.000000</ele>
			</trkpt>
			<trkpt lat="50.439824" lon="14.575731">
				<ele>283.000000</ele>
			</trkpt>
			<trkpt lat="50.439733" lon="14.575632">
				<ele>277.000000</ele>
			</trkpt>
			<trkpt lat="50.439670" lon="14.575534">
				<ele>272.000000</ele>
			</trkpt>
			<trkpt lat="50.439641" lon="14.575731">
				<ele>268.000000</ele>
			</trkpt>
			<trkpt lat="50.439607" lon="14.575928">
				<ele>262.000000</ele>
			</trkpt>
			<trkpt lat="50.439561" lon="14.576136">
				<ele>257.000000</ele>
			</trkpt>
			<trkpt lat="50.439521" lon="14.576280">
				<ele>254.000000</ele>
			</trkpt>
			<trkpt lat="50.439578" lon="14.577205">
				<ele>249.000000</ele>
			</trkpt>
			<trkpt lat="50.439653" lon="14.578121">
				<ele>244.000000</ele>
			</trkpt>
			<trkpt lat="50.439756" lon="14.579110">
				<ele>239.000000</ele>
			</trkpt>
			<trkpt lat="50.439779" lon="14.579234">
				<ele>239.000000</ele>
			</trkpt>
			<trkpt lat="50.439836" lon="14.579334">
				<ele>239.000000</ele>
			</trkpt>
			<trkpt lat="50.439882" lon="14.579387">
				<ele>238.000000</ele>
			</trkpt>
			<trkpt lat="50.439933" lon="14.579433">
				<ele>238.000000</ele>
			</trkpt>
			<trkpt lat="50.439991" lon="14.579441">
				<ele>238.000000</ele>
			</trkpt>
			<trkpt lat="50.440042" lon="14.579441">
				<ele>238.000000</ele>
			</trkpt>
			<trkpt lat="50.440351" lon="14.579370">
				<ele>236.000000</ele>
			</trkpt>
			<trkpt lat="50.440448" lon="14.579352">
				<ele>236.000000</ele>
			</trkpt>
			<trkpt lat="50.440482" lon="14.579387">
				<ele>236.000000</ele>
			</trkpt>
			<trkpt lat="50.440517" lon="14.579414">
				<ele>236.000000</ele>
			</trkpt>
			<trkpt lat="50.440574" lon="14.579523">
				<ele>235.000000</ele>
			</trkpt>
			<trkpt lat="50.440608" lon="14.579666">
				<ele>235.000000</ele>
			</trkpt>
			<trkpt lat="50.440402" lon="14.580133">
				<ele>235.000000</ele>
			</trkpt>
			<trkpt lat="50.440208" lon="14.580502">
				<ele>235.000000</ele>
			</trkpt>
			<trkpt lat="50.440127" lon="14.580609">
				<ele>235.000000</ele>
			</trkpt>
			<trkpt lat="50.440048" lon="14.580699">
				<ele>235.000000</ele>
			</trkpt>
			<trkpt lat="50.439973" lon="14.580752">
				<ele>235.000000</ele>
			</trkpt>
			<trkpt lat="50.439905" lon="14.580798">
				<ele>235.000000</ele>
			</trkpt>
			<trkpt lat="50.439813" lon="14.580842">
				<ele>235.000000</ele>
			</trkpt>
			<trkpt lat="50.439618" lon="14.580897">
				<ele>235.000000</ele>
			</trkpt>
			<trkpt lat="50.439492" lon="14.580915">
				<ele>235.000000</ele>
			</trkpt>
			<trkpt lat="50.439384" lon="14.580924">
				<ele>235.000000</ele>
			</trkpt>
			<trkpt lat="50.439115" lon="14.580905">
				<ele>235.000000</ele>
			</trkpt>
			<trkpt lat="50.438715" lon="14.580834">
				<ele>235.000000</ele>
			</trkpt>
			<trkpt lat="50.438394" lon="14.580771">
				<ele>235.000000</ele>
			</trkpt>
			<trkpt lat="50.438446" lon="14.580249">
				<ele>235.000000</ele>
			</trkpt>
			<trkpt lat="50.438468" lon="14.580052">
				<ele>235.000000</ele>
			</trkpt>
			<trkpt lat="50.438497" lon="14.579863">
				<ele>235.000000</ele>
			</trkpt>
			<trkpt lat="50.438446" lon="14.579810">
				<ele>235.000000</ele>
			</trkpt>
			<trkpt lat="50.438342" lon="14.579729">
				<ele>235.000000</ele>
			</trkpt>
			<trkpt lat="50.438291" lon="14.579666">
				<ele>235.000000</ele>
			</trkpt>
			<trkpt lat="50.438182" lon="14.579513">
				<ele>235.000000</ele>
			</trkpt>
			<trkpt lat="50.438137" lon="14.579477">
				<ele>235.000000</ele>
			</trkpt>
			<trkpt lat="50.438091" lon="14.579460">
				<ele>235.000000</ele>
			</trkpt>
			<trkpt lat="50.437536" lon="14.579379">
				<ele>235.000000</ele>
			</trkpt>
			<trkpt lat="50.437398" lon="14.579370">
				<ele>235.000000</ele>
			</trkpt>
			<trkpt lat="50.437273" lon="14.579324">
				<ele>235.000000</ele>
			</trkpt>
			<trkpt lat="50.437153" lon="14.579270">
				<ele>235.000000</ele>
			</trkpt>
			<trkpt lat="50.436918" lon="14.579144">
				<ele>235.000000</ele>
			</trkpt>
			<trkpt lat="50.436803" lon="14.579091">
				<ele>235.000000</ele>
			</trkpt>
			<trkpt lat="50.436706" lon="14.579083">
				<ele>235.000000</ele>
			</trkpt>
			<trkpt lat="50.436603" lon="14.579091">
				<ele>235.000000</ele>
			</trkpt>
			<trkpt lat="50.436478" lon="14.579154">
				<ele>235.000000</ele>
			</trkpt>
			<trkpt lat="50.436266" lon="14.579234">
				<ele>235.000000</ele>
			</trkpt>
			<trkpt lat="50.436031" lon="14.579280">
				<ele>235.000000</ele>
			</trkpt>
			<trkpt lat="50.435951" lon="14.579307">
				<ele>235.000000</ele>
			</trkpt>
			<trkpt lat="50.435888" lon="14.579343">
				<ele>235.000000</ele>
			</trkpt>
			<trkpt lat="50.435699" lon="14.579496">
				<ele>235.000000</ele>
			</trkpt>
			<trkpt lat="50.434778" lon="14.580241">
				<ele>235.000000</ele>
			</trkpt>
			<trkpt lat="50.434486" lon="14.580573">
				<ele>235.000000</ele>
			</trkpt>
			<trkpt lat="50.434337" lon="14.580762">
				<ele>235.000000</ele>
			</trkpt>
			<trkpt lat="50.434212" lon="14.580878">
				<ele>235.000000</ele>
			</trkpt>
			<trkpt lat="50.433943" lon="14.581022">
				<ele>235.000000</ele>
			</trkpt>
			<trkpt lat="50.433720" lon="14.581104">
				<ele>235.000000</ele>
			</trkpt>
			<trkpt lat="50.433490" lon="14.581148">
				<ele>236.000000</ele>
			</trkpt>
			<trkpt lat="50.433216" lon="14.581167">
				<ele>238.000000</ele>
			</trkpt>
			<trkpt lat="50.433090" lon="14.581148">
				<ele>239.000000</ele>
			</trkpt>
			<trkpt lat="50.432964" lon="14.581112">
				<ele>239.000000</ele>
			</trkpt>
			<trkpt lat="50.432855" lon="14.581058">
				<ele>240.000000</ele>
			</trkpt>
			<trkpt lat="50.432621" lon="14.580888">
				<ele>240.000000</ele>
			</trkpt>
			<trkpt lat="50.432140" lon="14.580573">
				<ele>238.000000</ele>
			</trkpt>
			<trkpt lat="50.431820" lon="14.580402">
				<ele>237.000000</ele>
			</trkpt>
			<trkpt lat="50.431294" lon="14.580169">
				<ele>235.000000</ele>
			</trkpt>
			<trkpt lat="50.430744" lon="14.579980">
				<ele>235.000000</ele>
			</trkpt>
			<trkpt lat="50.430349" lon="14.579899">
				<ele>235.000000</ele>
			</trkpt>
			<trkpt lat="50.430252" lon="14.579855">
				<ele>235.000000</ele>
			</trkpt>
			<trkpt lat="50.430131" lon="14.579783">
				<ele>235.000000</ele>
			</trkpt>
			<trkpt lat="50.429977" lon="14.579675">
				<ele>235.000000</ele>
			</trkpt>
			<trkpt lat="50.429880" lon="14.579621">
				<ele>235.000000</ele>
			</trkpt>
			<trkpt lat="50.429846" lon="14.579873">
				<ele>235.000000</ele>
			</trkpt>
			<trkpt lat="50.429817" lon="14.580125">
				<ele>235.000000</ele>
			</trkpt>
			<trkpt lat="50.429794" lon="14.580789">
				<ele>235.000000</ele>
			</trkpt>
			<trkpt lat="50.429594" lon="14.580672">
				<ele>235.000000</ele>
			</trkpt>
			<trkpt lat="50.429405" lon="14.580591">
				<ele>235.000000</ele>
			</trkpt>
			<trkpt lat="50.428787" lon="14.580358">
				<ele>235.000000</ele>
			</trkpt>
			<trkpt lat="50.428495" lon="14.580249">
				<ele>235.000000</ele>
			</trkpt>
			<trkpt lat="50.428266" lon="14.580169">
				<ele>235.000000</ele>
			</trkpt>
			<trkpt lat="50.428083" lon="14.580089">
				<ele>235.000000</ele>
			</trkpt>
			<trkpt lat="50.427923" lon="14.579972">
				<ele>235.000000</ele>
			</trkpt>
			<trkpt lat="50.427768" lon="14.579836">
				<ele>235.000000</ele>
			</trkpt>
			<trkpt lat="50.427659" lon="14.579972">
				<ele>235.000000</ele>
			</trkpt>
			<trkpt lat="50.427471" lon="14.580358">
				<ele>235.000000</ele>
			</trkpt>
			<trkpt lat="50.427288" lon="14.580771">
				<ele>236.000000</ele>
			</trkpt>
			<trkpt lat="50.427213" lon="14.580932">
				<ele>236.000000</ele>
			</trkpt>
			<trkpt lat="50.427162" lon="14.581104">
				<ele>236.000000</ele>
			</trkpt>
			<trkpt lat="50.427082" lon="14.581427">
				<ele>237.000000</ele>
			</trkpt>
			<trkpt lat="50.427013" lon="14.581794">
				<ele>237.000000</ele>
			</trkpt>
			<trkpt lat="50.426956" lon="14.582209">
				<ele>237.000000</ele>
			</trkpt>
			<trkpt lat="50.426916" lon="14.582657">
				<ele>238.000000</ele>
			</trkpt>
			<trkpt lat="50.426778" lon="14.584499">
				<ele>240.000000</ele>
			</trkpt>
			<trkpt lat="50.426773" lon="14.584886">
				<ele>242.000000</ele>
			</trkpt>
			<trkpt lat="50.426789" lon="14.584913">
				<ele>242.000000</ele>
			</trkpt>
			<trkpt lat="50.426807" lon="14.584966">
				<ele>242.000000</ele>
			</trkpt>
			<trkpt lat="50.426836" lon="14.585047">
				<ele>242.000000</ele>
			</trkpt>
			<trkpt lat="50.426841" lon="14.585136">
				<ele>242.000000</ele>
			</trkpt>
			<trkpt lat="50.426881" lon="14.585469">
				<ele>242.000000</ele>
			</trkpt>
			<trkpt lat="50.426933" lon="14.585784">
				<ele>242.000000</ele>
			</trkpt>
			<trkpt lat="50.426961" lon="14.585892">
				<ele>242.000000</ele>
			</trkpt>
			<trkpt lat="50.426990" lon="14.585981">
				<ele>242.000000</ele>
			</trkpt>
			<trkpt lat="50.427024" lon="14.586062">
				<ele>242.000000</ele>
			</trkpt>
			<trkpt lat="50.427082" lon="14.586161">
				<ele>242.000000</ele>
			</trkpt>
			<trkpt lat="50.427282" lon="14.586494">
				<ele>242.000000</ele>
			</trkpt>
			<trkpt lat="50.427471" lon="14.586834">
				<ele>243.000000</ele>
			</trkpt>
			<trkpt lat="50.427522" lon="14.586934">
				<ele>243.000000</ele>
			</trkpt>
			<trkpt lat="50.427568" lon="14.587060">
				<ele>243.000000</ele>
			</trkpt>
			<trkpt lat="50.427694" lon="14.587481">
				<ele>243.000000</ele>
			</trkpt>
			<trkpt lat="50.427751" lon="14.587679">
				<ele>243.000000</ele>
			</trkpt>
			<trkpt lat="50.427814" lon="14.588002">
				<ele>243.000000</ele>
			</trkpt>
			<trkpt lat="50.428037" lon="14.589000">
				<ele>244.000000</ele>
			</trkpt>
			<trkpt lat="50.428089" lon="14.589297">
				<ele>244.000000</ele>
			</trkpt>
			<trkpt lat="50.428151" lon="14.589700">
				<ele>244.000000</ele>
			</trkpt>
			<trkpt lat="50.428203" lon="14.590132">
				<ele>244.000000</ele>
			</trkpt>
			<trkpt lat="50.428209" lon="14.590329">
				<ele>244.000000</ele>
			</trkpt>
			<trkpt lat="50.428237" lon="14.590842">
				<ele>245.000000</ele>
			</trkpt>
			<trkpt lat="50.428249" lon="14.591272">
				<ele>245.000000</ele>
			</trkpt>
			<trkpt lat="50.428249" lon="14.591272">
				<ele>245.000000</ele>
			</trkpt>
			<trkpt lat="50.428249" lon="14.591272">
				<ele>245.000000</ele>
			</trkpt>
			<trkpt lat="50.428232" lon="14.591658">
				<ele>245.000000</ele>
			</trkpt>
			<trkpt lat="50.428209" lon="14.592081">
				<ele>245.000000</ele>
			</trkpt>
			<trkpt lat="50.428175" lon="14.592450">
				<ele>245.000000</ele>
			</trkpt>
			<trkpt lat="50.428146" lon="14.592871">
				<ele>245.000000</ele>
			</trkpt>
			<trkpt lat="50.428146" lon="14.593069">
				<ele>245.000000</ele>
			</trkpt>
			<trkpt lat="50.428146" lon="14.593230">
				<ele>245.000000</ele>
			</trkpt>
			<trkpt lat="50.428169" lon="14.593375">
				<ele>245.000000</ele>
			</trkpt>
			<trkpt lat="50.428192" lon="14.593545">
				<ele>245.000000</ele>
			</trkpt>
			<trkpt lat="50.428232" lon="14.593698">
				<ele>245.000000</ele>
			</trkpt>
			<trkpt lat="50.428283" lon="14.593878">
				<ele>245.000000</ele>
			</trkpt>
			<trkpt lat="50.428541" lon="14.594551">
				<ele>246.000000</ele>
			</trkpt>
			<trkpt lat="50.428587" lon="14.594704">
				<ele>246.000000</ele>
			</trkpt>
			<trkpt lat="50.428621" lon="14.594838">
				<ele>246.000000</ele>
			</trkpt>
			<trkpt lat="50.428650" lon="14.594973">
				<ele>246.000000</ele>
			</trkpt>
			<trkpt lat="50.428667" lon="14.595126">
				<ele>247.000000</ele>
			</trkpt>
			<trkpt lat="50.428741" lon="14.596033">
				<ele>247.000000</ele>
			</trkpt>
			<trkpt lat="50.428741" lon="14.596213">
				<ele>248.000000</ele>
			</trkpt>
			<trkpt lat="50.428741" lon="14.596356">
				<ele>248.000000</ele>
			</trkpt>
			<trkpt lat="50.428724" lon="14.596528">
				<ele>248.000000</ele>
			</trkpt>
			<trkpt lat="50.428701" lon="14.596716">
				<ele>248.000000</ele>
			</trkpt>
			<trkpt lat="50.428638" lon="14.597058">
				<ele>248.000000</ele>
			</trkpt>
			<trkpt lat="50.428575" lon="14.597371">
				<ele>249.000000</ele>
			</trkpt>
			<trkpt lat="50.428523" lon="14.597578">
				<ele>249.000000</ele>
			</trkpt>
			<trkpt lat="50.428495" lon="14.597750">
				<ele>249.000000</ele>
			</trkpt>
			<trkpt lat="50.428460" lon="14.598019">
				<ele>249.000000</ele>
			</trkpt>
			<trkpt lat="50.428455" lon="14.598270">
				<ele>249.000000</ele>
			</trkpt>
			<trkpt lat="50.428460" lon="14.598513">
				<ele>250.000000</ele>
			</trkpt>
			<trkpt lat="50.428483" lon="14.598620">
				<ele>250.000000</ele>
			</trkpt>
			<trkpt lat="50.428501" lon="14.598737">
				<ele>250.000000</ele>
			</trkpt>
			<trkpt lat="50.428564" lon="14.598944">
				<ele>250.000000</ele>
			</trkpt>
			<trkpt lat="50.428684" lon="14.599222">
				<ele>250.000000</ele>
			</trkpt>
			<trkpt lat="50.428753" lon="14.599384">
				<ele>251.000000</ele>
			</trkpt>
			<trkpt lat="50.428781" lon="14.599447">
				<ele>251.000000</ele>
			</trkpt>
			<trkpt lat="50.428815" lon="14.599492">
				<ele>251.000000</ele>
			</trkpt>
			<trkpt lat="50.428861" lon="14.599518">
				<ele>251.000000</ele>
			</trkpt>
			<trkpt lat="50.428924" lon="14.599537">
				<ele>251.000000</ele>
			</trkpt>
			<trkpt lat="50.429108" lon="14.599591">
				<ele>251.000000</ele>
			</trkpt>
			<trkpt lat="50.429285" lon="14.599662">
				<ele>252.000000</ele>
			</trkpt>
			<trkpt lat="50.429765" lon="14.599897">
				<ele>253.000000</ele>
			</trkpt>
			<trkpt lat="50.429863" lon="14.599958">
				<ele>253.000000</ele>
			</trkpt>
			<trkpt lat="50.429943" lon="14.600048">
				<ele>253.000000</ele>
			</trkpt>
			<trkpt lat="50.430017" lon="14.600147">
				<ele>254.000000</ele>
			</trkpt>
			<trkpt lat="50.430126" lon="14.600345">
				<ele>254.000000</ele>
			</trkpt>
			<trkpt lat="50.430206" lon="14.600471">
				<ele>254.000000</ele>
			</trkpt>
			<trkpt lat="50.430258" lon="14.600552">
				<ele>254.000000</ele>
			</trkpt>
			<trkpt lat="50.430332" lon="14.600606">
				<ele>255.000000</ele>
			</trkpt>
			<trkpt lat="50.430406" lon="14.600650">
				<ele>255.000000</ele>
			</trkpt>
			<trkpt lat="50.430704" lon="14.600786">
				<ele>255.000000</ele>
			</trkpt>
			<trkpt lat="50.430956" lon="14.600929">
				<ele>257.000000</ele>
			</trkpt>
			<trkpt lat="50.431556" lon="14.601270">
				<ele>260.000000</ele>
			</trkpt>
			<trkpt lat="50.431802" lon="14.601415">
				<ele>260.000000</ele>
			</trkpt>
			<trkpt lat="50.431997" lon="14.601505">
				<ele>260.000000</ele>
			</trkpt>
			<trkpt lat="50.432197" lon="14.601603">
				<ele>260.000000</ele>
			</trkpt>
			<trkpt lat="50.432466" lon="14.601702">
				<ele>261.000000</ele>
			</trkpt>
			<trkpt lat="50.432627" lon="14.601738">
				<ele>262.000000</ele>
			</trkpt>
			<trkpt lat="50.432844" lon="14.601738">
				<ele>264.000000</ele>
			</trkpt>
			<trkpt lat="50.433044" lon="14.601738">
				<ele>265.000000</ele>
			</trkpt>
			<trkpt lat="50.433376" lon="14.601746">
				<ele>265.000000</ele>
			</trkpt>
			<trkpt lat="50.433474" lon="14.601746">
				<ele>265.000000</ele>
			</trkpt>
			<trkpt lat="50.433576" lon="14.601738">
				<ele>265.000000</ele>
			</trkpt>
			<trkpt lat="50.433846" lon="14.601621">
				<ele>265.000000</ele>
			</trkpt>
			<trkpt lat="50.433908" lon="14.601595">
				<ele>265.000000</ele>
			</trkpt>
			<trkpt lat="50.433971" lon="14.601595">
				<ele>266.000000</ele>
			</trkpt>
			<trkpt lat="50.434023" lon="14.601621">
				<ele>266.000000</ele>
			</trkpt>
			<trkpt lat="50.434086" lon="14.601656">
				<ele>266.000000</ele>
			</trkpt>
			<trkpt lat="50.434131" lon="14.601729">
				<ele>267.000000</ele>
			</trkpt>
			<trkpt lat="50.434166" lon="14.601801">
				<ele>267.000000</ele>
			</trkpt>
			<trkpt lat="50.434269" lon="14.602105">
				<ele>268.000000</ele>
			</trkpt>
			<trkpt lat="50.434412" lon="14.602555">
				<ele>269.000000</ele>
			</trkpt>
			<trkpt lat="50.434475" lon="14.602681">
				<ele>270.000000</ele>
			</trkpt>
			<trkpt lat="50.434538" lon="14.602797">
				<ele>270.000000</ele>
			</trkpt>
			<trkpt lat="50.434624" lon="14.602897">
				<ele>271.000000</ele>
			</trkpt>
			<trkpt lat="50.434692" lon="14.602950">
				<ele>271.000000</ele>
			</trkpt>
			<trkpt lat="50.434772" lon="14.602996">
				<ele>272.000000</ele>
			</trkpt>
			<trkpt lat="50.434892" lon="14.603023">
				<ele>273.000000</ele>
			</trkpt>
			<trkpt lat="50.434898" lon="14.603023">
				<ele>273.000000</ele>
			</trkpt>
			<trkpt lat="50.435024" lon="14.603013">
				<ele>273.000000</ele>
			</trkpt>
			<trkpt lat="50.435213" lon="14.602987">
				<ele>275.000000</ele>
			</trkpt>
			<trkpt lat="50.435322" lon="14.602968">
				<ele>275.000000</ele>
			</trkpt>
			<trkpt lat="50.435419" lon="14.602987">
				<ele>275.000000</ele>
			</trkpt>
			<trkpt lat="50.435728" lon="14.603067">
				<ele>276.000000</ele>
			</trkpt>
			<trkpt lat="50.435968" lon="14.603148">
				<ele>277.000000</ele>
			</trkpt>
			<trkpt lat="50.436094" lon="14.603174">
				<ele>277.000000</ele>
			</trkpt>
			<trkpt lat="50.437347" lon="14.603346">
				<ele>285.000000</ele>
			</trkpt>
			<trkpt lat="50.437484" lon="14.603390">
				<ele>285.000000</ele>
			</trkpt>
			<trkpt lat="50.437593" lon="14.603463">
				<ele>285.000000</ele>
			</trkpt>
			<trkpt lat="50.437696" lon="14.603570">
				<ele>285.000000</ele>
			</trkpt>
			<trkpt lat="50.437851" lon="14.603768">
				<ele>287.000000</ele>
			</trkpt>
			<trkpt lat="50.438080" lon="14.604073">
				<ele>291.000000</ele>
			</trkpt>
			<trkpt lat="50.438114" lon="14.604100">
				<ele>291.000000</ele>
			</trkpt>
			<trkpt lat="50.438148" lon="14.604118">
				<ele>292.000000</ele>
			</trkpt>
			<trkpt lat="50.438194" lon="14.604100">
				<ele>292.000000</ele>
			</trkpt>
			<trkpt lat="50.438268" lon="14.604065">
				<ele>293.000000</ele>
			</trkpt>
			<trkpt lat="50.438474" lon="14.603920">
				<ele>294.000000</ele>
			</trkpt>
			<trkpt lat="50.438503" lon="14.603920">
				<ele>294.000000</ele>
			</trkpt>
			<trkpt lat="50.438525" lon="14.603929">
				<ele>295.000000</ele>
			</trkpt>
			<trkpt lat="50.438554" lon="14.603956">
				<ele>295.000000</ele>
			</trkpt>
			<trkpt lat="50.438566" lon="14.604002">
				<ele>295.000000</ele>
			</trkpt>
			<trkpt lat="50.438566" lon="14.604216">
				<ele>297.000000</ele>
			</trkpt>
			<trkpt lat="50.438531" lon="14.604568">
				<ele>301.000000</ele>
			</trkpt>
			<trkpt lat="50.438514" lon="14.604747">
				<ele>304.000000</ele>
			</trkpt>
			<trkpt lat="50.438531" lon="14.604872">
				<ele>306.000000</ele>
			</trkpt>
			<trkpt lat="50.438577" lon="14.605187">
				<ele>310.000000</ele>
			</trkpt>
			<trkpt lat="50.438652" lon="14.605520">
				<ele>313.000000</ele>
			</trkpt>
			<trkpt lat="50.438778" lon="14.605942">
				<ele>317.000000</ele>
			</trkpt>
			<trkpt lat="50.438989" lon="14.606616">
				<ele>324.000000</ele>
			</trkpt>
			<trkpt lat="50.439052" lon="14.606840">
				<ele>326.000000</ele>
			</trkpt>
			<trkpt lat="50.439103" lon="14.606984">
				<ele>328.000000</ele>
			</trkpt>
			<trkpt lat="50.439160" lon="14.607109">
				<ele>330.000000</ele>
			</trkpt>
			<trkpt lat="50.439230" lon="14.607254">
				<ele>332.000000</ele>
			</trkpt>
			<trkpt lat="50.439321" lon="14.607388">
				<ele>335.000000</ele>
			</trkpt>
			<trkpt lat="50.439367" lon="14.607505">
				<ele>337.000000</ele>
			</trkpt>
			<trkpt lat="50.439378" lon="14.607612">
				<ele>338.000000</ele>
			</trkpt>
			<trkpt lat="50.439367" lon="14.607730">
				<ele>340.000000</ele>
			</trkpt>
			<trkpt lat="50.439424" lon="14.607837">
				<ele>340.000000</ele>
			</trkpt>
			<trkpt lat="50.439533" lon="14.608116">
				<ele>341.000000</ele>
			</trkpt>
			<trkpt lat="50.439584" lon="14.608233">
				<ele>342.000000</ele>
			</trkpt>
			<trkpt lat="50.439659" lon="14.608313">
				<ele>344.000000</ele>
			</trkpt>
			<trkpt lat="50.439750" lon="14.608358">
				<ele>345.000000</ele>
			</trkpt>
			<trkpt lat="50.439876" lon="14.608394">
				<ele>347.000000</ele>
			</trkpt>
			<trkpt lat="50.439928" lon="14.608430">
				<ele>348.000000</ele>
			</trkpt>
			<trkpt lat="50.439973" lon="14.608457">
				<ele>348.000000</ele>
			</trkpt>
			<trkpt lat="50.440007" lon="14.608511">
				<ele>349.000000</ele>
			</trkpt>
			<trkpt lat="50.440111" lon="14.608709">
				<ele>351.000000</ele>
			</trkpt>
			<trkpt lat="50.440156" lon="14.608816">
				<ele>352.000000</ele>
			</trkpt>
			<trkpt lat="50.440174" lon="14.608916">
				<ele>353.000000</ele>
			</trkpt>
			<trkpt lat="50.440174" lon="14.609032">
				<ele>354.000000</ele>
			</trkpt>
			<trkpt lat="50.440162" lon="14.609158">
				<ele>355.000000</ele>
			</trkpt>
			<trkpt lat="50.440111" lon="14.609355">
				<ele>357.000000</ele>
			</trkpt>
			<trkpt lat="50.440048" lon="14.609535">
				<ele>359.000000</ele>
			</trkpt>
			<trkpt lat="50.439933" lon="14.609805">
				<ele>361.000000</ele>
			</trkpt>
			<trkpt lat="50.439808" lon="14.610002">
				<ele>364.000000</ele>
			</trkpt>
			<trkpt lat="50.439504" lon="14.610388">
				<ele>368.000000</ele>
			</trkpt>
			<trkpt lat="50.439675" lon="14.610558">
				<ele>370.000000</ele>
			</trkpt>
			<trkpt lat="50.439641" lon="14.611080">
				<ele>370.000000</ele>
			</trkpt>
			<trkpt lat="50.439613" lon="14.611233">
				<ele>370.000000</ele>
			</trkpt>
			<trkpt lat="50.439567" lon="14.611377">
				<ele>370.000000</ele>
			</trkpt>
			<trkpt lat="50.439527" lon="14.611503">
				<ele>371.000000</ele>
			</trkpt>
			<trkpt lat="50.439418" lon="14.611753">
				<ele>371.000000</ele>
			</trkpt>
			<trkpt lat="50.439281" lon="14.612078">
				<ele>371.000000</ele>
			</trkpt>
			<trkpt lat="50.439178" lon="14.612374">
				<ele>371.000000</ele>
			</trkpt>
			<trkpt lat="50.439035" lon="14.612814">
				<ele>371.000000</ele>
			</trkpt>
			<trkpt lat="50.438783" lon="14.613560">
				<ele>372.000000</ele>
			</trkpt>
			<trkpt lat="50.438497" lon="14.614449">
				<ele>372.000000</ele>
			</trkpt>
			<trkpt lat="50.438583" lon="14.614673">
				<ele>373.000000</ele>
			</trkpt>
			<trkpt lat="50.438646" lon="14.614898">
				<ele>373.000000</ele>
			</trkpt>
			<trkpt lat="50.438800" lon="14.615464">
				<ele>374.000000</ele>
			</trkpt>
			<trkpt lat="50.438880" lon="14.615797">
				<ele>374.000000</ele>
			</trkpt>
			<trkpt lat="50.438938" lon="14.616156">
				<ele>374.000000</ele>
			</trkpt>
			<trkpt lat="50.438972" lon="14.616542">
				<ele>375.000000</ele>
			</trkpt>
			<trkpt lat="50.438983" lon="14.616659">
				<ele>375.000000</ele>
			</trkpt>
			<trkpt lat="50.439012" lon="14.616740">
				<ele>375.000000</ele>
			</trkpt>
			<trkpt lat="50.439012" lon="14.616902">
				<ele>375.000000</ele>
			</trkpt>
			<trkpt lat="50.439029" lon="14.617090">
				<ele>375.000000</ele>
			</trkpt>
			<trkpt lat="50.439075" lon="14.617476">
				<ele>375.000000</ele>
			</trkpt>
			<trkpt lat="50.439132" lon="14.617871">
				<ele>375.000000</ele>
			</trkpt>
			<trkpt lat="50.439149" lon="14.618122">
				<ele>374.000000</ele>
			</trkpt>
			<trkpt lat="50.439149" lon="14.618248">
				<ele>373.000000</ele>
			</trkpt>
			<trkpt lat="50.439144" lon="14.618392">
				<ele>373.000000</ele>
			</trkpt>
			<trkpt lat="50.439092" lon="14.618653">
				<ele>372.000000</ele>
			</trkpt>
			<trkpt lat="50.439052" lon="14.618814">
				<ele>372.000000</ele>
			</trkpt>
			<trkpt lat="50.438966" lon="14.619040">
				<ele>371.000000</ele>
			</trkpt>
			<trkpt lat="50.438904" lon="14.619290">
				<ele>370.000000</ele>
			</trkpt>
			<trkpt lat="50.438857" lon="14.619407">
				<ele>370.000000</ele>
			</trkpt>
			<trkpt lat="50.438743" lon="14.619614">
				<ele>367.000000</ele>
			</trkpt>
			<trkpt lat="50.438709" lon="14.619677">
				<ele>366.000000</ele>
			</trkpt>
			<trkpt lat="50.438635" lon="14.619758">
				<ele>365.000000</ele>
			</trkpt>
			<trkpt lat="50.438617" lon="14.619785">
				<ele>364.000000</ele>
			</trkpt>
			<trkpt lat="50.438463" lon="14.620378">
				<ele>359.000000</ele>
			</trkpt>
			<trkpt lat="50.438377" lon="14.620745">
				<ele>357.000000</ele>
			</trkpt>
			<trkpt lat="50.438211" lon="14.621554">
				<ele>353.000000</ele>
			</trkpt>
			<trkpt lat="50.438165" lon="14.621851">
				<ele>352.000000</ele>
			</trkpt>
			<trkpt lat="50.438120" lon="14.622156">
				<ele>351.000000</ele>
			</trkpt>
			<trkpt lat="50.438085" lon="14.622327">
				<ele>350.000000</ele>
			</trkpt>
			<trkpt lat="50.438074" lon="14.622470">
				<ele>349.000000</ele>
			</trkpt>
			<trkpt lat="50.438085" lon="14.622678">
				<ele>349.000000</ele>
			</trkpt>
			<trkpt lat="50.438102" lon="14.622848">
				<ele>348.000000</ele>
			</trkpt>
			<trkpt lat="50.438125" lon="14.623001">
				<ele>348.000000</ele>
			</trkpt>
			<trkpt lat="50.438159" lon="14.623181">
				<ele>347.000000</ele>
			</trkpt>
			<trkpt lat="50.438177" lon="14.623279">
				<ele>347.000000</ele>
			</trkpt>
			<trkpt lat="50.438188" lon="14.623369">
				<ele>347.000000</ele>
			</trkpt>
			<trkpt lat="50.438188" lon="14.623594">
				<ele>346.000000</ele>
			</trkpt>
			<trkpt lat="50.438171" lon="14.623692">
				<ele>346.000000</ele>
			</trkpt>
			<trkpt lat="50.438154" lon="14.623774">
				<ele>346.000000</ele>
			</trkpt>
			<trkpt lat="50.438074" lon="14.623998">
				<ele>345.000000</ele>
			</trkpt>
			<trkpt lat="50.438039" lon="14.624114">
				<ele>345.000000</ele>
			</trkpt>
			<trkpt lat="50.438010" lon="14.624231">
				<ele>345.000000</ele>
			</trkpt>
			<trkpt lat="50.437999" lon="14.624330">
				<ele>345.000000</ele>
			</trkpt>
			<trkpt lat="50.438010" lon="14.624690">
				<ele>345.000000</ele>
			</trkpt>
			<trkpt lat="50.438010" lon="14.624833">
				<ele>345.000000</ele>
			</trkpt>
			<trkpt lat="50.438028" lon="14.624950">
				<ele>345.000000</ele>
			</trkpt>
			<trkpt lat="50.438039" lon="14.625103">
				<ele>345.000000</ele>
			</trkpt>
			<trkpt lat="50.438039" lon="14.625309">
				<ele>345.000000</ele>
			</trkpt>
			<trkpt lat="50.438034" lon="14.625472">
				<ele>345.000000</ele>
			</trkpt>
			<trkpt lat="50.437999" lon="14.625651">
				<ele>345.000000</ele>
			</trkpt>
			<trkpt lat="50.437988" lon="14.625722">
				<ele>345.000000</ele>
			</trkpt>
			<trkpt lat="50.437988" lon="14.625795">
				<ele>345.000000</ele>
			</trkpt>
			<trkpt lat="50.438023" lon="14.625974">
				<ele>345.000000</ele>
			</trkpt>
			<trkpt lat="50.438062" lon="14.626118">
				<ele>345.000000</ele>
			</trkpt>
			<trkpt lat="50.438159" lon="14.626351">
				<ele>347.000000</ele>
			</trkpt>
			<trkpt lat="50.438206" lon="14.626495">
				<ele>349.000000</ele>
			</trkpt>
			<trkpt lat="50.438234" lon="14.626621">
				<ele>350.000000</ele>
			</trkpt>
			<trkpt lat="50.438222" lon="14.626747">
				<ele>351.000000</ele>
			</trkpt>
			<trkpt lat="50.438200" lon="14.626864">
				<ele>352.000000</ele>
			</trkpt>
			<trkpt lat="50.438182" lon="14.626927">
				<ele>352.000000</ele>
			</trkpt>
			<trkpt lat="50.438171" lon="14.626998">
				<ele>353.000000</ele>
			</trkpt>
			<trkpt lat="50.438165" lon="14.627187">
				<ele>354.000000</ele>
			</trkpt>
			<trkpt lat="50.438165" lon="14.627447">
				<ele>355.000000</ele>
			</trkpt>
			<trkpt lat="50.438182" lon="14.627609">
				<ele>356.000000</ele>
			</trkpt>
			<trkpt lat="50.438211" lon="14.627743">
				<ele>356.000000</ele>
			</trkpt>
			<trkpt lat="50.438228" lon="14.627869">
				<ele>356.000000</ele>
			</trkpt>
			<trkpt lat="50.438240" lon="14.628095">
				<ele>357.000000</ele>
			</trkpt>
			<trkpt lat="50.438257" lon="14.628229">
				<ele>357.000000</ele>
			</trkpt>
			<trkpt lat="50.438257" lon="14.628309">
				<ele>357.000000</ele>
			</trkpt>
			<trkpt lat="50.438251" lon="14.628382">
				<ele>358.000000</ele>
			</trkpt>
			<trkpt lat="50.438274" lon="14.628516">
				<ele>358.000000</ele>
			</trkpt>
			<trkpt lat="50.438285" lon="14.628661">
				<ele>358.000000</ele>
			</trkpt>
			<trkpt lat="50.438268" lon="14.628812">
				<ele>358.000000</ele>
			</trkpt>
			<trkpt lat="50.438222" lon="14.629055">
				<ele>358.000000</ele>
			</trkpt>
			<trkpt lat="50.438360" lon="14.629137">
				<ele>357.000000</ele>
			</trkpt>
			<trkpt lat="50.438457" lon="14.629227">
				<ele>356.000000</ele>
			</trkpt>
			<trkpt lat="50.438560" lon="14.629351">
				<ele>356.000000</ele>
			</trkpt>
			<trkpt lat="50.438658" lon="14.629504">
				<ele>355.000000</ele>
			</trkpt>
			<trkpt lat="50.438749" lon="14.629703">
				<ele>355.000000</ele>
			</trkpt>
			<trkpt lat="50.438794" lon="14.629837">
				<ele>354.000000</ele>
			</trkpt>
			<trkpt lat="50.438818" lon="14.629980">
				<ele>354.000000</ele>
			</trkpt>
			<trkpt lat="50.438841" lon="14.630133">
				<ele>354.000000</ele>
			</trkpt>
			<trkpt lat="50.438841" lon="14.630332">
				<ele>353.000000</ele>
			</trkpt>
			<trkpt lat="50.439018" lon="14.630206">
				<ele>354.000000</ele>
			</trkpt>
			<trkpt lat="50.439092" lon="14.630160">
				<ele>354.000000</ele>
			</trkpt>
			<trkpt lat="50.439173" lon="14.630133">
				<ele>354.000000</ele>
			</trkpt>
			<trkpt lat="50.439264" lon="14.630133">
				<ele>354.000000</ele>
			</trkpt>
			<trkpt lat="50.439332" lon="14.629819">
				<ele>354.000000</ele>
			</trkpt>
			<trkpt lat="50.439424" lon="14.629846">
				<ele>354.000000</ele>
			</trkpt>
			<trkpt lat="50.439819" lon="14.629972">
				<ele>354.000000</ele>
			</trkpt>
			<trkpt lat="50.439870" lon="14.629999">
				<ele>355.000000</ele>
			</trkpt>
			<trkpt lat="50.439933" lon="14.630070">
				<ele>355.000000</ele>
			</trkpt>
			<trkpt lat="50.440065" lon="14.630269">
				<ele>355.000000</ele>
			</trkpt>
			<trkpt lat="50.440099" lon="14.630349">
				<ele>355.000000</ele>
			</trkpt>
			<trkpt lat="50.440145" lon="14.630466">
				<ele>355.000000</ele>
			</trkpt>
			<trkpt lat="50.440334" lon="14.630403">
				<ele>355.000000</ele>
			</trkpt>
			<trkpt lat="50.440528" lon="14.630359">
				<ele>354.000000</ele>
			</trkpt>
			<trkpt lat="50.440780" lon="14.630322">
				<ele>352.000000</ele>
			</trkpt>
			<trkpt lat="50.441220" lon="14.630214">
				<ele>348.000000</ele>
			</trkpt>
			<trkpt lat="50.441421" lon="14.630143">
				<ele>346.000000</ele>
			</trkpt>
			<trkpt lat="50.441627" lon="14.630043">
				<ele>343.000000</ele>
			</trkpt>
			<trkpt lat="50.441724" lon="14.629990">
				<ele>342.000000</ele>
			</trkpt>
			<trkpt lat="50.441804" lon="14.629972">
				<ele>341.000000</ele>
			</trkpt>
			<trkpt lat="50.441861" lon="14.629999">
				<ele>340.000000</ele>
			</trkpt>
			<trkpt lat="50.441896" lon="14.630070">
				<ele>340.000000</ele>
			</trkpt>
			<trkpt lat="50.441924" lon="14.630152">
				<ele>340.000000</ele>
			</trkpt>
			<trkpt lat="50.441959" lon="14.630214">
				<ele>340.000000</ele>
			</trkpt>
			<trkpt lat="50.441993" lon="14.630223">
				<ele>340.000000</ele>
			</trkpt>
			<trkpt lat="50.442033" lon="14.630223">
				<ele>340.000000</ele>
			</trkpt>
			<trkpt lat="50.442210" lon="14.630179">
				<ele>340.000000</ele>
			</trkpt>
			<trkpt lat="50.442330" lon="14.630160">
				<ele>340.000000</ele>
			</trkpt>
			<trkpt lat="50.442427" lon="14.630179">
				<ele>340.000000</ele>
			</trkpt>
			<trkpt lat="50.442588" lon="14.630232">
				<ele>340.000000</ele>
			</trkpt>
			<trkpt lat="50.442748" lon="14.630062">
				<ele>340.000000</ele>
			</trkpt>
			<trkpt lat="50.442885" lon="14.629854">
				<ele>343.000000</ele>
			</trkpt>
			<trkpt lat="50.442931" lon="14.629793">
				<ele>344.000000</ele>
			</trkpt>
			<trkpt lat="50.442965" lon="14.629747">
				<ele>345.000000</ele>
			</trkpt>
			<trkpt lat="50.443011" lon="14.629730">
				<ele>346.000000</ele>
			</trkpt>
		</trkseg>
	</trk>
</gpx>

